{"version": 0.6, "generator": "Overpass API 0.7.60.2 e4cf9f7a", "osm3s": {"timestamp_osm_base": "2023-05-23T07:22:39Z", "copyright": "The data included in this document is from www.openstreetmap.org. The data is made available under ODbL."}, "elements": [{"type": "node", "id": 24958713, "lat": 55.6892934, "lon": 12.5578332, "tags": {"amenity": "pub", "check_date": "2023-05-14", "fvst:name": "Cerevisia", "fvst:navnelbnr": "111614", "name": "\u00d8lbaren", "opening_hours": "Mo 21:00-01:00, Tu-We 16:00-01:00, Th 16:00-02:00, Fr 15:00-02:00, Sa 13:00-02:00, Su 13:00-23:00", "phone": "+45 35354534", "ref:DK:cvr": "26748097", "smoking": "no", "website": "http://oelbaren.dk/"}}, {"type": "node", "id": 25440922, "lat": 55.6834082, "lon": 12.5651843, "tags": {"amenity": "pub", "fvst:navnelbnr": "1253893", "name": "Banker\u00e5t", "opening_hours": "Mo-Fr 09:30-24:00;Sa-Su 10:30-24:00", "opening_hours:url": "https://www.facebook.com/bankeraat/info", "phone": "+45 33 93 69 88", "ref:DK:cvr": "41544988", "ref:DK:cvr:pnummer": "1028568971", "smoking": "no", "website": "http://www.bankeraat.dk", "wheelchair": "no"}}, {"type": "node", "id": 277694702, "lat": 55.6770916, "lon": 12.532119, "tags": {"amenity": "pub", "fvst:navnelbnr": "115321", "name": "Cafe Intime", "opening_hours": "Mo-Su 16:00 - 02:00", "phone": "+45 38 34 19 58", "ref:DK:cvr": "27979440", "ref:DK:cvr:pnummer": "1010696328", "toilets": "yes", "website": "http://www.cafeintime.dk/", "wikidata": "Q12305023", "wikipedia": "da:Cafe Intime"}}, {"type": "node", "id": 277703258, "lat": 55.6752681, "lon": 12.5328906, "tags": {"alt_name": "Psykopaten", "amenity": "pub", "fvst:navnelbnr": "111210", "name": "All\u00e9enberg", "opening_hours": "Tu-Sa 22:00-05:00", "outdoor_seating": "yes", "payment:credit_cards": "yes", "phone": "+45 33254442", "ref:DK:cvr": "25689097", "ref:DK:cvr:pnummer": "1007991440", "toilets": "yes", "website": "http://www.alleenberg.dk/", "wheelchair": "no"}}, {"type": "node", "id": 278380921, "lat": 55.6789275, "lon": 12.5274752, "tags": {"amenity": "pub", "fvst:navnelbnr": "921122", "name": "Cafe Svejk", "opening_hours": "Su-Mo 12:00-24:00;Tu-Sa 12:00-02:00", "phone": "+45 38862560", "ref:DK:cvr": "40692932", "ref:DK:cvr:pnummer": "1024914271", "wheelchair": "yes"}}, {"type": "node", "id": 278389273, "lat": 55.6742295, "lon": 12.5399431, "tags": {"amenity": "pub", "fvst:navnelbnr": "738934", "name": "Promenaden", "opening_hours": "Mo-We 11:00-23:00; Th-Sa 11:00-24:00; Su 11:00-18:00", "ref:DK:cvr": "39126680", "ref:DK:cvr:pnummer": "1023555944", "wheelchair": "no"}}, {"type": "node", "id": 279143817, "lat": 55.6836628, "lon": 12.5245604, "tags": {"amenity": "pub", "fvst:navnelbnr": "111869", "name": "Bartof Caf\u00e9", "outdoor_seating": "yes", "phone": "+45 38 86 90 67", "ref:DK:cvr": "28000243", "ref:DK:cvr:pnummer": "1010921615", "smoking": "no", "website": "http://bartofcafe.dk", "wheelchair": "no"}}, {"type": "node", "id": 279144098, "lat": 55.6855209, "lon": 12.5382279, "tags": {"amenity": "pub", "fvst:navnelbnr": "112209", "name": "London Pub", "ref:DK:cvr": "30725662", "ref:DK:cvr:pnummer": "1013479026", "wheelchair": "no"}}, {"type": "node", "id": 279472194, "lat": 55.6763998, "lon": 12.5733293, "tags": {"amenity": "bar", "facebook": "https://www.facebook.com/dropinnmusic/", "fvst:navnelbnr": "795821", "name": "Drop Inn", "opening_hours": "Mo,Tu 14:00-24:00, We,Th 14:00-02:00, Fr,Sa 14:00-03:00; Su off", "outdoor_seating": "yes", "phone": "+45 33112404", "ref:DK:cvr": "38578553", "ref:DK:cvr:pnummer": "1022372145", "toilets": "yes", "website": "https://drop-inn.dk/", "wheelchair": "limited"}}, {"type": "node", "id": 279690426, "lat": 55.6782361, "lon": 12.5668224, "tags": {"amenity": "pub", "facebook": "https://www.facebook.com/pubogsport/", "fvst:navnelbnr": "112682", "name": "Pub & Sport", "opening_hours": "Mo-Th 16:00-01:00, Fr 15:00-03:00,Sa 13:00-03:00,Su 14:00-23:00", "phone": "+45 33150810", "ref:DK:cvr": "28323565", "ref:DK:cvr:pnummer": "1011061059", "website": "http://www.pubogsport.dk", "wheelchair": "limited"}}, {"type": "node", "id": 279901270, "lat": 55.6786581, "lon": 12.5325728, "tags": {"amenity": "bar", "fvst:navnelbnr": "719930", "name": "The Old Irish Pub", "payment:credit_cards": "yes", "phone": "+45 5189 7713", "ref:DK:cvr": "35028692", "ref:DK:cvr:pnummer": "1022691070", "toilets": "yes", "website": "https://oldirishpub.dk/", "wheelchair": "yes"}}, {"type": "node", "id": 280790084, "lat": 55.677942, "lon": 12.5768752, "tags": {"amenity": "pub", "fvst:navnelbnr": "114203", "name": "Lord Nelson", "name:es": "Lord Nelson Bar", "opening_hours": "Mo 15:30-24:00, Tu-We 15:30-02:00, Th 15:30-03:00, Fr 15:00-05:00, Sa 14:00-05:00", "phone": "+45 33 93 93 94", "ref:DK:cvr": "28712057", "ref:DK:cvr:pnummer": "1011345367", "website": "http://www.lordnelson.dk"}}, {"type": "node", "id": 280790473, "lat": 55.6786922, "lon": 12.5732662, "tags": {"amenity": "pub", "fvst:navnelbnr": "117090", "name": "Charlie Scotts", "ref:DK:cvr": "29838593", "ref:DK:cvr:pnummer": "1012533914", "toilets": "yes"}}, {"type": "node", "id": 281539863, "lat": 55.6759526, "lon": 12.567219, "tags": {"amenity": "pub", "fvst:navnelbnr": "115440", "name": "The Scottish Pub", "opening_hours": "Mo-Th 12:00-03:00; Fr-Sa 12:00-05:00; Su 12:00-02:00", "phone": "+4533159243", "ref:DK:cvr": "20288132", "ref:DK:cvr:pnummer": "1004222759", "website": "https://thescottishpub.dk/", "wheelchair": "yes"}}, {"type": "node", "id": 281787637, "lat": 55.6771072, "lon": 12.5694984, "tags": {"amenity": "pub", "fvst:name": "Brew Pub K\u00f8benhavn, Bryggeri", "fvst:navnelbnr": "116483", "microbrewery": "yes", "name": "Brew Pub", "ref:DK:cvr": "28110324", "ref:DK:cvr:pnummer": "1010771060", "smoking": "no", "website": "https://brewpub.dk"}}, {"type": "node", "id": 281998525, "lat": 55.6864556, "lon": 12.5579695, "tags": {"amenity": "bar", "fvst:navnelbnr": "567872", "internet_access": "wlan", "name": "Bl\u00e5g\u00e5rds Apotek", "opening_hours": "Mo-Th 14:00-02:00, Fr-Su 12:00-02:00", "ref:DK:cvr": "31896738", "ref:DK:cvr:pnummer": "1014980128", "website": "http://kroteket.dk/"}}, {"type": "node", "id": 316122207, "lat": 55.6814563, "lon": 12.5495147, "tags": {"amenity": "pub", "fvst:navnelbnr": "955287", "name": "Bodega 48", "ref:DK:cvr": "36152680"}}, {"type": "node", "id": 335962972, "lat": 55.6953457, "lon": 12.543356, "tags": {"amenity": "pub", "fvst:navnelbnr": "720885", "indoor_seating": "yes", "internet_access": "wlan", "internet_access:fee": "no", "name": "Caf\u00e9 Stefanshus", "opening_hours": "Mo-We 08:00-01:00,Th-Sa 08:00-01:00,Su 11:00-23:00", "outdoor_seating": "yes", "ref:DK:cvr": "35240586", "ref:DK:cvr:pnummer": "1018480081", "website": "http://www.acedesign.dk/stefanshus/", "wheelchair": "limited"}}, {"type": "node", "id": 428734579, "lat": 55.6809434, "lon": 12.5739275, "tags": {"amenity": "pub", "fvst:navnelbnr": "111501", "name": "Caf\u00e9 Halvvejen", "outdoor_seating": "yes", "phone": "+45 33119112", "ref:DK:cvr": "34483795", "ref:DK:cvr:pnummer": "1017639249", "smoking": "yes", "website": "http://www.cafehalvvejen.dk/", "wheelchair": "no"}}, {"type": "node", "id": 442948295, "lat": 55.6632055, "lon": 12.5421603, "tags": {"air_conditioning": "no", "amenity": "bar", "check_date:opening_hours": "2022-08-17", "indoor_seating": "yes", "name": "Ramblin", "opening_hours:signed": "no", "outdoor_seating": "yes", "table_soccer": "french"}}, {"type": "node", "id": 496287667, "lat": 55.6653765, "lon": 12.5171005, "tags": {"amenity": "pub", "fvst:navnelbnr": "714464", "name": "M\u00f8lle Cafeen", "opening_hours:signed": "no", "ref:DK:cvr": "10092337", "ref:DK:cvr:pnummer": "1000016592", "wheelchair": "no"}}, {"type": "node", "id": 496327697, "lat": 55.6652831, "lon": 12.5164963, "tags": {"amenity": "pub", "fvst:navnelbnr": "554771", "man_made": "surveillance", "name": "Tofteg\u00e5rds Bodega", "opening_hours": "Mo-Su 10:00-02:00", "ref:DK:cvr": "68899028", "ref:DK:cvr:pnummer": "1002283329", "wheelchair": "limited"}}, {"type": "node", "id": 496331430, "lat": 55.663277, "lon": 12.514473, "tags": {"amenity": "pub", "fvst:navnelbnr": "113831", "name": "Valby Borger Kro", "opening_hours": "Mo-We 14:00-20:00; Th-Fr 14:00-24:00", "ref:DK:cvr": "19915875", "ref:DK:cvr:pnummer": "1004052886"}}, {"type": "node", "id": 515718720, "lat": 55.6821362, "lon": 12.574042, "tags": {"amenity": "pub", "fvst:navnelbnr": "923994", "indoor_seating": "yes", "name": "Hvide Lam", "opening_hours": "Mo-We 11:00+; Su,PH 12:00+", "outdoor_seating": "yes", "ref:DK:cvr": "31625246", "ref:DK:cvr:pnummer": "1025167747", "smoking": "yes", "website": "https://hvide-lam.dk/", "wikidata": "Q27235433"}}, {"type": "node", "id": 664252432, "lat": 55.6957867, "lon": 12.5439481, "tags": {"amenity": "pub", "fvst:navnelbnr": "552520", "name": "Caf\u00e9 Lille Peter", "opening_hours": "08:00-24:00", "phone": "+45 35851019", "ref:DK:cvr": "17302582", "ref:DK:cvr:pnummer": "1018052616"}}, {"type": "node", "id": 674047419, "lat": 55.6679147, "lon": 12.5563801, "tags": {"alt_name": "Fermentoren Beer Bar", "amenity": "bar", "fvst:navnelbnr": "543448", "internet_access": "wlan", "name": "Fermentoren", "opening_hours": "Mo-We 15:00-24:00; Th 14:00-01:00; Fr-Sa 14:00-02:00; Su 14:00-24:00", "outdoor_seating": "yes", "payment:credit_cards": "yes", "phone": "+45 23908677", "ref:DK:cvr": "33866569", "ref:DK:cvr:pnummer": "1017045586", "website": "http://www.fermentoren.com"}}, {"type": "node", "id": 674777891, "lat": 55.6660602, "lon": 12.5535057, "tags": {"amenity": "bar", "brewery": "Tuborg;Carlsberg", "fvst:navnelbnr": "1250443", "indoor_seating": "yes", "internet_access": "wlan", "name": "Bar 33 Vesterbro", "old_name": "Cafe 33", "opening_hours": "Fr,Sa 11:00-02:00, Su-Th 11:00-24:00", "outdoor_seating": "yes", "phone": "+45 25 55 55 25", "ref:DK:cvr": "43278770", "ref:DK:cvr:pnummer": "1028273505", "website": "https://bar33.dk/"}}, {"type": "node", "id": 674787360, "lat": 55.667143, "lon": 12.5479089, "tags": {"amenity": "pub", "brewery": "Guinness", "facebook": "https://www.facebook.com/pages/Cafe-Snork-IS/179271535425651", "fvst:navnelbnr": "113622", "name": "Caf\u00e9 Snork", "opening_hours": "14:00-02:00", "outdoor_seating": "yes", "phone": "+45 33315314", "ref:DK:cvr": "21338044", "ref:DK:cvr:pnummer": "1000664948", "toilets": "yes", "website": "http://cafesnork.dk/", "wheelchair": "no"}}, {"type": "node", "id": 674852970, "lat": 55.6672208, "lon": 12.553453, "tags": {"amenity": "bar", "branch": "Vesterbro", "check_date": "2021-08-03", "fvst:navnelbnr": "992119", "indoor_seating": "yes", "name": "Caf\u00e9 42", "outdoor_seating": "yes", "phone": "+45 33316066", "ref:DK:cvr": "41627581", "ref:DK:cvr:pnummer": "1026200292", "website": "https://bar42.dk/"}}, {"type": "node", "id": 676009938, "lat": 55.6683619, "lon": 12.5501454, "tags": {"amenity": "bar", "fvst:navnelbnr": "118681", "name": "Mc Kluud", "opening_hours": "14:00-02:00", "phone": "+45 33316383", "ref:DK:cvr": "28317212", "ref:DK:cvr:pnummer": "1001966636", "smoking": "isolated", "website": "http://www.mckluud.dk/", "wheelchair": "no"}}, {"type": "node", "id": 679304500, "lat": 55.6906927, "lon": 12.554622, "tags": {"amenity": "pub", "fvst:navnelbnr": "113223", "name": "Det Rene Glas", "opening_hours": "Su 11:00-24:00, Mo-Fr 10:00-02:00, Sa 11:00-02:00", "ref:DK:cvr": "35406778", "ref:DK:cvr:pnummer": "1018655175", "wheelchair": "limited"}}, {"type": "node", "id": 679306027, "lat": 55.6908003, "lon": 12.5614037, "tags": {"amenity": "pub", "fvst:navnelbnr": "1284706", "name": "Cafeen Funke", "ref:DK:cvr": "43682962", "ref:DK:cvr:pnummer": "1028970575", "wheelchair": "no", "wheelchair:description": "[noParking noEntry 3-4 steps and no outdoor chairs/tables 2012/tbasen.dk]"}}, {"type": "node", "id": 683139428, "lat": 55.6676075, "lon": 12.548428, "tags": {"amenity": "bar", "check_date": "2023-04-04", "fvst:navnelbnr": "114369", "name": "Caf\u00e8 Blomsten", "phone": "+45 33213502", "ref:DK:cvr": "25637607", "ref:DK:cvr:pnummer": "1007931863", "smoking": "separated"}}, {"type": "node", "id": 683141422, "lat": 55.6692729, "lon": 12.5496981, "tags": {"alt_name": "Riesen Bar", "amenity": "bar", "check_date": "2023-04-10", "fvst:navnelbnr": "117982", "name": "Riesen", "ref:DK:cvr": "27931294", "wheelchair": "no"}}, {"type": "node", "id": 683192044, "lat": 55.6675503, "lon": 12.5553934, "tags": {"amenity": "pub", "email": "kontakt@cafegrotten.dk", "fvst:navnelbnr": "988049", "indoor_seating": "yes", "name": "Caf\u00e9 Grotten", "opening_hours": "Mo-We 10:00-02:00, Th-Sa 10:00-05:00", "outdoor_seating": "yes", "phone": "+45 33218551", "ref:DK:cvr": "42247642", "ref:DK:cvr:pnummer": "1026958489", "website": "http://www.cafegrotten.dk/"}}, {"type": "node", "id": 687312669, "lat": 55.6772854, "lon": 12.5693007, "tags": {"amenity": "bar", "fvst:navnelbnr": "118492", "name": "Caf\u00e8 Guldhornene", "payment:bitcoin": "yes", "ref:DK:cvr": "31933307", "ref:DK:cvr:pnummer": "1017064254"}}, {"type": "node", "id": 687313455, "lat": 55.6773855, "lon": 12.5694568, "tags": {"amenity": "bar", "fvst:navnelbnr": "115897", "name": "Heidi's Bier Bar", "payment:bitcoin": "yes", "ref:DK:cvr": "27647952", "ref:DK:cvr:pnummer": "1010459180", "website": "https://www.heidisbierbar.dk"}}, {"type": "node", "id": 687314560, "lat": 55.6779133, "lon": 12.5705635, "tags": {"amenity": "bar", "fvst:name": "THE AUSTRALIAN BAR K\u00d8BENHAVN", "fvst:navnelbnr": "112416", "name": "The Australien Bar", "ref:DK:cvr": "17890670", "ref:DK:cvr:pnummer": "1015169296", "website": "https://www.abar.dk/"}}, {"type": "node", "id": 687314916, "lat": 55.6779717, "lon": 12.5707085, "tags": {"amenity": "bar", "fvst:navnelbnr": "661116", "name": "La Boucherie", "ref:DK:cvr": "35043519", "ref:DK:cvr:pnummer": "1018333305"}}, {"type": "node", "id": 698514092, "lat": 55.6730196, "lon": 12.5597708, "tags": {"amenity": "pub", "fvst:navnelbnr": "118919", "name": "City Pub", "opening_hours": "Su-Tu 16:00-24:00, We,Th 16:00-01:00, Fr,Su 14:00-02:00", "ref:DK:cvr": "31602858", "ref:DK:cvr:pnummer": "1014573034", "wheelchair": "no"}}, {"type": "node", "id": 698796999, "lat": 55.668674, "lon": 12.5565742, "tags": {"alt_name": "St. Pauli 54", "amenity": "bar", "fvst:navnelbnr": "1253868", "name": "St. Pauli Minibar", "phone": "+45 33316527", "ref:DK:cvr": "40403981", "ref:DK:cvr:pnummer": "1024571927"}}, {"type": "node", "id": 698800833, "lat": 55.6696351, "lon": 12.5582526, "tags": {"amenity": "bar", "fvst:navnelbnr": "662590", "indoor_seating": "yes", "name": "Freddys Bar", "outdoor_seating": "yes", "phone": "+45 33227095", "ref:DK:cvr": "28658532", "ref:DK:cvr:pnummer": "1012400221", "wheelchair": "no"}}, {"type": "node", "id": 698801245, "lat": 55.6702253, "lon": 12.5580263, "tags": {"amenity": "bar", "fvst:navnelbnr": "112271", "indoor_seating": "yes", "name": "Hos Tove", "outdoor_seating": "yes", "phone": "+45 33243782", "ref:DK:cvr": "18523175", "ref:DK:cvr:pnummer": "1003468458", "wheelchair": "no"}}, {"type": "node", "id": 704974846, "lat": 55.6864665, "lon": 12.5500587, "tags": {"amenity": "bar", "fvst:navnelbnr": "577983", "name": "Tjili Pop 2", "opening_hours": "Su,Mo 09:00-01:00, Tu,We 09:00-02:00, Th 09:00-03:00, Fr,Sa 09:00-04:00", "ref:DK:cvr": "29550964", "ref:DK:cvr:pnummer": "1004630426", "website": "https://www.tjili.dk/", "wheelchair": "no", "wikidata": "Q18552345"}}, {"type": "node", "id": 724350527, "lat": 55.6723347, "lon": 12.5498081, "tags": {"amenity": "pub", "fvst:navnelbnr": "796827", "name": "Caf\u00e9 Guldregn", "ref:DK:cvr": "21848476", "ref:DK:cvr:pnummer": "1005251062", "website": "http://www.cafe-guldregn.dk/"}}, {"type": "node", "id": 727411650, "lat": 55.6717251, "lon": 12.5458974, "tags": {"amenity": "pub", "check_date": "2023-03-30", "facebook": "https://www.facebook.com/M\u00c4RKBAR-189115531112278/", "fvst:navnelbnr": "116648", "name": "M\u00e4rkbar", "wheelchair": "no"}}, {"type": "node", "id": 727436488, "lat": 55.6721637, "lon": 12.5636709, "tags": {"amenity": "bar", "contact:phone": "+45 33216090", "fvst:navnelbnr": "113401", "name": "Jernbanecafeen", "ref:DK:cvr": "17125273", "ref:DK:cvr:pnummer": "1001227682", "website": "http://www.jernbanecafeen.dk/", "wheelchair": "no", "wikidata": "Q23596044"}}, {"type": "node", "id": 734870384, "lat": 55.6708206, "lon": 12.546286, "tags": {"amenity": "pub", "fvst:navnelbnr": "1228672", "name": "Grusgraven", "ref:DK:cvr": "34409234", "ref:DK:cvr:pnummer": "1026525027", "wheelchair": "no"}}, {"type": "node", "id": 735030034, "lat": 55.6740877, "lon": 12.5513488, "tags": {"amenity": "pub", "fvst:navnelbnr": "114373", "name": "Larsen's Plaz", "ref:DK:cvr": "18958899", "ref:DK:cvr:pnummer": "1009849625", "wheelchair": "no"}}, {"type": "node", "id": 736442048, "lat": 55.6897381, "lon": 12.5602229, "tags": {"amenity": "pub", "fvst:navnelbnr": "111261", "name": "Kattens k\u00e6lder", "ref:DK:cvr": "11929087", "ref:DK:cvr:pnummer": "1002914270", "wheelchair": "no"}}, {"type": "node", "id": 736564703, "lat": 55.6696331, "lon": 12.5544432, "tags": {"alt_name": "Skipper Bodega", "amenity": "pub", "contact:phone": "+45 33 31 84 76", "fvst:navnelbnr": "112401", "indoor_seating": "yes", "name": "Skippers Bodega", "outdoor_seating": "yes", "ref:DK:cvr": "34445060", "ref:DK:cvr:pnummer": "1017586684", "smoking": "yes", "wheelchair": "no"}}, {"type": "node", "id": 737887225, "lat": 55.6688571, "lon": 12.5487739, "tags": {"amenity": "pub", "fvst:navnelbnr": "574833", "name": "Caf\u00e9 Erik", "ref:DK:cvr": "29942552", "ref:DK:cvr:pnummer": "1018451251"}}, {"type": "node", "id": 738821344, "lat": 55.6695214, "lon": 12.5400724, "tags": {"amenity": "pub", "fvst:navnelbnr": "923976", "name": "Bob's Hytte", "opening_hours": "Mo-Th 12:00-24:00, Fr,Sa 12:00-03:00, Su 12:00-22:00", "ref:DK:cvr": "32297757", "ref:DK:cvr:pnummer": "1025026868", "wheelchair": "limited"}}, {"type": "node", "id": 738821350, "lat": 55.6709507, "lon": 12.5436884, "tags": {"amenity": "bar", "description": "Vesterbros hyggeligste bar med livesport p\u00e5 storsk\u00e6rme, pool, dart, bordfodbold, plus en l\u00e6kker menu best\u00e5ende af diverse cocktails, special \u00f8l og shots... \u00c5ben alle dage!", "facebook": "https://www.facebook.com/cafeludwigsen/", "fvst:navnelbnr": "699132", "name": "Caf\u00e9 Ludwigsen", "opening_hours": "Mo-We 14:00-02:00, Th-Sa 14:00-05:00, Su 14:00-02:00", "outdoor_seating": "yes", "payment:credit_cards": "yes", "phone": "+45 33237720", "ref:DK:cvr": "33766653", "ref:DK:cvr:pnummer": "1016948833", "sport": "table_soccer", "toilets": "yes", "toilets:wheelchair": "no", "website": "http://www.cafeludwigsen.dk/", "wheelchair": "no"}}, {"type": "node", "id": 745576449, "lat": 55.6654768, "lon": 12.5388859, "tags": {"air_conditioning": "no", "amenity": "bar", "fvst:navnelbnr": "794011", "indoor_seating": "yes", "name": "Cafe Bryggeriet", "opening_hours": "Mo-Th 12:00-24:00, Fr 12:00-05:00, Sa 12:00-03:00", "outdoor_seating": "yes", "ref:DK:cvr": "40108173", "ref:DK:cvr:pnummer": "1024242036", "wheelchair": "no"}}, {"type": "node", "id": 746251105, "lat": 55.6675771, "lon": 12.5780731, "tags": {"amenity": "bar", "fvst:navnelbnr": "112526", "name": "Caf\u00e9 Haraldsborg", "opening_hours": "Mo-Su 10:00-02:00", "phone": "+45 32 54 69 02", "ref:DK:cvr": "18021102", "ref:DK:cvr:pnummer": "1002973532"}}, {"type": "node", "id": 746302702, "lat": 55.6690764, "lon": 12.5500661, "tags": {"alt_name": "Bodega Det lille \u00d8resund", "amenity": "bar", "check_date": "2023-04-10", "fvst:navnelbnr": "712408", "name": "Det Lille \u00d8resund", "ref:DK:cvr": "33665253", "smoking": "yes", "wheelchair": "no"}}, {"type": "node", "id": 818683303, "lat": 55.6812668, "lon": 12.5645148, "tags": {"amenity": "pub", "fvst:navnelbnr": "658921", "name": "\u00d8rsted \u00d8lbar & Cafe", "ref:DK:cvr": "36717009", "ref:DK:cvr:pnummer": "1020328815", "website": "https://oerstedoelbar.dk/", "wheelchair": "no"}}, {"type": "node", "id": 818898743, "lat": 55.6719575, "lon": 12.5575483, "tags": {"amenity": "bar", "contact:instagram": "https://www.instagram.com/mikkellerbarvik", "fvst:navnelbnr": "576202", "min_age": "18", "name": "Mikkeller Bar Viktoriagade", "opening_hours": "Mo-Th 14:00-23:00; Fr 14:00-00:00; Sa 12:00-00:00; Su 14:00-22:00", "phone": "+45 33310415", "ref:DK:cvr": "32297757", "ref:DK:cvr:pnummer": "1019053373", "website": "https://mikkeller.com/locations/mikkeller-viktoriagade", "wheelchair": "no"}}, {"type": "node", "id": 823266193, "lat": 55.6788127, "lon": 12.5313704, "tags": {"alt_name": "H.H. Ranch", "amenity": "pub", "fvst:navnelbnr": "112052", "name": "Western Saloon", "ref:DK:cvr": "10193001", "wheelchair": "no"}}, {"type": "node", "id": 861271148, "lat": 55.6633027, "lon": 12.5420331, "tags": {"air_conditioning": "no", "amenity": "pub", "facebook": "https://www.facebook.com/pages/Cafe-Hytten/113255848745624", "fvst:navnelbnr": "796833", "indoor_seating": "yes", "name": "Cafe Hytten", "opening_hours": "Mo-Sa 06:00-01:00, Su 10:00-01:00", "outdoor_seating": "no", "phone": "+45 33 79 70 70", "ref:DK:cvr": "26348196", "ref:DK:cvr:pnummer": "1019889730", "smoking": "yes", "wheelchair": "no"}}, {"type": "node", "id": 870440497, "lat": 55.6736923, "lon": 12.5560021, "tags": {"amenity": "bar", "fvst:name": "Kennedys irish Bar A Kennedy & T Tynan", "fvst:navnelbnr": "111889", "name": "Kennedys Irish Bar", "opening_hours": "Mo-Su 12:00-02:00", "phone": "+45 33315249", "ref:DK:cvr": "25715640", "ref:DK:cvr:pnummer": "1008021429", "wheelchair": "no"}}, {"type": "node", "id": 888340138, "lat": 55.673194, "lon": 12.5612145, "tags": {"alt_name": "Scandic Cube Cafe", "amenity": "bar", "check_date": "2023-04-02", "fvst:navnelbnr": "116204", "name": "Cube", "operator": "Scandic Webers", "phone": "+45 33311432", "ref:DK:cvr": "12596774", "wheelchair": "no"}}, {"type": "node", "id": 893959430, "lat": 55.6754287, "lon": 12.5644398, "tags": {"amenity": "bar", "fvst:navnelbnr": "510638", "name": "Axelborg Bodega", "opening_hours": "11:00-16:00,16:00+", "phone": "+45 33110638", "ref:DK:cvr": "34216444", "ref:DK:cvr:pnummer": "1017432954", "website": "http://www.axelborgbodega.dk/", "wheelchair": "no"}}, {"type": "node", "id": 893968817, "lat": 55.6764611, "lon": 12.5713541, "tags": {"amenity": "bar", "fvst:navnelbnr": "114140", "name": "Villa Vino", "ref:DK:cvr": "27509894", "ref:DK:cvr:pnummer": "1003186208"}}, {"type": "node", "id": 895776321, "lat": 55.6754762, "lon": 12.5662861, "tags": {"amenity": "pub", "branch": "Vesterbrogade", "brand": "The Old Irish Pub", "fvst:navnelbnr": "749035", "name": "The Old Irish Pub Vesterbrogade", "phone": "+45 51 26 84 97", "ref:DK:cvr": "35028692", "ref:DK:cvr:pnummer": "1023454013", "website": "https://oldirishpub.dk/", "wheelchair": "no"}}, {"type": "node", "id": 895777978, "lat": 55.6755287, "lon": 12.5664591, "tags": {"amenity": "pub", "fvst:navnelbnr": "111291", "name": "The Old English Pub", "ref:DK:cvr": "15699345", "ref:DK:cvr:pnummer": "1002974400", "source": "Kaart Ground Survey 2017", "wheelchair": "limited"}}, {"type": "node", "id": 898953156, "lat": 55.6805487, "lon": 12.5771236, "tags": {"alt_name": "Hornsleth Bar", "amenity": "bar", "fvst:navnelbnr": "666955", "min_age": "23", "name": "Hornsleth", "opening_hours": "Fr-Sa 22:00-05:00", "phone": "+45 31737308", "ref:DK:cvr": "32141099", "ref:DK:cvr:pnummer": "1017108979", "website": "http://hornslethbar.dk/kobenhavn/"}}, {"type": "node", "id": 898964645, "lat": 55.6800207, "lon": 12.5746175, "tags": {"alt_name": "Surf Bar", "amenity": "bar", "fvst:navnelbnr": "117912", "name": "Den glade Gris", "ref:DK:cvr": "28515626", "ref:DK:cvr:pnummer": "1011226384"}}, {"type": "node", "id": 899019395, "lat": 55.671677, "lon": 12.5547467, "tags": {"amenity": "bar", "cuisine": "wine", "fvst:navnelbnr": "116093", "name": "Vinbaren Vesterbro Torv", "phone": "+45 21408527", "ref:DK:cvr": "18050285", "ref:DK:cvr:pnummer": "1015008055", "website": "http://vinbarenvesterbrotorv.dk/", "wheelchair": "no"}}, {"type": "node", "id": 978057337, "lat": 55.6837431, "lon": 12.56518, "tags": {"amenity": "bar", "fvst:navnelbnr": "114549", "name": "Bibendum", "opening_hours": "Mo-Th 17:00-23:00; Fr-Sa 16:00-23:00; Su off", "opening_hours:kitchen": "16:00-22:00; Su", "phone": "+45 33330774", "ref:DK:cvr": "26925142", "ref:DK:cvr:pnummer": "1009597197", "website": "https://bibendum.dk/", "wheelchair": "no"}}, {"type": "node", "id": 1109570885, "lat": 55.6950589, "lon": 12.5479618, "tags": {"amenity": "pub", "fvst:navnelbnr": "111781", "name": "N\u00f8rre Bodega", "opening_hours": "Mo-Su 10:00-05:00", "ref:DK:cvr": "13986940", "ref:DK:cvr:pnummer": "1000661172", "wheelchair": "limited"}}, {"type": "node", "id": 1118919064, "lat": 55.6942552, "lon": 12.5482944, "tags": {"amenity": "pub", "fvst:navnelbnr": "117859", "indoor_seating": "yes", "name": "Cafe Runddelen", "opening_hours": "Mo-Su 12:00-05:00", "outdoor_seating": "yes", "ref:DK:cvr": "28533640", "ref:DK:cvr:pnummer": "1015905146", "wheelchair": "limited"}}, {"type": "node", "id": 1136433325, "lat": 55.689562, "lon": 12.556587, "tags": {"amenity": "pub", "fvst:navnelbnr": "1218492", "name": "Temple Bar", "opening_hours": "Mo-Su 15:00-24:00", "ref:DK:cvr": "29153248", "ref:DK:cvr:pnummer": "1014870020", "sport": "table_soccer", "wheelchair": "no"}}, {"type": "node", "id": 1164115044, "lat": 55.6876316, "lon": 12.527984, "tags": {"amenity": "pub", "fvst:navnelbnr": "669956", "name": "Vint\u00f8nden", "ref:DK:cvr": "36477334", "ref:DK:cvr:pnummer": "1020302662", "wheelchair": "no"}}, {"type": "node", "id": 1200013170, "lat": 55.6936967, "lon": 12.5321763, "tags": {"amenity": "pub", "fvst:navnelbnr": "115688", "name": "Det Gamle Posthus", "ref:DK:cvr": "28257597", "ref:DK:cvr:pnummer": "1011107180"}}, {"type": "node", "id": 1200105789, "lat": 55.6880152, "lon": 12.5606456, "tags": {"amenity": "bar", "email": "cocktail@kassen.dk", "fvst:navnelbnr": "115544", "name": "Kassen", "opening_hours": "We 20:00-02:00; Th 20:00-03:00; Fr 16:00-04:00; Sa 20:00-04:00", "phone": "+4542572200", "ref:DK:cvr": "30987578", "ref:DK:cvr:pnummer": "1013740387", "website": "http://kassen.dk", "wheelchair": "limited"}}, {"type": "node", "id": 1200114179, "lat": 55.6960958, "lon": 12.5475371, "tags": {"amenity": "pub", "fvst:navnelbnr": "905221", "name": "Mucki Bar", "ref:DK:cvr": "26050499", "ref:DK:cvr:pnummer": "1024019957", "wheelchair": "limited"}}, {"type": "node", "id": 1305262264, "lat": 55.6876448, "lon": 12.5594632, "tags": {"amenity": "bar", "check_date": "2023-04-13", "diet:vegan": "yes", "diet:vegetarian": "yes", "name": "Harbo Bar", "opening_hours": "Mo-Th 08:30-00:00, Fr 08:30-02:00, Sa 09:30-02:00, Su 09:30-23:00"}}, {"type": "node", "id": 1439744394, "lat": 55.6738595, "lon": 12.5646995, "tags": {"amenity": "bar", "fvst:navnelbnr": "126382", "name": "Library Bar", "ref:DK:cvr": "32302610", "ref:DK:cvr:pnummer": "1016234822", "wheelchair": "yes"}}, {"type": "node", "id": 1462189989, "lat": 55.6845001, "lon": 12.5674404, "tags": {"amenity": "bar", "check_date": "2023-05-19", "name": "Funchs Vinstue", "phone": "+45 33115445", "smoking": "yes", "website": "https://www.funchs55.com/"}}, {"type": "node", "id": 1462221515, "lat": 55.6839289, "lon": 12.5684807, "tags": {"amenity": "bar", "fvst:name": "Venato Funchs", "fvst:navnelbnr": "755637", "name": "Jagtstuen", "ref:DK:cvr": "38737635", "smoking": "yes", "wheelchair": "no"}}, {"type": "node", "id": 1463848266, "lat": 55.684931, "lon": 12.558795, "tags": {"amenity": "pub", "fvst:navnelbnr": "110838", "name": "Diligencen", "opening_hours": "Mo-Fr 08:00-24:00; Sa-Su 10:00-24:00", "ref:DK:cvr": "89744415", "ref:DK:cvr:pnummer": "1002825730", "wheelchair": "limited"}}, {"type": "node", "id": 1478802918, "lat": 55.6819408, "lon": 12.5634756, "tags": {"amenity": "pub", "fvst:navnelbnr": "117246", "name": "Caf\u00e9 Stjernen", "ref:DK:cvr": "29208263", "ref:DK:cvr:pnummer": "1012115810"}}, {"type": "node", "id": 1591124412, "lat": 55.682421, "lon": 12.571505, "tags": {"amenity": "bar", "fvst:navnelbnr": "551146", "name": "N\u00f8rreport Bodega", "ref:DK:cvr": "35654305", "ref:DK:cvr:pnummer": "1019100231"}}, {"type": "node", "id": 1596733408, "lat": 55.6781756, "lon": 12.5686176, "tags": {"amenity": "bar", "fvst:navnelbnr": "671045", "name": "Masken Bar", "ref:DK:cvr": "28861524", "ref:DK:cvr:pnummer": "1011517451"}}, {"type": "node", "id": 1596735570, "lat": 55.6783036, "lon": 12.568967, "tags": {"amenity": "bar", "fvst:navnelbnr": "501284", "name": "The Log Lady", "ref:DK:cvr": "33346549", "ref:DK:cvr:pnummer": "1016639458", "wheelchair": "no"}}, {"type": "node", "id": 1596737699, "lat": 55.6786141, "lon": 12.5693401, "tags": {"amenity": "bar", "email": "info@atlasbar.dk", "fvst:navnelbnr": "111874", "internet_access": "wlan", "level": "-1", "min_age": "0", "name": "Atlas Bar", "opening_hours": "12:00-22:00", "phone": "+4533150352", "ref:DK:cvr": "12874774", "ref:DK:cvr:pnummer": "1000460560", "website": "https://atlasbar.dk/", "wheelchair": "no"}}, {"type": "node", "id": 1596792063, "lat": 55.6779253, "lon": 12.5711363, "tags": {"alt_name": "Retro Disco", "amenity": "bar", "fvst:navnelbnr": "714363", "name": "Retro Bar", "ref:DK:cvr": "36695331", "ref:DK:cvr:pnummer": "1020267077"}}, {"type": "node", "id": 1612954850, "lat": 55.6756583, "lon": 12.5735337, "tags": {"amenity": "bar", "description": "live music every night", "fvst:name": "MOJO APS", "fvst:navnelbnr": "112592", "name": "Mojo Blues Bar", "ref:DK:cvr": "18752204", "smoking": "yes", "website": "https://www.mojo.dk/", "wheelchair": "yes"}}, {"type": "node", "id": 1613051108, "lat": 55.6767102, "lon": 12.5721156, "tags": {"amenity": "pub", "fvst:navnelbnr": "1240578", "name": "Centralhj\u00f8rnet", "ref:DK:cvr": "42841781", "ref:DK:cvr:pnummer": "1027736021", "source": "survey", "website": "https://centralhjornet.dk/", "wheelchair": "no", "wikidata": "Q106668905"}}, {"type": "node", "id": 1616786814, "lat": 55.6813135, "lon": 12.5642273, "tags": {"amenity": "pub", "fvst:navnelbnr": "113995", "internet_access": "wlan", "internet_access:fee": "no", "name": "Cafe Globen", "ref:DK:cvr": "28299346", "ref:DK:cvr:pnummer": "1011002907", "website": "http://www.cafegloben.dk", "wheelchair": "limited"}}, {"type": "node", "id": 1655800627, "lat": 55.6665369, "lon": 12.5176996, "tags": {"alt_name": "Guinness Pub", "amenity": "pub", "fvst:navnelbnr": "113091", "name": "Giniz", "opening_hours": "Mo-Th 16:00-02:00, Fr,Sa 16:00-04:00, Su 16:00-24:00", "ref:DK:cvr": "18665689", "ref:DK:cvr:pnummer": "1003947162", "website": "http://giniz.dk/", "wheelchair": "no"}}, {"type": "node", "id": 1714804136, "lat": 55.6621477, "lon": 12.5221203, "tags": {"amenity": "bar", "check_date": "2023-04-11", "fvst:name": "Cafe Den Gylden Blonde", "fvst:navnelbnr": "763844", "name": "Den Gyldenblonde", "phone": "+45 36303887", "ref:DK:cvr": "38878719"}}, {"type": "node", "id": 1775543925, "lat": 55.6901037, "lon": 12.5624942, "tags": {"amenity": "bar", "fvst:name": "THE BARKING DOG TRADING COMPANY", "fvst:navnelbnr": "509410", "name": "The Barking Dog", "opening_hours": "Su 16:00-24:00; Tu-Th 16:00-24:00, Fr-Sa 16:00-02:00", "phone": "+45 35361600", "ref:DK:cvr": "33779518", "ref:DK:cvr:pnummer": "1016978678", "source": "survey", "website": "http://www.thebarkingdog.dk/"}}, {"type": "node", "id": 1778854834, "lat": 55.6891027, "lon": 12.5624146, "tags": {"amenity": "bar", "fvst:navnelbnr": "713399", "name": "Kind of Blue", "opening_hours": "Mo-We 16:00-24:00, Th-Sa 16:00-02:00, Su off", "ref:DK:cvr": "37812609", "ref:DK:cvr:pnummer": "1021526084", "source": "survey", "website": "https://www.kindofblue.dk/", "wheelchair": "no"}}, {"type": "node", "id": 1828989455, "lat": 55.693679, "lon": 12.5427877, "tags": {"alt_name": "Terroiristen vinbar", "amenity": "bar", "fvst:navnelbnr": "118574", "name": "Terroiristen", "opening_hours": "Tu-Th 12:00-18:00; Fr 12:00-19:00; Sa 11:00-18:00", "ref:DK:cvr": "31052262", "ref:DK:cvr:pnummer": "1014685169", "website": "https://www.terroiristen.dk/", "wheelchair": "no"}}, {"type": "node", "id": 2008179830, "lat": 55.6859481, "lon": 12.5523945, "tags": {"amenity": "bar", "fvst:navnelbnr": "509492", "name": "Dupong", "outdoor_seating": "no", "ref:DK:cvr": "33864922", "ref:DK:cvr:pnummer": "1017038652", "smoking": "no"}}, {"type": "node", "id": 2014805166, "lat": 55.6858796, "lon": 12.5523207, "tags": {"alt_name": "\u00d8lsnedkernes Klub Bar", "amenity": "bar", "contact:facebook": "https://www.facebook.com/olsnedkeren/", "contact:instagram": "https://www.instagram.com/olsnedkeren/", "drink:beer": "served", "email": "baren@olsnedkeren.dk", "fvst:navnelbnr": "505533", "min_age": "18", "name": "\u00d8lsnedkeren", "opening_hours": "Mo-We 14:00-24:00, Th-Sa 14:00-02:00", "outdoor_seating": "no", "ref:DK:cvr": "33276249", "ref:DK:cvr:pnummer": "1016491892", "website": "https://olsnedkeren.dk/", "wheelchair": "limited"}}, {"type": "node", "id": 2020615652, "lat": 55.6687256, "lon": 12.559701, "tags": {"amenity": "bar", "fvst:navnelbnr": "118305", "name": "Bakken", "opening_hours": "Th 21:00-05:00; Fr-Sa 20:00-05:00", "ref:DK:cvr": "32656587", "ref:DK:cvr:pnummer": "1015720626", "website": "http://bakkenkbh.dk"}}, {"type": "node", "id": 2036051372, "lat": 55.6818289, "lon": 12.5633186, "tags": {"alt_name": "Smuggler Imports", "amenity": "bar", "fvst:navnelbnr": "761398", "internet_access": "wlan", "name": "Gorki", "opening_hours": "Tu-Sa 15:00-24:00", "phone": "+45 40562193", "product": "beer", "ref:DK:cvr": "38904205", "shop": "alcohol", "website": "http://www.smuggler.dk/", "wheelchair": "no"}}, {"type": "node", "id": 2121839393, "lat": 55.6751567, "lon": 12.5476811, "tags": {"amenity": "bar", "contact:email": "vinstue90@mail.dk", "fvst:navnelbnr": "112834", "name": "Vinstue 90", "opening_hours": "Su-We 11:00-01:00, Th-Sa 11:00-02:00", "phone": "+45 33318490", "ref:DK:cvr": "26452961", "ref:DK:cvr:pnummer": "1008932537", "smoking": "yes", "source": "Fugro (2005)", "wheelchair": "no", "wikidata": "Q12341137"}}, {"type": "node", "id": 2156654226, "lat": 55.6744834, "lon": 12.5512432, "tags": {"amenity": "bar", "email": "amigobar@os.dk", "fvst:navnelbnr": "111881", "name": "Amigo Bar", "phone": "+45 3321 4915", "ref:DK:cvr": "14951881", "ref:DK:cvr:pnummer": "1000834597", "smoking": "yes"}}, {"type": "node", "id": 2163836323, "lat": 55.688325, "lon": 12.5598233, "tags": {"amenity": "pub", "fvst:navnelbnr": "113804", "name": "Understellet", "opening_hours": "Mo-Su 17:00-05:00", "phone": "+45 35 37 04 70", "ref:DK:cvr": "18437198", "ref:DK:cvr:pnummer": "1003438739", "smoking": "isolated", "sport": "table_soccer", "table_soccer": "italian", "website": "http://www.understellet.dk/", "wheelchair": "no"}}, {"type": "node", "id": 2165235074, "lat": 55.681795, "lon": 12.5709215, "tags": {"amenity": "bar", "fvst:name": "MC KO APS", "fvst:navnelbnr": "576972", "name": "The Globe", "ref:DK:cvr": "20042877", "ref:DK:cvr:pnummer": "1004279501", "website": "https://www.the-globe.dk/"}}, {"type": "node", "id": 2229062918, "lat": 55.6946522, "lon": 12.543239, "tags": {"amenity": "bar", "food": "yes", "fvst:navnelbnr": "522017", "indoor_seating": "yes", "internet_access": "wlan", "internet_access:fee": "no", "internet_access:ssid": "Mikkeller_Friends", "name": "Mikkeller & Friends", "opening_hours": "Fr-Sa 12:00-24:00; Su 12:00-22:00; Mo-Th 14:00-24:00", "outdoor_seating": "yes", "phone": "+45 35 83 10 20", "ref:DK:cvr": "34895023", "ref:DK:cvr:pnummer": "1018153633", "website": "https://mikkeller.com/locations/mikkeller-and-friends", "wheelchair": "no"}}, {"type": "node", "id": 2338189050, "lat": 55.6733748, "lon": 12.5517592}, {"type": "node", "id": 2338189058, "lat": 55.6732493, "lon": 12.5516709}, {"type": "node", "id": 2338189065, "lat": 55.6732082, "lon": 12.5517698}, {"type": "node", "id": 2338189077, "lat": 55.6733669, "lon": 12.5516622}, {"type": "node", "id": 2343690852, "lat": 55.6962633, "lon": 12.5750656, "tags": {"amenity": "bar", "check_date": "2022-05-25", "fvst:navnelbnr": "658922", "name": "S\u00f8ernes \u00d8lbar", "ref:DK:cvr": "36717009", "ref:DK:cvr:pnummer": "1020329935", "smoking": "no", "website": "http://soernesoelbar.dk"}}, {"type": "node", "id": 2543973526, "lat": 55.6801316, "lon": 12.5761475, "tags": {"age_limit": "23", "air_conditioning": "yes", "amenity": "bar", "check_date": "2023-05-14", "currency:XBT": "yes", "fvst:navnelbnr": "732139", "indoor_seating": "yes", "name": "The Jane", "note": "15% discount on all cocktails!", "opening_hours": "Th 20:00+; Fr 16:00+; Sa 20:00+", "payment:credit_cards": "yes", "payment:debit_cards": "yes", "phone": "+45 69 69 60 00", "ref:DK:cvr": "35485708", "ref:DK:cvr:pnummer": "1022243507", "website": "https://www.thejane.dk/", "wheelchair": "no", "yelp": "http://www.yelp.com/biz/the-jane-k%C3%B8benhavn-k"}}, {"type": "node", "id": 2599935006, "lat": 55.6766934, "lon": 12.5766194, "tags": {"alt_name": "Ruby Cocktailbar", "amenity": "bar", "check_date": "2023-04-04", "facebook": "https://www.facebook.com/rubykbh", "fvst:navnelbnr": "119264", "name": "Ruby", "opening_hours": "Mo-Sa 16:00-02:00, Su 18:00-02:00", "phone": "+45 33931203", "ref:DK:cvr": "32290140", "website": "https://rby.dk/"}}, {"type": "node", "id": 2837243901, "lat": 55.6781561, "lon": 12.5698566, "tags": {"amenity": "bar", "fvst:navnelbnr": "115459", "name": "Floss", "ref:DK:cvr": "13220034", "ref:DK:cvr:pnummer": "1020634983", "smoking": "yes", "wheelchair": "limited"}}, {"type": "node", "id": 2855855758, "lat": 55.676199, "lon": 12.571519, "tags": {"amenity": "pub", "contact:facebook": "https://www.facebook.com/taphouse.dk/", "contact:foursquare": "https://foursquare.com/v/taphouse/5311e1ab498e444e2f4ea063", "email": "kontakt@taphouse.dk", "fvst:navnelbnr": "543684", "internet_access": "wlan", "internet_access:fee": "no", "name": "Taphouse", "opening_hours": "Mo-Th 15:00-02:00; Fr-Sa 12:00-02:00; Su 12:00-24:00", "phone": "+4588876543", "ref:DK:cvr": "35140905", "ref:DK:cvr:pnummer": "1018340948", "smoking": "no", "website": "https://taphouse.dk/", "wheelchair": "no"}}, {"type": "node", "id": 3286415949, "lat": 55.6738535, "lon": 12.5437949, "tags": {"amenity": "pub", "fvst:navnelbnr": "570657", "name": "Frederik VI", "opening_hours": "Su-Th 11:00-01:00, Fr-Sa 11:00-02:00", "phone": "+45 3331 3338", "ref:DK:cvr": "21821993", "ref:DK:cvr:pnummer": "1020381155", "smoking": "no", "website": "https://www.frederik-vi.dk/", "wheelchair": "no"}}, {"type": "node", "id": 3312007936, "lat": 55.6731978, "lon": 12.5516753}, {"type": "node", "id": 3312007937, "lat": 55.6731996, "lon": 12.5517704}, {"type": "node", "id": 3372385620, "lat": 55.684032, "lon": 12.5674679, "tags": {"amenity": "pub", "fvst:navnelbnr": "1340022", "name": "S\u00f8ren Ged's Garage", "opening_hours": "Mo-We 11:00-02:00,Th-Sa 11:00-05:00, Su 11:00-02:00", "ref:DK:cvr": "18525739", "ref:DK:cvr:pnummer": "1029298498", "website": "https://www.s\u00f8rengedsgarage.dk/", "wheelchair": "no"}}, {"type": "node", "id": 3372385621, "lat": 55.6846268, "lon": 12.5675944, "tags": {"alt_name": "Barkowski Bar", "amenity": "bar", "check_date": "2020-12-15", "fvst:navnelbnr": "521282", "name": "Barkowski", "opening_hours": "Tu-We 16:00-24:00, Th 14:00-02:00, Fr 14:00-05:00, Sa 13:00-05:00, Su 14:00-02:00", "phone": "+45 30 66 85 34", "ref:DK:cvr": "34904693", "ref:DK:cvr:pnummer": "1018195212", "website": "https://barkowskibar.dk/"}}, {"type": "node", "id": 3404320523, "lat": 55.67991, "lon": 12.52178, "tags": {"alt_name": "Caf\u00e9 Sekseren", "amenity": "bar", "fvst:name": "Caf\u00e9 Sekseren (Caf\u00e9 6eren)", "fvst:navnelbnr": "763354", "name": "Caf\u00e96'eren", "ref:DK:cvr": "39780097", "smoking": "yes"}}, {"type": "node", "id": 3404321016, "lat": 55.67744, "lon": 12.5699, "tags": {"amenity": "pub", "fvst:navnelbnr": "519972", "name": "Musen & Elefanten", "opening_hours": "Th 16:00-04:00,Fr-Sa 16:00-05:00", "payment:bitcoin": "yes", "phone": "+45 26712779", "ref:DK:cvr": "34703086", "ref:DK:cvr:pnummer": "1018064096", "website": "https://musen-og-elefanten.dk/"}}, {"type": "node", "id": 3404321298, "lat": 55.671218, "lon": 12.5604749, "tags": {"amenity": "bar", "fvst:navnelbnr": "115610", "name": "Spunk Bar", "ref:DK:cvr": "24214583", "ref:DK:cvr:pnummer": "1006414760"}}, {"type": "node", "id": 3404321338, "lat": 55.67592, "lon": 12.56586, "tags": {"amenity": "bar", "fvst:navnelbnr": "762392", "name": "The Shamrock Inn", "opening_hours": "Mo 15:00-02:00,Tu 15:00-01:01; We 15:00-02:00,Th 15:00-03:00,Fr 12:30-05:00,Sa 13:30-05:00, Su 15:00-01:00", "ref:DK:cvr": "34594791", "ref:DK:cvr:pnummer": "1023922211", "website": "https://theshamrockinn.dk/"}}, {"type": "node", "id": 3404342223, "lat": 55.6740948, "lon": 12.5499759, "tags": {"amenity": "bar", "fvst:navnelbnr": "119665", "name": "Falernum", "ref:DK:cvr": "31178851", "ref:DK:cvr:pnummer": "1016162252", "wheelchair": "no"}}, {"type": "node", "id": 3404342229, "lat": 55.6749832, "lon": 12.519322, "tags": {"alt_name": "Gravens Rand", "amenity": "bar", "check_date": "2023-04-02", "name": "Fasan Bodega", "opening_hours": "11:00-02:00", "ref:DK:cvr": "42462381", "ref:DK:cvr:pnummer": "1027256240", "smoking": "yes"}}, {"type": "node", "id": 3473014569, "lat": 55.6876336, "lon": 12.5470224, "tags": {"alt_name": "K\u00f8lsters Tolv Haner", "amenity": "bar", "drink:beer": "yes", "fvst:navnelbnr": "721138", "name": "Tolv Haner", "opening_hours": "Fr,Sa 14:00-01:00, Mo-Th 15:00-24:00, Su 14:00-22:00", "phone": "+45 32209484", "ref:DK:cvr": "38749862", "ref:DK:cvr:pnummer": "1022585289", "wheelchair": "no"}}, {"type": "node", "id": 3529010440, "lat": 55.6731985, "lon": 12.5517167}, {"type": "node", "id": 3772456953, "lat": 55.6793579, "lon": 12.5749273, "tags": {"amenity": "bar", "fvst:navnelbnr": "543663", "name": "B\u00e6st", "opening_hours": "Th 20:00-02:00, Fr-Sa 18:00-05:00", "ref:DK:cvr": "34476519", "ref:DK:cvr:pnummer": "1017757292", "website": "http://xn--bst-yla.dk/"}}, {"type": "node", "id": 3773087372, "lat": 55.6798954, "lon": 12.5777113, "tags": {"amenity": "bar", "fvst:navnelbnr": "556537", "name": "Balderdash", "opening_hours": "We 17:00-01:00, Th 17:00-02:00, Fr 17:00-02:00, Sa 17:00-02:00", "phone": "+45 53107885", "ref:DK:cvr": "35851992", "ref:DK:cvr:pnummer": "1019390221"}}, {"type": "node", "id": 3773088919, "lat": 55.6776418, "lon": 12.5780759, "tags": {"amenity": "bar", "fvst:navnelbnr": "714992", "name": "The Bird and the Churchkey", "opening_hours": "Tu-We 16:00-01:00, Th 16:00-02:00, Fr-Sa 16:00-04:00", "ref:DK:cvr": "31946212", "ref:DK:cvr:pnummer": "1015029982", "website": "https://thebird.dk/"}}, {"type": "node", "id": 3898784968, "lat": 55.6685278, "lon": 12.5599599, "tags": {"amenity": "pub", "facebook": "https://www.facebook.com/warpigsbrewpub", "fvst:navnelbnr": "560424", "internet_access": "wlan", "internet_access:fee": "no", "microbrewery": "yes", "name": "Warpigs Brewpub", "opening_hours": "Mo-Th 11:00-24:00, Fr-Sa 11:00-02:00, Su 11:00-22:00", "outdoor_seating": "yes", "phone": "+45 43484848", "ref:DK:cvr": "35864237", "ref:DK:cvr:pnummer": "1019887754", "takeaway": "yes", "website": "https://warpigs.dk/", "wheelchair": "yes"}}, {"type": "node", "id": 4004994253, "lat": 55.6705, "lon": 12.531252, "tags": {"amenity": "bar", "cuisine": "steak", "fvst:navnelbnr": "118558", "indoor_seating": "yes", "name": "BAR 23", "opening_hours": "17:00-23:00; Su 17:00-22:00", "outdoor_seating": "no", "phone": "+45 33227007", "ref:DK:cvr": "27168329", "ref:DK:cvr:pnummer": "1015846107", "website": "https://www.pilekroen.dk/"}}, {"type": "node", "id": 4007452347, "lat": 55.6878755, "lon": 12.5702372, "tags": {"access": "private", "amenity": "bar", "check_date": "2022-06-08", "description": "studentercafe", "name": "Jacques D.", "ref:DK:cvr": "17331531", "website": "http://jacquesd.dk/"}}, {"type": "node", "id": 4007480897, "lat": 55.678419, "lon": 12.554611, "tags": {"amenity": "bar", "fvst:navnelbnr": "761790", "name": "Salon 39", "ref:DK:cvr": "39713039", "ref:DK:cvr:pnummer": "1023781855"}}, {"type": "node", "id": 4011854861, "lat": 55.6787957, "lon": 12.5722433, "tags": {"amenity": "bar", "fvst:name": "Gringo Bar", "fvst:navnelbnr": "714364", "name": "Gringo Bar", "ref:DK:cvr": "38311484", "ref:DK:cvr:pnummer": "1022069779"}}, {"type": "node", "id": 4015755825, "lat": 55.6788802, "lon": 12.5700342, "tags": {"amenity": "bar", "fvst:navnelbnr": "924220", "name": "Born 12/ Jailhouse CPH", "note": "gay", "phone": "+45 33152255", "ref:DK:cvr": "39980665", "ref:DK:cvr:pnummer": "1024081784", "website": "https://jailhousecph.dk/"}}, {"type": "node", "id": 4016613453, "lat": 55.6736038, "lon": 12.5660687, "tags": {"amenity": "bar", "fvst:navnelbnr": "535576", "name": "Nimb Bar", "ref:DK:cvr": "10404916", "ref:DK:cvr:pnummer": "1018808885", "wheelchair": "yes"}}, {"type": "node", "id": 4318843593, "lat": 55.6773717, "lon": 12.576151, "tags": {"amenity": "bar", "description": "Oldest Jazz venue in Copenhagen; Live Music Fr-Sa 22-02 & Su 21-01", "fvst:navnelbnr": "113195", "name": "La Fontaine", "opening_hours": "Mo-Su 20:00-05:00", "ref:DK:cvr": "19139182", "ref:DK:cvr:pnummer": "1003696106", "website": "http://www.lafontaine.dk"}}, {"type": "node", "id": 4328324015, "lat": 55.6801783, "lon": 12.5760558, "tags": {"amenity": "bar", "fvst:navnelbnr": "523694", "name": "Str\u00f8m Bar", "opening_hours": "Mo-Th 18:00-01:00; Fr 16:00-03:00; Sa 18:00-03:00", "ref:DK:cvr": "34576688", "ref:DK:cvr:pnummer": "1017674745"}}, {"type": "node", "id": 4328366224, "lat": 55.6885594, "lon": 12.5621783, "tags": {"amenity": "bar", "fvst:navnelbnr": "577195", "name": "LuLu", "opening_hours": "16:00-24:00, Fr-Sa 16:00-02:00", "phone": "+45 31905293", "ref:DK:cvr": "36926333", "ref:DK:cvr:pnummer": "1020495282", "website": "http://luluravnsborggade.dk/"}}, {"type": "node", "id": 4331204551, "lat": 55.6727762, "lon": 12.5668858, "tags": {"amenity": "bar", "fvst:navnelbnr": "531950", "name": "Alpehytten Biergarten I", "operator": "Tivoli", "ref:DK:cvr": "10404916", "ref:DK:cvr:pnummer": "1002894451"}}, {"type": "node", "id": 4341862608, "lat": 55.6735506, "lon": 12.5661, "tags": {"amenity": "bar", "fvst:navnelbnr": "118085", "name": "Nimb Bar og Banquet 1. sal", "ref:DK:cvr": "10404916", "ref:DK:cvr:pnummer": "1018808885"}}, {"type": "node", "id": 4387720611, "lat": 55.6869467, "lon": 12.5594593, "tags": {"amenity": "bar", "fvst:name": "Vinhanen S.M.B.A.", "fvst:navnelbnr": "523380", "name": "Vinhanen", "ref:DK:cvr": "35039244", "ref:DK:cvr:pnummer": "1018260383"}}, {"type": "node", "id": 4389544398, "lat": 55.6752253, "lon": 12.5612217, "tags": {"amenity": "bar", "fvst:navnelbnr": "114231", "name": "Imperial Bio \u00d8vre Bar", "ref:DK:cvr": "28344910", "ref:DK:cvr:pnummer": "1003023344", "wheelchair": "no"}}, {"type": "node", "id": 4402639618, "lat": 55.6871096, "lon": 12.5492778, "tags": {"amenity": "bar", "fvst:navnelbnr": "564445", "name": "Sidecar", "old_name": "Kocktails", "ref:DK:cvr": "36543868", "ref:DK:cvr:pnummer": "1020163239", "website": "https://www.sidecarnoerrebro.dk/"}}, {"type": "node", "id": 4424224041, "lat": 55.671923, "lon": 12.545461, "tags": {"amenity": "bar", "fvst:navnelbnr": "551620", "name": "Portvinsbaren", "opening_hours": "Th 17:00-23:00; Fr,Sa 17:00-01:00", "ref:DK:cvr": "35814329", "ref:DK:cvr:pnummer": "1019255332", "website": "http://vinhulen.dk/portvinsbaren.asp", "wheelchair": "no"}}, {"type": "node", "id": 4434074415, "lat": 55.674011, "lon": 12.53701, "tags": {"amenity": "bar", "fvst:navnelbnr": "111602", "name": "Betty Nansen Teaterbar", "ref:DK:cvr": "17358944", "ref:DK:cvr:pnummer": "1017103918"}}, {"type": "node", "id": 4436431103, "lat": 55.6882823, "lon": 12.5618437, "tags": {"amenity": "pub", "fvst:navnelbnr": "564835", "name": "Det ny Scala", "phone": "+45 35370015", "ref:DK:cvr": "31460549", "ref:DK:cvr:pnummer": "1019094398", "wheelchair": "no"}}, {"type": "node", "id": 4460697811, "lat": 55.66769, "lon": 12.5589, "tags": {"amenity": "bar", "facebook": "https://www.facebook.com/Mesteren-L\u00e6rlingen-215687798449433/", "fvst:navnelbnr": "115011", "name": "Mesteren & L\u00e6rlingen", "outdoor_seating": "yes", "payment:credit_cards": "yes", "phone": "+45 32152483", "ref:DK:cvr": "32082645", "ref:DK:cvr:pnummer": "1015381783", "smoking": "yes", "toilets": "yes"}}, {"type": "node", "id": 4489479205, "lat": 55.680944, "lon": 12.571343, "tags": {"amenity": "bar", "fvst:navnelbnr": "662261", "name": "Boulebar Sankt Petri", "opening_hours": "15:00-23:00; Th 15:00-24:00; Fr 11:00-24:00; Sa 10:00-24:00; Su 10:00-23:00", "phone": "+45 82820800", "pitch": "boules", "ref:DK:cvr": "37452939", "ref:DK:cvr:pnummer": "1021592613", "toilets:wheelchair": "yes", "website": "https://www.boulebar.dk/", "wheelchair": "yes"}}, {"type": "node", "id": 4515551975, "lat": 55.6654227, "lon": 12.5488293, "tags": {"amenity": "bar", "fvst:navnelbnr": "109917", "name": "Boulevarden", "phone": "+45 3331 8303", "ref:DK:cvr": "13633142", "ref:DK:cvr:pnummer": "1000597724"}}, {"type": "node", "id": 4516721448, "lat": 55.6913826, "lon": 12.5446425, "tags": {"amenity": "bar", "fvst:navnelbnr": "123647", "name": "Kronborggade 3", "opening_hours": "Mo-Sa 16:00-22:00", "ref:DK:cvr": "33305427", "ref:DK:cvr:pnummer": "1016548940"}}, {"type": "node", "id": 4575935451, "lat": 55.6752286, "lon": 12.5724216, "tags": {"amenity": "bar", "fvst:navnelbnr": "669713", "name": "Southern Cross Pub", "payment:credit_cards": "yes", "phone": "+45 3311 0939", "ref:DK:cvr": "33758871", "toilets": "yes", "website": "https://www.southerncross.dk/"}}, {"type": "node", "id": 4593377199, "lat": 55.671211, "lon": 12.5496708, "tags": {"amenity": "bar", "contact:instagram": "httpd://www.instagram.com/ancestralebra", "email": "spis@ancestrale.dk", "facebook": "https://www.facebook.com/Ancestralebar/", "fvst:navnelbnr": "958384", "name": "Ancestrale", "opening_hours": "Mo-Th 16:00-23:00; Fr-Sa 16:00-24:00", "phone": "+4560407414", "ref:DK:cvr": "41474068", "ref:DK:cvr:pnummer": "1025977730", "website": "http://ancestrale.dk"}}, {"type": "node", "id": 4593377213, "lat": 55.6665259, "lon": 12.5530327, "tags": {"amenity": "bar", "facebook": "https://www.facebook.com/Rbabarrab", "fvst:navnelbnr": "962630", "indoor_seating": "yes", "name": "Rbabarrab", "opening_hours": "Fr,Sa 11:00-03:00, Su-Th 11:00-24:00", "outdoor_seating": "no", "phone": "+45 24 26 92 91", "ref:DK:cvr": "37613932", "wheelchair": "limited"}}, {"type": "node", "id": 4723359794, "lat": 55.6902991, "lon": 12.5595621, "tags": {"amenity": "bar", "fvst:navnelbnr": "112070", "indoor_seating": "yes", "name": "Osborne", "outdoor_seating": "no", "ref:DK:cvr": "17581589", "ref:DK:cvr:pnummer": "1001317132", "wheelchair": "no"}}, {"type": "node", "id": 4735675880, "lat": 55.679078, "lon": 12.5690251, "tags": {"amenity": "bar", "brewery": "yes;various", "fvst:navnelbnr": "670412", "internet_access": "wlan", "name": "Peders - Pisserendens \u00f8lk\u00e6lder", "opening_hours": "Mo-Th 16:00-24:00, Fr-Sa 14:00-01:00, Su 15:00-21:00", "opening_hours:covid19": "Tu-Th 16:00-00:00, Fr-Sa 14:00-00:00", "outdoor_seating": "yes", "payment:cash": "yes", "payment:contactless": "yes", "payment:credit_cards": "yes", "ref:DK:cvr": "37880736", "ref:DK:cvr:pnummer": "1021603267", "short_name": "Peders", "website": "https://pederscph.dk/"}}, {"type": "node", "id": 4736814542, "lat": 55.68475, "lon": 12.55307, "tags": {"amenity": "bar", "drink:beer": "served", "fvst:name": "Himmeriget", "fvst:navnelbnr": "574675", "name": "Himmerriget", "opening_hours": "Mo-Sa 15:00-02:00, Su 15:00-24:00", "ref:DK:cvr": "35859659", "ref:DK:cvr:pnummer": "1020227016", "website": "http://www.himmeriget.dk/", "wheelchair": "yes"}}, {"type": "node", "id": 4736814543, "lat": 55.6960863, "lon": 12.5563343, "tags": {"alt_name": "Le Pinard", "amenity": "bar", "fvst:navnelbnr": "119746", "name": "Sabot\u00f8ren", "ref:DK:cvr": "30890094", "ref:DK:cvr:pnummer": "1014528101", "wheelchair": "limited"}}, {"type": "node", "id": 4873747936, "lat": 55.6782794, "lon": 12.5716769, "tags": {"alt_name": "Miami Bar", "amenity": "bar", "fvst:navnelbnr": "807546", "name": "Miami", "ref:DK:cvr": "37060178"}}, {"type": "node", "id": 4873751689, "lat": 55.6783238, "lon": 12.5718204, "tags": {"amenity": "bar", "fvst:navnelbnr": "510135", "name": "The Drunken Flamingo", "ref:DK:cvr": "34477795", "ref:DK:cvr:pnummer": "1017620610"}}, {"type": "node", "id": 4873752563, "lat": 55.6800374, "lon": 12.5748724, "tags": {"alt_name": "Farfars bodega & dans", "amenity": "bar", "fvst:navnelbnr": "522836", "name": "Farfar", "phone": "+45 69692023", "ref:DK:cvr": "34736871", "website": "https://farfarbodega.dk/"}}, {"type": "node", "id": 4878969893, "lat": 55.6820368, "lon": 12.5711571, "tags": {"amenity": "bar", "fvst:navnelbnr": "515809", "name": "Rhino Bar", "ref:DK:cvr": "33582676", "ref:DK:cvr:pnummer": "1016832266", "source": "Kaart Ground Survey 2017", "wheelchair": "no"}}, {"type": "node", "id": 4881595007, "lat": 55.6770916, "lon": 12.5755872, "tags": {"amenity": "bar", "fvst:navnelbnr": "903121", "name": "Comedy Zoo Cafe", "opening_hours": "Mo-We 16:30-23:00; Th-Sa 12:00-01:00", "ref:DK:cvr": "39338556", "ref:DK:cvr:pnummer": "1023353055", "website": "http://comedyzoocafe.dk/"}}, {"type": "node", "id": 4883742491, "lat": 55.6722464, "lon": 12.5558859, "tags": {"amenity": "bar", "fvst:navnelbnr": "540110", "level": "1", "name": "Zeppelin", "phone": "+45 71 70 36 66", "ref:DK:cvr": "35659641", "ref:DK:cvr:pnummer": "1019119765", "source": "Kaart Ground Survey 2017", "website": "http://zeppelincph.dk/welcome-to-copenhagens-finest-rock-bar/", "wheelchair": "no"}}, {"type": "node", "id": 4886334451, "lat": 55.6866636, "lon": 12.5321631, "tags": {"amenity": "bar", "check_date": "2023-05-18", "fvst:navnelbnr": "634370", "name": "Alhambra Pub", "ref:DK:cvr": "41635223", "ref:DK:cvr:pnummer": "1026220374", "smoking": "yes"}}, {"type": "node", "id": 4888056705, "lat": 55.6714963, "lon": 12.5722551, "tags": {"amenity": "bar", "fvst:navnelbnr": "795212", "name": "Byens bodega", "opening_hours": "Mo-Th 14:00-02:00, Fr 12:00-02:00, Sa 15:00-02:00", "ref:DK:cvr": "34098166", "ref:DK:cvr:pnummer": "1017391999"}}, {"type": "node", "id": 4888404365, "lat": 55.6903189, "lon": 12.5720729, "tags": {"amenity": "bar", "fvst:navnelbnr": "714724", "name": "S\u00f8hesten", "outdoor_seating": "no", "ref:DK:cvr": "36444851", "ref:DK:cvr:pnummer": "1020427082", "website": "http://soehestenbar.dk/"}}, {"type": "node", "id": 4949586070, "lat": 55.6814236, "lon": 12.5712927, "tags": {"amenity": "bar", "fvst:navnelbnr": "709814", "name": "No Stress Bar DK", "ref:DK:cvr": "38517511", "ref:DK:cvr:pnummer": "1022304018", "website": "http://www.nostressbar.dk/"}}, {"type": "node", "id": 4959567011, "lat": 55.6717677, "lon": 12.552406, "tags": {"amenity": "bar", "cuisine": "champagne;cocktails", "fvst:navnelbnr": "798024", "name": "The reception", "ref:DK:cvr": "38509527", "ref:DK:cvr:pnummer": "1022343129", "website": "http://www.thereception.dk/"}}, {"type": "node", "id": 5017934280, "lat": 55.6841716, "lon": 12.5430347, "tags": {"amenity": "bar", "fvst:navnelbnr": "710474", "name": "Gensyn", "ref:DK:cvr": "38327429", "ref:DK:cvr:pnummer": "1022087831"}}, {"type": "node", "id": 5075577872, "lat": 55.6717046, "lon": 12.5617535, "tags": {"amenity": "bar", "fvst:navnelbnr": "118832", "name": "Absalon Bar", "operator": "Absalon Hotel", "ref:DK:cvr": "32781829", "ref:DK:cvr:pnummer": "1015892990"}}, {"type": "node", "id": 5109659910, "lat": 55.6792622, "lon": 12.5684369, "tags": {"amenity": "bar", "fvst:navnelbnr": "906047", "name": "Men\"s bar", "ref:DK:cvr": "36898534", "ref:DK:cvr:pnummer": "1021137398"}}, {"type": "node", "id": 5110956545, "lat": 55.6835862, "lon": 12.5702644, "tags": {"amenity": "bar", "branch": "City", "fvst:navnelbnr": "669464", "name": "Bootleggers", "ref:DK:cvr": "35644806", "ref:DK:cvr:pnummer": "1019322781", "smoking": "no"}}, {"type": "node", "id": 5124560643, "lat": 55.6704442, "lon": 12.5616796, "tags": {"amenity": "bar", "fvst:navnelbnr": "716546", "name": "Halmtorvet 9", "outdoor_seating": "yes", "payment:credit_cards": "yes", "ref:DK:cvr": "38792547", "ref:DK:cvr:pnummer": "1022657948", "smoking": "yes", "sport": "table_soccer", "toilets": "yes", "website": "https://halmtorvet9.dk/", "wheelchair": "yes"}}, {"type": "node", "id": 5125941664, "lat": 55.6687889, "lon": 12.574102, "tags": {"amenity": "bar", "fee": "yes", "fvst:name": "Copenhagen Marriott Exce. Lounge", "fvst:navnelbnr": "716273", "name": "Copenhagen Marriott Excecutive Lounge", "ref:DK:cvr": "37939838", "ref:DK:cvr:pnummer": "1022838489"}}, {"type": "node", "id": 5139657734, "lat": 55.6759648, "lon": 12.574294, "tags": {"amenity": "bar", "fvst:navnelbnr": "122607", "name": "Cph down town", "ref:DK:cvr": "33041713", "ref:DK:cvr:pnummer": "1016137029"}}, {"type": "node", "id": 5139921309, "lat": 55.6851005, "lon": 12.5660795, "tags": {"access:covid19": "no", "amenity": "bar", "branch": "Vendersgade", "fvst:navnelbnr": "540465", "name": "Mikropolis", "ref:DK:cvr": "25105583", "website": "https://mikropolis.dk/"}}, {"type": "node", "id": 5148568613, "lat": 55.6778037, "lon": 12.5745925, "tags": {"amenity": "bar", "name": "Heart of Hearts", "shop": "tattoo"}}, {"type": "node", "id": 5401946315, "lat": 55.6843528, "lon": 12.5728215, "tags": {"amenity": "bar", "check_date": "2020-12-09", "indoor_seating": "yes", "name": "Amager Bryghus Taproom", "note": "sunday missing, open ended?", "opening_hours": "Mo 14:00-22:00; Tu-Th 14:00-24:00; Fr-Sa 12:00-02:00", "outdoor_seating": "no", "shop": "brewing_supplies", "wheelchair": "no"}}, {"type": "node", "id": 5539726136, "lat": 55.6730867, "lon": 12.5587722, "tags": {"amenity": "bar", "check_date": "2023-04-13", "check_date:currency:XBT": "2023-03-26", "cocktails": "yes", "currency:XBT": "yes", "email": "info@curfew.dk", "fvst:navnelbnr": "562073", "min_age": "21", "name": "Curfew", "opening_hours": "Tu-Th 18:00-02:00; Fr-Sa 17:00-03:00", "payment:cash": "yes", "payment:credit_cards": "yes", "payment:debit_cards": "yes", "payment:lightning": "yes", "payment:onchain": "yes", "phone": "+45 29299276", "ref:DK:cvr": "36067179", "ref:DK:cvr:pnummer": "1020615865", "survey:date": "2022-10-28", "website": "https://curfew.dk/"}}, {"type": "node", "id": 5741803461, "lat": 55.6905596, "lon": 12.5554085, "tags": {"amenity": "bar", "drink:wine": "served", "fvst:navnelbnr": "720310", "name": "Pompette", "phone": "+45 53387888", "ref:DK:cvr": "38987917", "ref:DK:cvr:pnummer": "1022903221", "website": "https://shop.pompette.dk/"}}, {"type": "node", "id": 5786719592, "lat": 55.6877519, "lon": 12.5596089, "tags": {"amenity": "bar", "brand": "K\u00f8benhavn", "fvst:navnelbnr": "524351", "name": "Escobar", "outdoor_seating": "yes", "ref:DK:cvr": "31271274", "smoking": "outside"}}, {"type": "node", "id": 5840032285, "lat": 55.6883505, "lon": 12.561933, "tags": {"amenity": "bar", "bar": "winebar", "drink:wine": "served", "fvst:name": "R\u00f8dder & Vinbar", "fvst:navnelbnr": "749546", "name": "R\u00f8dder & Vin", "ref:DK:cvr": "38513141", "website": "https://rodderogvin.dk/"}}, {"type": "node", "id": 5909838195, "lat": 55.6679133, "lon": 12.5502065, "tags": {"amenity": "bar", "cuisine": "cocktails", "fvst:navnelbnr": "732307", "name": "Bar Una", "opening_hours": "We-Th 17:00-01:00, Fr-Sa 17:00-04:00", "phone": "+45 3133 9037", "ref:DK:cvr": "33582757", "ref:DK:cvr:pnummer": "1016752580", "website": "https://www.baruna.dk/"}}, {"type": "node", "id": 5978840363, "lat": 55.6886272, "lon": 12.5546848, "tags": {"amenity": "bar", "brewery": "lambic;belgian", "dog": "yes", "fvst:navnelbnr": "768570", "name": "1420", "opening_hours": "Mo-Su 14:00-24:00", "ref:DK:cvr": "39367815", "ref:DK:cvr:pnummer": "1023387235"}}, {"type": "node", "id": 6029934580, "lat": 55.690773, "lon": 12.5445454, "tags": {"amenity": "bar", "cuisine": "pub", "email": "skovbaren@gmail.com", "fvst:navnelbnr": "758303", "internet_access": "wlan", "internet_access:fee": "no", "internet_access:ssid": "Skovbar", "name": "Skovbar", "opening_hours": "Tu-Th 16:00-24:00, Fr-Sa 15:00-24:00", "outdoor_seating": "yes", "ref:DK:cvr": "39704420", "ref:DK:cvr:pnummer": "1023772201", "smoking": "outside"}}, {"type": "node", "id": 6071076502, "lat": 55.671848, "lon": 12.552391, "tags": {"amenity": "bar", "cocktails": "yes", "fvst:navnelbnr": "770970", "name": "Duck and Cover", "opening_hours": "Tu-Sa 16:00-22:00", "phone": "+45 28124290", "ref:DK:cvr": "34726965", "ref:DK:cvr:pnummer": "1018030191", "website": "http://duckandcoverbar.dk/"}}, {"type": "node", "id": 6295810438, "lat": 55.6794251, "lon": 12.5763531, "tags": {"amenity": "bar", "check_date": "2023-04-05", "name": "Citizen Cocktailbar", "opening_hours": "We-Sa 18:00-23:59", "ref:DK:cvr": "39851466", "website": "https://citizencph.dk/"}}, {"type": "node", "id": 6373071797, "lat": 55.6768192, "lon": 12.5760433, "tags": {"amenity": "bar", "fvst:navnelbnr": "733180", "name": "Godt \u00d8l", "payment:credit_cards": "yes", "phone": "+4523356866", "ref:DK:cvr": "38854224", "ref:DK:cvr:pnummer": "1022749834", "toilets": "yes", "website": "http://godt\u00f8l.dk"}}, {"type": "node", "id": 6402972686, "lat": 55.683934, "lon": 12.5733835, "tags": {"access:covid19": "no", "alt_name": "Y's Caf\u00e9 og Cocktailbar", "amenity": "bar", "drink:beer": "served", "drink:cocktail": "served", "fvst:navnelbnr": "113052", "name": "Ys", "ref:DK:cvr": "16291374", "ref:DK:cvr:pnummer": "1001073612", "website": "https://ys-cocktail.dk/"}}, {"type": "node", "id": 6432661706, "lat": 55.6775774, "lon": 12.57013, "tags": {"amenity": "bar", "fvst:navnelbnr": "514086", "name": "T\u00f8rst Bar", "ref:DK:cvr": "33948093", "ref:DK:cvr:pnummer": "1017136999"}}, {"type": "node", "id": 6570561561, "lat": 55.6671999, "lon": 12.5726521, "tags": {"amenity": "bar", "cuisine": "pizza;sandwich", "fvst:navnelbnr": "755618", "name": "Green Island of Copenhagen", "outdoor_seating": "yes", "payment:credit_cards": "yes", "phone": "+45 30295094", "ref:DK:cvr": "31219434", "ref:DK:cvr:pnummer": "1014217718", "seasonal": "summer", "toilets": "yes", "website": "https://www.green-island.dk/"}}, {"type": "node", "id": 6610407468, "lat": 55.6730015, "lon": 12.5494138, "tags": {"alt_name": "Cafe Postgaarden", "amenity": "bar", "check_date": "2023-04-10", "fvst:navnelbnr": "115093", "name": "Postgaarden Bar", "opening_hours": "12:00-22:00; Th-Sa 12:00-24:00; Su,PH 12:00-20:00", "phone": "+45 33312353", "ref:DK:cvr": "28924542", "smoking": "yes", "website": "http://www.postgaardencafe.dk/"}}, {"type": "node", "id": 6687706969, "lat": 55.6783076, "lon": 12.5469372, "tags": {"amenity": "bar", "brewery": "yes;various", "description": "Craft beer bar with 10 taps. Wine, spirits and soft drinks also served.", "email": "info@tap21.dk", "fvst:navnelbnr": "796742", "internet_access": "wlan", "name": "Tap 21 Craft Beer", "opening_hours": "Tu-Th 16:00-23:00; Fr-Sa 16:00-01:00", "outdoor_seating": "yes", "payment:cash": "yes", "payment:contactless": "yes", "payment:credit_cards": "yes", "phone": "+45 207 31 207", "ref:DK:cvr": "40003827", "ref:DK:cvr:pnummer": "1024107627", "website": "https://tap21.dk"}}, {"type": "node", "id": 6695972763, "lat": 55.6762539, "lon": 12.5716401, "tags": {"amenity": "bar", "fvst:navnelbnr": "798582", "name": "Not your Usual", "ref:DK:cvr": "38325140", "ref:DK:cvr:pnummer": "1022085227"}}, {"type": "node", "id": 6699329871, "lat": 55.684145, "lon": 12.550991, "tags": {"amenity": "bar", "fvst:navnelbnr": "796846", "name": "Gamble", "phone": "+45 26220575", "ref:DK:cvr": "39332094", "ref:DK:cvr:pnummer": "1023345826", "website": "http://gamble-cph.dk/"}}, {"type": "node", "id": 6699489674, "lat": 55.6773585, "lon": 12.5380853, "tags": {"amenity": "bar", "check_date": "2020-12-15", "description": "wine bar", "drink:wine": "served", "fvst:navnelbnr": "573704", "name": "Cork Vinbar", "opening_hours": "16:00-23:00; Th 16:00-24:00; Fr-Sa 14:00-01:00; Su off", "phone": "+45 51819992", "ref:DK:cvr": "37082309", "website": "http://corkvinbar.dk/"}}, {"type": "node", "id": 6761993669, "lat": 55.6770384, "lon": 12.5703918, "tags": {"amenity": "bar", "fvst:navnelbnr": "113817", "name": "Sams Bar", "ref:DK:cvr": "66082717", "ref:DK:cvr:pnummer": "1002224766"}}, {"type": "node", "id": 6837306986, "lat": 55.6758545, "lon": 12.5750111, "tags": {"amenity": "bar", "fvst:navnelbnr": "670172", "name": "Zefside", "ref:DK:cvr": "32768202", "ref:DK:cvr:pnummer": "1015903534"}}, {"type": "node", "id": 6898216400, "lat": 55.6936048, "lon": 12.5695578, "tags": {"amenity": "pub", "fvst:navnelbnr": "115674", "name": "Caf\u00e9 2'eren", "ref:DK:cvr": "18899892", "ref:DK:cvr:pnummer": "1003599376"}}, {"type": "node", "id": 7061980768, "lat": 55.6889032, "lon": 12.559758, "tags": {"amenity": "bar", "description": "BAR \u2022 ARCADE \u2022 PINBALL", "fvst:navnelbnr": "778746", "name": "Bip Bip Bar", "opening_hours": "Tu 15:00-22:00; We 15:00-24:00; Th 15:00-02:00; Fr 15:00-04:00; Sa 12:00-04:00", "ref:DK:cvr": "39121174", "ref:DK:cvr:pnummer": "1023074288", "website": "http://bipbipbar.dk/"}}, {"type": "node", "id": 7098162233, "lat": 55.688681, "lon": 12.5440284, "tags": {"amenity": "pub", "brewery": "yes", "description": "Bodega", "fvst:navnelbnr": "931435", "min_age": "18", "name": "Klovnens Bodega", "opening_hours": "Mo-Sa 10:00-01:00, Su 10:00-22:00", "outdoor_seating": "yes", "ref:DK:cvr": "39747103", "wheelchair": "limited"}}, {"type": "node", "id": 7146478209, "lat": 55.6761113, "lon": 12.5458249, "tags": {"amenity": "pub", "fvst:navnelbnr": "923521", "name": "La f\u00e9e verte", "ref:DK:cvr": "40579877", "ref:DK:cvr:pnummer": "1024777517"}}, {"type": "node", "id": 7331635026, "lat": 55.6657876, "lon": 12.5430459, "tags": {"access:covid19": "no", "amenity": "bar", "name": "Atze Peng", "opening_hours": "Th 18:00-24:00; Fr,Sa 18:00-01:00", "phone": "+45 42415446"}}, {"type": "node", "id": 7334707798, "lat": 55.6702078, "lon": 12.5371716, "tags": {"alt_name": "Cafe Robert", "amenity": "bar", "fvst:navnelbnr": "786580", "name": "Hos Robert", "opening_hours": "Mo-Th 13:00-22:00; Fr,Sa 13:00-02:00", "phone": "+45 33315139", "ref:DK:cvr": "40093052", "smoking": "yes"}}, {"type": "node", "id": 7577988234, "lat": 55.6823112, "lon": 12.5349285, "tags": {"amenity": "bar", "fvst:navnelbnr": "560250", "name": "Vinstuen 29", "opening_hours:signed": "no", "ref:DK:cvr": "34205426", "ref:DK:cvr:pnummer": "1017388076"}}, {"type": "node", "id": 7713115157, "lat": 55.6741647, "lon": 12.5698778, "tags": {"alt_name": "F\u00e6rgekroen Bryghus Bryggeri", "amenity": "bar", "fvst:navnelbnr": "982087", "microbrewery": "yes", "name": "F\u00e6rgekroen (Bryggeriet)", "ref:DK:cvr": "28223722", "ref:DK:cvr:pnummer": "1011064988", "seasonal": "summer"}}, {"type": "node", "id": 7741931221, "lat": 55.6839892, "lon": 12.5676699, "tags": {"amenity": "bar", "drink:wine": "served", "fvst:navnelbnr": "943976", "mapillary": "177505994675976", "name": "Vinum Historia", "opening_hours": "12:00-24:00", "ref:DK:cvr": "41284501", "ref:DK:cvr:pnummer": "1025725510", "website": "https://www.vinumhistoria.com/"}}, {"type": "node", "id": 7785159023, "lat": 55.6682632, "lon": 12.5615533, "tags": {"amenity": "bar", "branch": "K\u00f8dbyen", "fvst:name": "\u00c5ben SHG", "fvst:navnelbnr": "943430", "microbrewery": "yes", "name": "\u00c5ben", "opening_hours": "Mo-Su 12:00-24:00", "outdoor_seating": "yes", "ref:DK:cvr": "41277025", "ref:DK:cvr:pnummer": "1025715507", "website": "https://www.aabenbryg.com"}}, {"type": "node", "id": 7833009689, "lat": 55.669926, "lon": 12.558393, "tags": {"amenity": "bar", "contact:facebook": "http://www.facebook.com/1656cocktailbar", "contact:instagram": "https://www.instagram.com/1656cocktailbar/", "email": "hello@1656.dk", "fvst:navnelbnr": "951763", "indoor_seating": "yes", "name": "Cocktail Bar 1656", "opening_hours": "Su-We 18:00-01:00; Th 18:00-02:00; Fr 17:00-02:00; Sa 18:00-02:00", "outdoor_seating": "yes", "ref:DK:cvr": "35415688", "ref:DK:cvr:pnummer": "1019017180", "website": "http://cocktailkompagniet.dk/"}}, {"type": "node", "id": 8090448341, "lat": 55.682092, "lon": 12.573523, "tags": {"amenity": "bar", "bar": "wine_bar", "drink:wine": "yes", "fvst:navnelbnr": "1285164", "name": "Melo Vinbar", "name:en": "Melo Wine Bar", "phone": "+45 23816459", "ref:DK:cvr": "43624997", "ref:DK:cvr:pnummer": "1028722768", "shop": "alcohol"}}, {"type": "node", "id": 8107469773, "lat": 55.675785, "lon": 12.567133, "tags": {"amenity": "pub", "fvst:navnelbnr": "953627", "name": "Proud Mary", "phone": "+45 31341876", "ref:DK:cvr": "41215933", "website": "https://proudmarypub.dk/", "wheelchair": "limited"}}, {"type": "node", "id": 8110000748, "lat": 55.691821, "lon": 12.555717, "tags": {"amenity": "pub", "fvst:navnelbnr": "747074", "microbrewery": "yes", "name": "Brus Bar", "ref:DK:cvr": "37222852", "website": "https://tapperietbrus.dk/bar/"}}, {"type": "node", "id": 8112535192, "lat": 55.670728, "lon": 12.543986, "tags": {"amenity": "bar", "fvst:name": "JOJO PROJECTS", "fvst:navnelbnr": "953527", "indoor_seating": "yes", "name": "Jojo", "opening_hours": "16:00-22:00; Th 16:00-23:00; Fr-Sa 15:00 - 24:00; Su-Tu off", "outdoor_seating": "yes", "ref:DK:cvr": "40652078", "website": "https://jojovesterbro.dk/", "wheelchair": "limited"}}, {"type": "node", "id": 8117585758, "lat": 55.6653027, "lon": 12.5199653, "tags": {"amenity": "bar", "fvst:navnelbnr": "131463", "name": "Cafe Hj\u00f8rnet", "ref:DK:cvr": "33816529", "smoking": "yes"}}, {"type": "node", "id": 8117585781, "lat": 55.667841, "lon": 12.57367, "tags": {"amenity": "bar", "fvst:navnelbnr": "936516", "name": "Svajerbar", "ref:DK:cvr": "26718899"}}, {"type": "node", "id": 8117602419, "lat": 55.6706354, "lon": 12.5423642, "tags": {"amenity": "pub", "cuisine": "scottish", "diet:vegetarian": "no", "drink:beer": "served", "fvst:navnelbnr": "793352", "name": "Trows", "opening_hours": "Tu-Th 17:00-22:00; Fr,Sa 15:00-22:00; Su 14:00-20:00", "outdoor_seating": "yes", "phone": "+45 24 41 72 18", "ref:DK:cvr": "36324791", "wheelchair": "no"}}, {"type": "node", "id": 8117602431, "lat": 55.6783113, "lon": 12.5324887, "tags": {"amenity": "bar", "fvst:navnelbnr": "762650", "name": "Belis bar udebaren", "ref:DK:cvr": "30576241", "seasonal": "summer"}}, {"type": "node", "id": 8117602432, "lat": 55.679536, "lon": 12.521293, "tags": {"amenity": "bar", "fvst:navnelbnr": "968170", "name": "Guldfasanen", "ref:DK:cvr": "41676876"}}, {"type": "node", "id": 8117602436, "lat": 55.690418, "lon": 12.517152, "tags": {"amenity": "pub", "fvst:navnelbnr": "906554", "name": "\u00d8lands Pub", "phone": "+45 61725272", "ref:DK:cvr": "38189352"}}, {"type": "node", "id": 8117602443, "lat": 55.6777981, "lon": 12.5703019, "tags": {"amenity": "bar", "fvst:navnelbnr": "122006", "level": "1", "name": "Tyrolia", "ref:DK:cvr": "33244460"}}, {"type": "node", "id": 8117602444, "lat": 55.677814, "lon": 12.569832, "tags": {"amenity": "bar", "fvst:navnelbnr": "805559", "name": "Use Us", "operator": "\u00d8vrige engros-k\u00e6der", "ref:DK:cvr": "39964325", "website": "https://tapit.dk/"}}, {"type": "node", "id": 8117602447, "lat": 55.687525, "lon": 12.559342, "tags": {"amenity": "bar", "fvst:navnelbnr": "954601", "name": "Barbarian", "ref:DK:cvr": "41100729", "website": "https://barberianscph.com/"}}, {"type": "node", "id": 8119069628, "lat": 55.6718348, "lon": 12.5626038, "tags": {"amenity": "bar", "check_date": "2023-04-02", "fvst:navnelbnr": "567578", "name": "Good Morning City Copenhagen Star Bar", "ref:DK:cvr": "33580037"}}, {"type": "node", "id": 8119069640, "lat": 55.665587, "lon": 12.543472, "tags": {"amenity": "bar", "fvst:navnelbnr": "912627", "name": "Bennis Bar", "outdoor_seating": "yes", "ref:DK:cvr": "38562762", "smoking": "yes"}}, {"type": "node", "id": 8119069643, "lat": 55.66138, "lon": 12.518548, "tags": {"amenity": "bar", "fvst:name": "DIT:KBH - Kraftwerket Bar Underwerket", "fvst:navnelbnr": "772612", "name": "Kraftwerket Bar Underwerket", "ref:DK:cvr": "64942212"}}, {"type": "node", "id": 8124949018, "lat": 55.689782, "lon": 12.560259, "tags": {"amenity": "bar", "fvst:navnelbnr": "921488", "name": "L\u00e9anowski Bar", "ref:DK:cvr": "40432728"}}, {"type": "node", "id": 8124949019, "lat": 55.688107, "lon": 12.561284, "tags": {"amenity": "bar", "fvst:navnelbnr": "117693", "name": "N\u00f8rrebro Teater Bar", "ref:DK:cvr": "16148245"}}, {"type": "node", "id": 8124949020, "lat": 55.6818909, "lon": 12.5592724, "tags": {"amenity": "bar", "fvst:navnelbnr": "905878", "name": "GL24 S\u00f8pavillonen", "ref:DK:cvr": "39911558"}}, {"type": "node", "id": 8124949025, "lat": 55.679342, "lon": 12.57629, "tags": {"amenity": "bar", "fvst:navnelbnr": "802955", "name": "Voodoo", "ref:DK:cvr": "36417935", "website": "https://voodoo-lounge.dk/"}}, {"type": "node", "id": 8124949026, "lat": 55.6765698, "lon": 12.5745614, "tags": {"amenity": "bar", "fvst:navnelbnr": "794636", "name": "Galathea Dybet", "ref:DK:cvr": "37610720"}}, {"type": "node", "id": 8124949030, "lat": 55.6732198, "lon": 12.5554902, "tags": {"amenity": "bar", "check_date": "2023-04-01", "fvst:navnelbnr": "112993", "name": "Det Ny Teater Bar 1 balkonplan", "ref:DK:cvr": "17741039"}}, {"type": "node", "id": 8124949037, "lat": 55.6721242, "lon": 12.5253878, "tags": {"access": "private", "amenity": "bar", "fvst:navnelbnr": "111265", "name": "Kadetk\u00e6lderen", "ref:DK:cvr": "13019347"}}, {"type": "node", "id": 8130361806, "lat": 55.679455, "lon": 12.529418, "tags": {"amenity": "bar", "fvst:navnelbnr": "781946", "name": "Cafe Domhuset", "opening_hours": "12:00-02:00, Su 12:00-23:00", "phone": "+45 38348278", "ref:DK:cvr": "17721437", "smoking": "yes", "website": "https://www.cafedomhuset.dk/"}}, {"type": "node", "id": 8130361809, "lat": 55.6699974, "lon": 12.5458976, "tags": {"amenity": "bar", "check_date": "2023-04-03", "fvst:navnelbnr": "788669", "name": "Brass Monkey", "opening_hours": "Th 20:00-01:00,Fr-Sa 20:00-04:00", "ref:DK:cvr": "38115669", "website": "https://www.brassmonkey.dk/koebenhavn/"}}, {"type": "node", "id": 8130361811, "lat": 55.6670444, "lon": 12.5571596, "tags": {"amenity": "bar", "fvst:navnelbnr": "803351", "name": "Scandic K\u00f8dbyen Baren", "operator": "Scandic Hotels", "ref:DK:cvr": "12596774"}}, {"type": "node", "id": 8133042254, "lat": 55.687938, "lon": 12.554122, "tags": {"amenity": "bar", "fvst:navnelbnr": "516858", "name": "Trabi Bar", "ref:DK:cvr": "34623287", "ref:DK:cvr:pnummer": "1017835358"}}, {"type": "node", "id": 8137334217, "lat": 55.684718, "lon": 12.564939, "tags": {"amenity": "bar", "fvst:navnelbnr": "113452", "name": "Hotel Kong Arthur Baren", "ref:DK:cvr": "75612419", "ref:DK:cvr:pnummer": "1002465170", "website": "https://www.arthurhotels.dk/dk/hotel-kong-arthur/mad-drikke/baren/"}}, {"type": "node", "id": 8137959592, "lat": 55.6711275, "lon": 12.5433807, "tags": {"access:covid19": "no", "amenity": "bar", "check_date": "2023-03-30", "fvst:navnelbnr": "1244618", "name": "Vaest", "ref:DK:cvr": "41182466", "ref:DK:cvr:pnummer": "1025574997", "website": "https://www.vaest.dk/"}}, {"type": "node", "id": 8138045851, "lat": 55.6871892, "lon": 12.5404647, "tags": {"amenity": "bar", "fvst:navnelbnr": "558279", "name": "Frb \u00d8lbar", "opening_hours": "Mo-We 14:00-01:00, Th 14:00-02:00, Fr,Sa 12:00-04:00, Su 12:00-24:00", "ref:DK:cvr": "35519270", "ref:DK:cvr:pnummer": "1018843702"}}, {"type": "node", "id": 8138045852, "lat": 55.6862958, "lon": 12.5400653, "tags": {"air_conditioning": "no", "amenity": "bar", "fvst:navnelbnr": "906091", "indoor_seating": "yes", "name": "Caf\u00e9 Francke", "opening_hours": "Mo-We 13:00-24:00, Th-Sa 13:00-02:00, Su 13:00-20:00", "outdoor_seating": "yes", "phone": "+45 35364052", "ref:DK:cvr": "38192183", "ref:DK:cvr:pnummer": "1021936002", "smoking": "yes"}}, {"type": "node", "id": 8138067672, "lat": 55.680757, "lon": 12.522294, "tags": {"amenity": "bar", "fvst:navnelbnr": "768256", "name": "Solbakken Bar", "opening_hours": "Mo-Su 10:00-02:00", "ref:DK:cvr": "39574217", "ref:DK:cvr:pnummer": "1023621734", "smoking": "yes"}}, {"type": "node", "id": 8139020148, "lat": 55.6708454, "lon": 12.5584234, "tags": {"amenity": "bar", "fvst:navnelbnr": "918720", "name": "Die Strafbar", "ref:DK:cvr": "39602458", "ref:DK:cvr:pnummer": "1024897881"}}, {"type": "node", "id": 8140256632, "lat": 55.6690236, "lon": 12.552327, "tags": {"amenity": "bar", "check_date": "2023-05-05", "fvst:navnelbnr": "122957", "name": "Simpelt V", "opening_hours": "18:00-02:00,We 18:00-03:00,Fr-Sa 15:00-05:00, Su 17:00-02:00", "ref:DK:cvr": "33050860", "ref:DK:cvr:pnummer": "1016274719", "website": "https://simpeltv.dk/"}}, {"type": "node", "id": 8141496993, "lat": 55.67961, "lon": 12.576044, "tags": {"amenity": "bar", "fvst:navnelbnr": "112895", "name": "Peder Oxe Vink\u00e6lderen", "ref:DK:cvr": "26119243", "ref:DK:cvr:pnummer": "1003206635"}}, {"type": "node", "id": 8143723560, "lat": 55.6790425, "lon": 12.539364, "tags": {"amenity": "bar", "fvst:name": "A.V.F. - R\u00c5D Studenter Forening", "fvst:navnelbnr": "113050", "name": "A-vej", "ref:DK:cvr": "16275441", "ref:DK:cvr:pnummer": "1001070509"}}, {"type": "node", "id": 8144238925, "lat": 55.681637, "lon": 12.53076, "tags": {"access": "private", "amenity": "bar", "fvst:navnelbnr": "110827", "name": "Caf\u00e9 Nexus", "ref:DK:cvr": "10020867", "ref:DK:cvr:pnummer": "1007443257", "website": "https://www.cbsstudents.dk/cafe-nexus"}}, {"type": "node", "id": 8144238928, "lat": 55.672427, "lon": 12.557519, "tags": {"amenity": "bar", "brewery": "Refsvindinge", "check_date": "2023-04-02", "drink:beer": "served", "fvst:navnelbnr": "550794", "name": "Dia'legd", "opening_hours": "Th 17:00-24:00, Fr 16:00-02:00, Sa 15:00-02:00", "phone": "+45 20676583", "ref:DK:cvr": "35477292", "ref:DK:cvr:pnummer": "1018764705", "website": "http://dialegd.dk/"}}, {"type": "node", "id": 8144238930, "lat": 55.6732055, "lon": 12.5554754, "tags": {"amenity": "bar", "check_date": "2023-04-01", "fvst:navnelbnr": "113055", "name": "Det Ny Teater Bar 2 parketplan", "ref:DK:cvr": "17741039", "ref:DK:cvr:pnummer": "1001350203"}}, {"type": "node", "id": 8144238933, "lat": 55.6784007, "lon": 12.5687681, "tags": {"amenity": "bar", "check_date": "2023-04-19", "fvst:navnelbnr": "113034", "lgbtq": "primary", "name": "COSY BAR", "ref:DK:cvr": "15734531", "ref:DK:cvr:pnummer": "1000969333", "website": "https://www.cosybar.dk/"}}, {"type": "node", "id": 8146827279, "lat": 55.6732954, "lon": 12.5714839, "tags": {"amenity": "bar", "fvst:navnelbnr": "936384", "name": "Churros", "ref:DK:cvr": "10404916", "ref:DK:cvr:pnummer": "1002894451"}}, {"type": "node", "id": 8158377269, "lat": 55.6713715, "lon": 12.5600529, "tags": {"amenity": "bar", "check_date": "2023-04-05", "fvst:navnelbnr": "722039", "name": "Hats Boots & Bourbon", "phone": "+45 91821908", "ref:DK:cvr": "38643762", "ref:DK:cvr:pnummer": "1022446262", "shop": "clothes", "website": "https://hatsbootsbourbon.com/"}}, {"type": "node", "id": 8162242504, "lat": 55.6732342, "lon": 12.5554496, "tags": {"amenity": "bar", "check_date": "2023-04-01", "fvst:navnelbnr": "113522", "name": "Det Ny Teater Bar 1", "ref:DK:cvr": "17741039", "ref:DK:cvr:pnummer": "1001350203"}}, {"type": "node", "id": 8165451528, "lat": 55.6732372, "lon": 12.5554976, "tags": {"amenity": "bar", "check_date": "2023-04-01", "fvst:navnelbnr": "113593", "name": "Det Ny Teater Bar 2 balkonplan", "ref:DK:cvr": "17741039", "ref:DK:cvr:pnummer": "1001350203"}}, {"type": "node", "id": 8168142117, "lat": 55.6731526, "lon": 12.5666068, "tags": {"amenity": "bar", "fvst:navnelbnr": "115785", "name": "Smugkroen", "ref:DK:cvr": "10404916", "ref:DK:cvr:pnummer": "1002894451"}}, {"type": "node", "id": 8184307408, "lat": 55.6732293, "lon": 12.555517, "tags": {"amenity": "bar", "check_date": "2023-04-01", "fvst:navnelbnr": "112150", "name": "Det Ny Teater Bar 2", "ref:DK:cvr": "17741039", "ref:DK:cvr:pnummer": "1001350203"}}, {"type": "node", "id": 8184307413, "lat": 55.677633, "lon": 12.536886, "tags": {"amenity": "bar", "fvst:navnelbnr": "933189", "name": "Creative Space", "ref:DK:cvr": "39187280", "ref:DK:cvr:pnummer": "1023170198"}}, {"type": "node", "id": 8193709898, "lat": 55.664071, "lon": 12.545413, "tags": {"amenity": "bar", "fvst:navnelbnr": "945363", "indoor_seating": "yes", "name": "Vores Vinbar", "opening_hours": "16:30-22:00; Sa 14:30-22:00; Su-We off", "outdoor_seating": "yes", "phone": "+45 40563434", "ref:DK:cvr": "41419636", "ref:DK:cvr:pnummer": "1025908631", "website": "https://voresvinbar.dk/"}}, {"type": "node", "id": 8194350862, "lat": 55.6748826, "lon": 12.5637546, "tags": {"alt_name": "Radisson Blu Royal Hotel Cafe Royal", "amenity": "bar", "fvst:navnelbnr": "539449", "name": "Radisson Blu Royal Hotel Hotel Bar", "operator": "Radisson Blu", "ref:DK:cvr": "35255095", "ref:DK:cvr:pnummer": "1018543628"}}, {"type": "node", "id": 8194597733, "lat": 55.6732077, "lon": 12.5554895, "tags": {"amenity": "bar", "check_date": "2023-04-01", "fvst:navnelbnr": "646042", "name": "Det Ny Teater Bar k\u00e6lder", "ref:DK:cvr": "17741039", "ref:DK:cvr:pnummer": "1001350203"}}, {"type": "node", "id": 8197943616, "lat": 55.690637, "lon": 12.558319, "tags": {"access:covid19": "no", "amenity": "bar", "drink:cocktail": "served", "fvst:navnelbnr": "962317", "name": "The Flatiron", "phone": "+45 35245200", "ref:DK:cvr": "40694390", "ref:DK:cvr:pnummer": "1024940531", "website": "https://www.theflatiron.dk/"}}, {"type": "node", "id": 8200275553, "lat": 55.6771747, "lon": 12.5757653, "tags": {"amenity": "bar", "fvst:navnelbnr": "956870", "name": "C\u00f3cteles Copenhagen", "phone": "+45 42942672", "takeaway": "only", "website": "https://xn--cctelescopenhagen-gyb.com/"}}, {"type": "node", "id": 8200275556, "lat": 55.677264, "lon": 12.569676, "tags": {"amenity": "bar", "fvst:navnelbnr": "961585", "name": "Hugos Strandbar", "opening_hours": "Th 20:00-03:00, Fr-Sa 20:00-05:00", "phone": "+45 81813305", "ref:DK:cvr": "39475391", "ref:DK:cvr:pnummer": "1026208390", "website": "http://tequilabar.dk/"}}, {"type": "node", "id": 8200275557, "lat": 55.673224, "lon": 12.55546, "tags": {"amenity": "bar", "check_date": "2023-04-01", "fvst:navnelbnr": "113521", "name": "Det Ny Teater Bar 1 parketplan", "ref:DK:cvr": "17741039", "ref:DK:cvr:pnummer": "1001350203"}}, {"type": "node", "id": 8204073348, "lat": 55.687674, "lon": 12.559516, "tags": {"amenity": "bar", "fvst:navnelbnr": "955713", "name": "Torobar", "opening_hours": "11:00-24:00; Fr-Sa 11:00-02:00", "ref:DK:cvr": "39516942", "ref:DK:cvr:pnummer": "1023557505", "website": "http://torobar.dk/"}}, {"type": "node", "id": 8211567574, "lat": 55.6742078, "lon": 12.5660833, "tags": {"amenity": "bar", "fvst:navnelbnr": "960253", "name": "Gl\u00f8gg og Hygge", "ref:DK:cvr": "31863570", "ref:DK:cvr:pnummer": "1019327708", "seasonal": "winter"}}, {"type": "node", "id": 8214134206, "lat": 55.6745058, "lon": 12.5657286, "tags": {"amenity": "bar", "fvst:navnelbnr": "930991", "name": "Mr. Snowmans hotdrinks", "ref:DK:cvr": "31863570", "ref:DK:cvr:pnummer": "1019327708"}}, {"type": "node", "id": 8225542170, "lat": 55.6718109, "lon": 12.5232182, "tags": {"amenity": "bar", "fvst:navnelbnr": "952045", "name": "Caf\u00e9 Del Mundo (udebar)", "ref:DK:cvr": "30553225", "ref:DK:cvr:pnummer": "1026123352"}}, {"type": "node", "id": 8227922735, "lat": 55.6739216, "lon": 12.5687429, "tags": {"amenity": "bar", "fvst:navnelbnr": "745430", "name": "Orangeriet Bar", "ref:DK:cvr": "10404916", "ref:DK:cvr:pnummer": "1002894451"}}, {"type": "node", "id": 8486140275, "lat": 55.6851195, "lon": 12.5527485, "tags": {"amenity": "pub", "fvst:navnelbnr": "1144337", "name": "Sorte Ren\u00e9", "ref:DK:cvr": "36973595", "ref:DK:cvr:pnummer": "1020601635"}}, {"type": "node", "id": 8537212688, "lat": 55.6933556, "lon": 12.5474989, "tags": {"amenity": "bar", "check_date": "2023-03-29", "indoor_seating": "yes", "name": "Liquid", "outdoor_seating": "no", "ref:DK:cvr": "34243166", "ref:DK:cvr:pnummer": "1017823872", "wheelchair": "limited"}}, {"type": "node", "id": 8706595479, "lat": 55.6895374, "lon": 12.5581541, "tags": {"amenity": "bar", "facebook": "Vivant CPH", "fvst:navnelbnr": "985777", "instagram": "vivant_cph", "name": "Bar Vivant", "opening_hours": "Tu-Th 12:00-23:00; Fr, Sa 12:00-24:00", "ref:DK:cvr": "42143065", "ref:DK:cvr:pnummer": "1026948629", "shop": "wine", "website": "https://vivant.dk"}}, {"type": "node", "id": 9084229145, "lat": 55.6690654, "lon": 12.5533155, "tags": {"amenity": "bar", "drink:wine": "yes", "fvst:navnelbnr": "951819", "name": "Malbeck vinbar", "ref:DK:cvr": "41086564", "ref:DK:cvr:pnummer": "1025455920"}}, {"type": "node", "id": 9087814780, "lat": 55.6661693, "lon": 12.5660401, "tags": {"amenity": "bar", "fvst:navnelbnr": "564822", "name": "Hotel Tivoli Congress Center Lobbybar", "ref:DK:cvr": "54399219", "ref:DK:cvr:pnummer": "1015847111"}}, {"type": "node", "id": 9091138280, "lat": 55.6686644, "lon": 12.5595224, "tags": {"amenity": "bar", "fvst:navnelbnr": "988377", "name": "Tranquilo", "opening_hours": "15:00-24:00, Fr-Sa 15:00-02:00, Su-Tu off", "operator": "N\u00e6rv\u00e6r", "ref:DK:cvr": "37834246", "ref:DK:cvr:pnummer": "1026680251", "website": "https://tranquilo.naervaer.dk/"}}, {"type": "node", "id": 9091517115, "lat": 55.6703004, "lon": 12.5566439, "tags": {"amenity": "bar", "drink:cider": "yes", "fvst:navnelbnr": "719393", "name": "Holm Cider", "opening_hours": "Tu-Th 14:00-23:00; Fr 14:00-24:00; Sa 12:00-24:00", "ref:DK:cvr": "37601365", "ref:DK:cvr:pnummer": "1021323264", "shop": "alcohol", "website": "https://holmcider.dk/"}}, {"type": "node", "id": 9091818725, "lat": 55.6710387, "lon": 12.5612913, "tags": {"amenity": "bar", "branch": "Halmtorvet", "description": "ginbar", "drink:gin": "yes", "fvst:navnelbnr": "993561", "name": "Two Socks", "opening_hours": "16:00-24:00, Fr-Sa 12:00-02:00; Su off", "ref:DK:cvr": "42351571", "ref:DK:cvr:pnummer": "1027136512", "website": "https://two-socks.dk/"}}, {"type": "node", "id": 9091818726, "lat": 55.6713509, "lon": 12.5540875, "tags": {"amenity": "bar", "fvst:navnelbnr": "551577", "name": "Kanon Bar", "ref:DK:cvr": "35741763", "ref:DK:cvr:pnummer": "1019254158"}}, {"type": "node", "id": 9094792907, "lat": 55.6735178, "lon": 12.5668344, "tags": {"amenity": "bar", "branch": "Tivoli", "fvst:navnelbnr": "983704", "name": "Nohrlund Bar", "ref:DK:cvr": "10404916", "ref:DK:cvr:pnummer": "1002894451"}}, {"type": "node", "id": 9094826517, "lat": 55.6728603, "lon": 12.5668469, "tags": {"amenity": "bar", "drink:beer": "yes", "fvst:navnelbnr": "993168", "name": "Anarkist", "ref:DK:cvr": "10404916", "ref:DK:cvr:pnummer": "1002894451"}}, {"type": "node", "id": 9101761999, "lat": 55.6837353, "lon": 12.5665529, "tags": {"amenity": "bar", "fvst:navnelbnr": "983999", "name": "Censuum", "ref:DK:cvr": "42084646", "ref:DK:cvr:pnummer": "1026758293", "shop": "clothes", "website": "https://www.censuum.dk/"}}, {"type": "node", "id": 9101970206, "lat": 55.6797397, "lon": 12.5333801, "tags": {"amenity": "bar", "fvst:navnelbnr": "1012862", "name": "Scandic Falkoner Bar", "operator": "Scandic Hotels", "ref:DK:cvr": "12596774", "ref:DK:cvr:pnummer": "1022910376"}}, {"type": "node", "id": 9101970216, "lat": 55.6853486, "lon": 12.5690851, "tags": {"amenity": "bar", "fvst:navnelbnr": "992941", "name": "Chums", "ref:DK:cvr": "42380156", "ref:DK:cvr:pnummer": "1027151678"}}, {"type": "node", "id": 9102016626, "lat": 55.6836454, "lon": 12.5698768, "tags": {"amenity": "bar", "description": "low-alcoholic drinks", "fvst:navnelbnr": "993911", "name": "Pavillion De Verre", "ref:DK:cvr": "39707799", "ref:DK:cvr:pnummer": "1026528891"}}, {"type": "node", "id": 9106162220, "lat": 55.6792134, "lon": 12.5257662, "tags": {"amenity": "bar", "drink:wine": "yes", "fvst:navnelbnr": "995616", "name": "VBAR", "opening_hours": "14:00-24:00; Su 14:00-22:00;Mo-Tu off", "phone": "+45 22262500", "ref:DK:cvr": "42302015", "ref:DK:cvr:pnummer": "1027275970", "website": "http://www.vbar.dk/"}}, {"type": "node", "id": 9110835344, "lat": 55.672712, "lon": 12.55484, "tags": {"amenity": "bar", "cuisine": "tapas", "description": "vinbar", "drink:wine": "yes", "fvst:navnelbnr": "713429", "name": "PioVin", "ref:DK:cvr": "38833545", "ref:DK:cvr:pnummer": "1022722189", "website": "http://www.piovin.dk/"}}, {"type": "node", "id": 9157557636, "lat": 55.6789186, "lon": 12.5706142, "tags": {"amenity": "bar", "description": "Champagne & Cocktail bar", "drink:cocktails": "yes", "fvst:navnelbnr": "985940", "name": "Kester Thomas", "opening_hours": "18:00-24:00; Mo-Tu off; Fr 16:00-02:00; Sa 18:00-02:00", "ref:DK:cvr": "37345210", "ref:DK:cvr:pnummer": "1021030151", "website": "https://kesterthomas.com/"}}, {"type": "node", "id": 9157591532, "lat": 55.6904787, "lon": 12.5603817, "tags": {"amenity": "bar", "drink:cocktails": "yes", "fvst:navnelbnr": "987582", "name": "Pulp", "ref:DK:cvr": "42224731", "ref:DK:cvr:pnummer": "1026925181"}}, {"type": "node", "id": 9159589169, "lat": 55.677625, "lon": 12.5664495, "tags": {"amenity": "bar", "check_date:opening_hours": "2022-07-25", "fvst:navnelbnr": "969462", "name": "Two Socks V", "opening_hours:signed": "no", "ref:DK:cvr": "41599251", "ref:DK:cvr:pnummer": "1026163664", "website": "https://two-socks.dk/"}}, {"type": "node", "id": 9173401696, "lat": 55.6840689, "lon": 12.5680688, "tags": {"amenity": "bar", "fvst:navnelbnr": "987197", "name": "Wiine", "ref:DK:cvr": "42269603", "ref:DK:cvr:pnummer": "1026981294"}}, {"type": "node", "id": 9283850285, "lat": 55.6843239, "lon": 12.563753, "tags": {"amenity": "bar", "check_date": "2022-11-02", "fvst:navnelbnr": "701789", "level": "-1", "name": "Vintage Champagne", "outdoor_seating": "no", "phone": "+45 71747416", "ref:DK:cvr": "36550562", "ref:DK:cvr:pnummer": "1020182179", "website": "https://www.champagnekaelderen.dk/", "wheelchair": "no"}}, {"type": "node", "id": 9351196036, "lat": 55.671432, "lon": 12.558422, "tags": {"amenity": "bar", "fvst:navnelbnr": "975254", "name": "Gin-D", "ref:DK:cvr": "41872179", "ref:DK:cvr:pnummer": "1026499573"}}, {"type": "node", "id": 9352875895, "lat": 55.6686296, "lon": 12.5608903, "tags": {"amenity": "bar", "fvst:navnelbnr": "1110000", "name": "K\u00f8dbyens Baghave", "outdoor_seating": "only", "ref:DK:cvr": "35047026", "ref:DK:cvr:pnummer": "1018291106", "seasonal": "summer"}}, {"type": "node", "id": 9454954545, "lat": 55.6806744, "lon": 12.5337702, "tags": {"air_conditioning": "no", "amenity": "bar", "fvst:navnelbnr": "1218264", "indoor_seating": "yes", "name": "Bootleggers", "opening_hours:signed": "no", "outdoor_seating": "yes", "ref:DK:cvr": "33146973", "ref:DK:cvr:pnummer": "1027396476", "website": "https://www.bootleggers.dk/kopi-af-amager", "wheelchair": "no"}}, {"type": "node", "id": 9585572020, "lat": 55.6674433, "lon": 12.5550445, "tags": {"amenity": "bar", "description": "Cozy bodega with cheap beers. Also has a pool table", "email": "cafesommersted@gmail.com", "fvst:name": "M.Q.", "fvst:navnelbnr": "1115454", "indoor_seating": "yes", "name": "Cafe Sommersted", "opening_hours": "Th 17:00-02:00; Fr-Sa 17:00-05:00", "outdoor_seating": "no", "ref:DK:cvr": "38245090", "ref:DK:cvr:pnummer": "1026722566"}}, {"type": "node", "id": 9585572021, "lat": 55.6669443, "lon": 12.5477015, "tags": {"alt_name": "Olivers", "amenity": "bar", "fvst:navnelbnr": "1209256", "name": "No 3", "ref:DK:cvr": "33064160", "ref:DK:cvr:pnummer": "1025940179"}}, {"type": "node", "id": 9642607404, "lat": 55.674319, "lon": 12.5652897, "tags": {"amenity": "bar", "fvst:navnelbnr": "1202189", "name": "Elis Ristede Kastanjer", "ref:DK:cvr": "39662884", "ref:DK:cvr:pnummer": "1023735268"}}, {"type": "node", "id": 9642934828, "lat": 55.68224, "lon": 12.5725521, "tags": {"amenity": "bar", "fvst:navnelbnr": "1221485", "name": "Rosengaardens Vinstue", "opening_hours": "16:00-24:00; Fr 14:00-24:00; Sa 12:00-24:00; Su-Mo off", "phone": "+45 69692034", "ref:DK:cvr": "31625246", "ref:DK:cvr:pnummer": "1027413168", "smoking": "yes", "website": "http://rosengaardensvinstue.dk/"}}, {"type": "node", "id": 9642934833, "lat": 55.6750431, "lon": 12.5722773, "tags": {"amenity": "bar", "fvst:navnelbnr": "1217346", "name": "La Bonita", "ref:DK:cvr": "28100019", "ref:DK:cvr:pnummer": "1010740572"}}, {"type": "node", "id": 9645254584, "lat": 55.6787997, "lon": 12.5698363, "tags": {"amenity": "bar", "drink:cocktail": "yes", "fvst:navnelbnr": "1012973", "name": "Blume", "opening_hours": "Fr-Sa 20:00-05:00", "phone": "+45 60617158", "ref:DK:cvr": "37038830", "ref:DK:cvr:pnummer": "1020676147", "website": "https://blumecph.dk/"}}, {"type": "node", "id": 9645254585, "lat": 55.677945, "lon": 12.568094, "tags": {"amenity": "bar", "fvst:navnelbnr": "955617", "name": "Kiss kiss", "ref:DK:cvr": "39876280", "ref:DK:cvr:pnummer": "1023971085"}}, {"type": "node", "id": 9645439911, "lat": 55.6893943, "lon": 12.555331, "tags": {"amenity": "bar", "fvst:navnelbnr": "990566", "name": "Fantom Bar", "ref:DK:cvr": "42136719", "ref:DK:cvr:pnummer": "1027176182"}}, {"type": "node", "id": 9645439914, "lat": 55.6784134, "lon": 12.57201, "tags": {"amenity": "bar", "fvst:navnelbnr": "1010747", "name": "Sukkerbageren", "ref:DK:cvr": "40732195", "ref:DK:cvr:pnummer": "1024965658"}}, {"type": "node", "id": 9760429115, "lat": 55.6777799, "lon": 12.5746193, "tags": {"alt_name": "The Mirror", "amenity": "bar", "drink:cocktail": "yes", "fvst:navnelbnr": "662256", "name": "Alo\u00eb", "opening_hours": "Th-Sa 20:00-03:00", "ref:DK:cvr": "36556110", "ref:DK:cvr:pnummer": "1020239294", "website": "https://aloecocktailbar.com/"}}, {"type": "node", "id": 9760524891, "lat": 55.6888241, "lon": 12.559672, "tags": {"amenity": "bar", "fvst:navnelbnr": "1223152", "name": "Samv\u00e6r", "ref:DK:cvr": "43047914", "ref:DK:cvr:pnummer": "1028041310", "website": "https://www.samvaerbar.dk/"}}, {"type": "node", "id": 9760524892, "lat": 55.6886588, "lon": 12.5622773, "tags": {"amenity": "bar", "check_date": "2023-05-14", "cocktails": "yes", "cuisine": "burger", "diet:vegan": "no", "diet:vegetarian": "yes", "drink:beer": "yes", "food": "yes", "fvst:navnelbnr": "1228843", "indoor_seating": "yes", "name": "Too Old To Die Young", "opening_hours": "12:00-24:00, Fr,Sa 12:00-02:00", "outdoor_seating": "yes", "phone": "+45 31737353", "ref:DK:cvr": "37987395", "ref:DK:cvr:pnummer": "1021725982", "website": "https://toooldtodieyoung.dk/ravnsborggade/"}}, {"type": "node", "id": 9760636342, "lat": 55.670982, "lon": 12.558493, "tags": {"amenity": "bar", "fvst:navnelbnr": "989220", "name": "Luna Cocktailbar", "ref:DK:cvr": "38712853", "ref:DK:cvr:pnummer": "1027107237"}}, {"type": "node", "id": 9929512719, "lat": 55.6881536, "lon": 12.5605871, "tags": {"alt_name": "Midsommar Rooftop BBQ & Bar", "amenity": "bar", "fvst:navnelbnr": "1227929", "name": "Midsommar", "opening_hours": "Mo-Su 11:30-23:00", "ref:DK:cvr": "39157063", "ref:DK:cvr:pnummer": "1028121195", "seasonal": "summer", "website": "https://midsommar.dk"}}, {"type": "node", "id": 10055230052, "lat": 55.6789932, "lon": 12.570719, "tags": {"amenity": "bar", "cocktails": "yes", "email": "kbh@bar7.dk", "fvst:navnelbnr": "714366", "opening_hours": "We,Th,Sa 18:00-02:00; Fr 16:00-02:00", "outdoor_seating": "no", "phone": "+45 31 73 73 64", "ref:DK:cvr": "38631578", "ref:DK:cvr:pnummer": "1022432628", "website": "http://www.bar7.dk/"}}, {"type": "node", "id": 10576125541, "lat": 55.6959561, "lon": 12.5440491, "tags": {"amenity": "bar", "fvst:navnelbnr": "1242858", "name": "Andra", "ref:DK:cvr": "43157027", "ref:DK:cvr:pnummer": "1028121802", "website": "http://andraeatery.dk"}}, {"type": "node", "id": 10691958839, "lat": 55.6635852, "lon": 12.5423259, "tags": {"alt_name": "Hos Rune Bottle shop", "amenity": "bar", "changing_table": "yes", "fvst:navnelbnr": "1252997", "indoor_seating": "yes", "name": "Hos Rune", "opening_hours": "Tu 13:00-18:00; We,Th 13:00-19:00; Fr,Sa 12:00-21:00; Su,Mo off", "outdoor_seating": "yes", "ref:DK:cvr": "43213083", "ref:DK:cvr:pnummer": "1028192777", "smoking": "outside", "toilets": "yes", "toilets:access": "customers"}}, {"type": "node", "id": 10722048056, "lat": 55.68005, "lon": 12.548711, "tags": {"amenity": "bar", "fvst:navnelbnr": "1227750", "name": "Rascal", "opening_hours": "16:00-23:00; Fr-Sa 15:00-24:00; Su-Mo off", "ref:DK:cvr": "43096958", "ref:DK:cvr:pnummer": "1028047122", "website": "https://rascalcph.dk/"}}, {"type": "node", "id": 10744240482, "lat": 55.6705675, "lon": 12.5364019, "tags": {"amenity": "bar", "fvst:navnelbnr": "1229250", "name": "Vespa Vinbar", "ref:DK:cvr": "43032208"}}, {"type": "node", "id": 10773790539, "lat": 55.6907238, "lon": 12.534418, "tags": {"access": "private", "amenity": "bar", "description": "Studiebaren p\u00e5 Metropols socialr\u00e5dgiver uddannelse.", "fvst:navnelbnr": "1146360", "name": "Varmestuen PH Metropol", "ref:DK:cvr": "34777462", "ref:DK:cvr:pnummer": "1018318756"}}, {"type": "node", "id": 10790371330, "lat": 55.6787418, "lon": 12.5675146, "tags": {"amenity": "bar", "cuisine": "cocktails", "fvst:navnelbnr": "1221668", "name": "Gaia Cocktails", "ref:DK:cvr": "42950254", "ref:DK:cvr:pnummer": "1027867940"}}, {"type": "node", "id": 10790585416, "lat": 55.679382, "lon": 12.574895, "tags": {"amenity": "bar", "fvst:navnelbnr": "1276910", "name": "Statler & Waldorf - Lukes", "ref:DK:cvr": "42149837", "ref:DK:cvr:pnummer": "1026833457"}}, {"type": "node", "id": 10790595109, "lat": 55.6837853, "lon": 12.571729, "tags": {"amenity": "bar", "fvst:navnelbnr": "1251571", "level": "6", "name": "Level six Bar", "ref:DK:cvr": "12596774", "ref:DK:cvr:pnummer": "1025614999"}}, {"type": "node", "id": 10807009231, "lat": 55.6768422, "lon": 12.561147, "tags": {"amenity": "bar", "fvst:navnelbnr": "1256760", "name": "Kolme", "ref:DK:cvr": "32560709", "ref:DK:cvr:pnummer": "1028661998", "website": "https://www.kolmekbh.dk/"}}, {"type": "node", "id": 10807087539, "lat": 55.6789488, "lon": 12.5707286, "tags": {"amenity": "bar", "drink:cocktails": "yes", "fvst:navnelbnr": "714366", "name": "Bar 7", "opening_hours": "18:00-02:00 , Fr 16:00-04:00, Sa 18:00-04:00, Su-We off", "phone": "+45 31737364", "ref:DK:cvr": "38631578", "ref:DK:cvr:pnummer": "1022432628", "website": "https://bar7.dk/"}}, {"type": "node", "id": 10808075090, "lat": 55.6863168, "lon": 12.5505493, "tags": {"amenity": "bar", "fvst:navnelbnr": "1278864", "name": "Bootleggers N\u00f8rrebro", "ref:DK:cvr": "43465279", "ref:DK:cvr:pnummer": "1028513506"}}, {"type": "node", "id": 10809180284, "lat": 55.6676262, "lon": 12.54848, "tags": {"amenity": "bar", "fvst:navnelbnr": "1269032", "name": "Bar 109 Vesterbro", "ref:DK:cvr": "43278711", "ref:DK:cvr:pnummer": "1028273289"}}, {"type": "node", "id": 10828202003, "lat": 55.6738027, "lon": 12.5708164, "tags": {"amenity": "bar", "fvst:navnelbnr": "1255553", "name": "Viftens Gl\u00f8gghus", "ref:DK:cvr": "10404916", "ref:DK:cvr:pnummer": "1002894451", "seasonal": "christmas"}}, {"type": "node", "id": 10839411811, "lat": 55.6705723, "lon": 12.5582469, "tags": {"amenity": "bar", "fvst:navnelbnr": "1284616", "name": "Sangu Meu", "ref:DK:cvr": "32588735", "ref:DK:cvr:pnummer": "1027792010"}}, {"type": "node", "id": 10839411812, "lat": 55.670575, "lon": 12.558256, "tags": {"amenity": "bar", "cuisine": "charcuterie", "drink:wine": "yes", "fvst:navnelbnr": "1279297", "name": "Vesterhus Wine & Charcuterie", "opening_hours": "15:30-23:00 ; Fr-Sa 15:30-24:00 ; Su-Mo off", "phone": "+45 30143099", "ref:DK:cvr": "43552953", "ref:DK:cvr:pnummer": "1028628222", "website": "https://vesterhus.dk/"}}, {"type": "node", "id": 10839839384, "lat": 55.6742587, "lon": 12.5591944, "tags": {"amenity": "bar", "description": "champagnebar", "drink:champagne": "yes", "fvst:navnelbnr": "1249800", "name": "Tirage Champagne Bar", "opening_hours": "16:00-22:00; Fr-Sa 15:00-24:00; Su 15:00-22:00", "phone": "+45 60590957", "ref:DK:cvr": "43108999", "ref:DK:cvr:pnummer": "1028061478", "website": "https://tiragechampagnebar.com/"}}, {"type": "node", "id": 10909125992, "lat": 55.6938799, "lon": 12.5610211, "tags": {"amenity": "bar", "fvst:navnelbnr": "1281513", "name": "Bredo", "opening_hours": "15:00-24:00; Mo off", "phone": "+45 93800832", "ref:DK:cvr": "43705504", "ref:DK:cvr:pnummer": "1028832997", "website": "https://bredocph.dk/"}}, {"type": "node", "id": 10911741232, "lat": 55.6701802, "lon": 12.545563, "tags": {"amenity": "bar", "drink:beer": "yes", "fvst:navnelbnr": "1271531", "name": "\u00d8lmand", "opening_hours": "15:00-22:00; Th 15:00-23:00; Fr-Sa 15:00-24:00; Su-Mo off", "ref:DK:cvr": "42151130", "ref:DK:cvr:pnummer": "1026834917", "shop": "alcohol", "website": "https://oelmand.dk/"}}, {"type": "node", "id": 10918330243, "lat": 55.6651172, "lon": 12.5332675, "tags": {"amenity": "bar", "fvst:navnelbnr": "1277019", "name": "Liquo", "ref:DK:cvr": "43227106", "ref:DK:cvr:pnummer": "1028208576", "website": "https://www.carlsbergbyen.dk/spisesteder/liquo"}}, {"type": "node", "id": 10918330250, "lat": 55.6789247, "lon": 12.5706335, "tags": {"amenity": "bar", "drink:cocktail": "yes", "fvst:navnelbnr": "1280195", "name": "Side Hustle", "opening_hours": "09:00-24:00, Fr-Sa 09:00-02:00, Su off", "phone": "+45 40500606", "ref:DK:cvr": "43832646", "ref:DK:cvr:pnummer": "1029001851", "website": "https://www.cafesidehustle.dk/"}}, {"type": "way", "id": 324488860, "nodes": [3312007936, 3529010440, 3312007937, 2338189065, 2338189050, 2338189077, 2338189058, 3312007936], "tags": {"amenity": "bar", "building": "yes", "fvst:navnelbnr": "516689", "internet_access": "wlan", "internet_access:ssid": "Lidkoeb-Guest", "name": "Lidk\u00f8b", "opening_hours": "16:00-02:00; Su 20:00-02:00", "phone": "+45 33112010", "ref:DK:cvr": "33955820", "ref:DK:cvr:pnummer": "1017162396", "website": "http://lidkoeb.dk/"}}]}