{"version": 0.6, "generator": "Overpass API 0.7.60.2 e4cf9f7a", "osm3s": {"timestamp_osm_base": "2023-05-24T08:04:00Z", "copyright": "The data included in this document is from www.openstreetmap.org. The data is made available under ODbL."}, "elements": [{"type": "node", "id": 25440922, "lat": 55.6834082, "lon": 12.5651843, "tags": {"amenity": "pub", "fvst:navnelbnr": "1253893", "name": "Banker\u00e5t", "opening_hours": "Mo-Fr 09:30-24:00;Sa-Su 10:30-24:00", "opening_hours:url": "https://www.facebook.com/bankeraat/info", "phone": "+45 33 93 69 88", "ref:DK:cvr": "41544988", "ref:DK:cvr:pnummer": "1028568971", "smoking": "no", "website": "http://www.bankeraat.dk", "wheelchair": "no"}}, {"type": "node", "id": 25869217, "lat": 55.6864894, "lon": 12.5874331, "tags": {"amenity": "bar", "check_date": "2023-05-11", "fvst:navnelbnr": "501959", "indoor_seating": "yes", "name": "Black Swan", "note": "Beer bar, 14 taps.", "opening_hours": "Mo-We,Su 15:00-01:00; Th 15:00-02:00; Fr-Sa 14:00-02:00", "outdoor_seating": "yes", "ref:DK:cvr": "33947178", "ref:DK:cvr:pnummer": "1017132365", "smoking": "outside", "toilets:wheelchair": "no", "website": "http://www.blackswanbar.dk/", "wheelchair": "no"}}, {"type": "node", "id": 26053041, "lat": 55.6736632, "lon": 12.5921433, "tags": {"amenity": "pub", "fvst:navnelbnr": "113481", "name": "Caf\u00e9 St\u00e6rkodder", "ref:DK:cvr": "27087957", "ref:DK:cvr:pnummer": "1010161335", "wheelchair": "limited", "wikidata": "Q21710338"}}, {"type": "node", "id": 279472194, "lat": 55.6763998, "lon": 12.5733293, "tags": {"amenity": "bar", "facebook": "https://www.facebook.com/dropinnmusic/", "fvst:navnelbnr": "795821", "name": "Drop Inn", "opening_hours": "Mo,Tu 14:00-24:00, We,Th 14:00-02:00, Fr,Sa 14:00-03:00; Su off", "outdoor_seating": "yes", "phone": "+45 33112404", "ref:DK:cvr": "38578553", "ref:DK:cvr:pnummer": "1022372145", "toilets": "yes", "website": "https://drop-inn.dk/", "wheelchair": "limited"}}, {"type": "node", "id": 279690426, "lat": 55.6782361, "lon": 12.5668224, "tags": {"amenity": "pub", "facebook": "https://www.facebook.com/pubogsport/", "fvst:navnelbnr": "112682", "name": "Pub & Sport", "opening_hours": "Mo-Th 16:00-01:00, Fr 15:00-03:00,Sa 13:00-03:00,Su 14:00-23:00", "phone": "+45 33150810", "ref:DK:cvr": "28323565", "ref:DK:cvr:pnummer": "1011061059", "website": "http://www.pubogsport.dk", "wheelchair": "limited"}}, {"type": "node", "id": 280790084, "lat": 55.677942, "lon": 12.5768752, "tags": {"amenity": "pub", "fvst:navnelbnr": "114203", "name": "Lord Nelson", "name:es": "Lord Nelson Bar", "opening_hours": "Mo 15:30-24:00, Tu-We 15:30-02:00, Th 15:30-03:00, Fr 15:00-05:00, Sa 14:00-05:00", "phone": "+45 33 93 93 94", "ref:DK:cvr": "28712057", "ref:DK:cvr:pnummer": "1011345367", "website": "http://www.lordnelson.dk"}}, {"type": "node", "id": 280790473, "lat": 55.6786922, "lon": 12.5732662, "tags": {"amenity": "pub", "fvst:navnelbnr": "117090", "name": "Charlie Scotts", "ref:DK:cvr": "29838593", "ref:DK:cvr:pnummer": "1012533914", "toilets": "yes"}}, {"type": "node", "id": 280809193, "lat": 55.6691735, "lon": 12.5802893, "tags": {"amenity": "pub", "fvst:navnelbnr": "721054", "name": "Cafe Langebro", "opening_hours": "Mo-Th 11:00-02:00, Fr-Sa 11:00-03:00, Su 11:00-20:00", "phone": "+45 32 95 85 91", "ref:DK:cvr": "27040365", "ref:DK:cvr:pnummer": "1000441581", "website": "http://cafelangebro.dk"}}, {"type": "node", "id": 281062886, "lat": 55.681009, "lon": 12.5806605, "tags": {"amenity": "pub", "fvst:navnelbnr": "555264", "name": "Zoo Bar", "opening_hours": "Th-Sa 20:00-05:00", "ref:DK:cvr": "34617775", "ref:DK:cvr:pnummer": "1017953679", "website": "https://www.zoocopenhagen.dk/", "wheelchair": "limited"}}, {"type": "node", "id": 281063017, "lat": 55.6806132, "lon": 12.5802876, "tags": {"amenity": "pub", "fvst:name": "Cafe CharlieS", "fvst:navnelbnr": "111222", "name": "Charlie's Bar", "ref:DK:cvr": "25091930", "smoking": "no", "wheelchair": "no"}}, {"type": "node", "id": 281063934, "lat": 55.680579, "lon": 12.588872, "tags": {"amenity": "bar", "fvst:navnelbnr": "112601", "name": "Klods Hans", "phone": "+45 33339091", "ref:DK:cvr": "21539244", "ref:DK:cvr:pnummer": "1005005370", "wheelchair": "limited"}}, {"type": "node", "id": 281539863, "lat": 55.6759526, "lon": 12.567219, "tags": {"amenity": "pub", "fvst:navnelbnr": "115440", "name": "The Scottish Pub", "opening_hours": "Mo-Th 12:00-03:00; Fr-Sa 12:00-05:00; Su 12:00-02:00", "phone": "+4533159243", "ref:DK:cvr": "20288132", "ref:DK:cvr:pnummer": "1004222759", "website": "https://thescottishpub.dk/", "wheelchair": "yes"}}, {"type": "node", "id": 281787637, "lat": 55.6771072, "lon": 12.5694984, "tags": {"amenity": "pub", "fvst:name": "Brew Pub K\u00f8benhavn, Bryggeri", "fvst:navnelbnr": "116483", "microbrewery": "yes", "name": "Brew Pub", "ref:DK:cvr": "28110324", "ref:DK:cvr:pnummer": "1010771060", "smoking": "no", "website": "https://brewpub.dk"}}, {"type": "node", "id": 281998525, "lat": 55.6864556, "lon": 12.5579695, "tags": {"amenity": "bar", "fvst:navnelbnr": "567872", "internet_access": "wlan", "name": "Bl\u00e5g\u00e5rds Apotek", "opening_hours": "Mo-Th 14:00-02:00, Fr-Su 12:00-02:00", "ref:DK:cvr": "31896738", "ref:DK:cvr:pnummer": "1014980128", "website": "http://kroteket.dk/"}}, {"type": "node", "id": 300410990, "lat": 55.6810855, "lon": 12.5804647, "tags": {"amenity": "bar", "fvst:navnelbnr": "1260181", "name": "The Moose", "ref:DK:cvr": "43370545", "ref:DK:cvr:pnummer": "1028388280", "smoking": "yes", "website": "https://www.themoosebar.dk/"}}, {"type": "node", "id": 313730277, "lat": 55.6740554, "lon": 12.5916958, "tags": {"amenity": "bar", "fvst:navnelbnr": "111916", "name": "Eiffel Bar", "ref:DK:cvr": "26110580", "ref:DK:cvr:pnummer": "1008523998", "smoking": "yes", "wheelchair": "no"}}, {"type": "node", "id": 316122207, "lat": 55.6814563, "lon": 12.5495147, "tags": {"amenity": "pub", "fvst:navnelbnr": "955287", "name": "Bodega 48", "ref:DK:cvr": "36152680"}}, {"type": "node", "id": 413370338, "lat": 55.6810813, "lon": 12.5798685, "tags": {"alt_name": "Sjus", "amenity": "bar", "fvst:navnelbnr": "119840", "name": "Sjus Bar", "ref:DK:cvr": "31374057", "website": "https://sjusbar.dk/"}}, {"type": "node", "id": 428734579, "lat": 55.6809434, "lon": 12.5739275, "tags": {"amenity": "pub", "fvst:navnelbnr": "111501", "name": "Caf\u00e9 Halvvejen", "outdoor_seating": "yes", "phone": "+45 33119112", "ref:DK:cvr": "34483795", "ref:DK:cvr:pnummer": "1017639249", "smoking": "yes", "website": "http://www.cafehalvvejen.dk/", "wheelchair": "no"}}, {"type": "node", "id": 515718720, "lat": 55.6821362, "lon": 12.574042, "tags": {"amenity": "pub", "fvst:navnelbnr": "923994", "indoor_seating": "yes", "name": "Hvide Lam", "opening_hours": "Mo-We 11:00+; Su,PH 12:00+", "outdoor_seating": "yes", "ref:DK:cvr": "31625246", "ref:DK:cvr:pnummer": "1025167747", "smoking": "yes", "website": "https://hvide-lam.dk/", "wikidata": "Q27235433"}}, {"type": "node", "id": 674047419, "lat": 55.6679147, "lon": 12.5563801, "tags": {"alt_name": "Fermentoren Beer Bar", "amenity": "bar", "fvst:navnelbnr": "543448", "internet_access": "wlan", "name": "Fermentoren", "opening_hours": "Mo-We 15:00-24:00; Th 14:00-01:00; Fr-Sa 14:00-02:00; Su 14:00-24:00", "outdoor_seating": "yes", "payment:credit_cards": "yes", "phone": "+45 23908677", "ref:DK:cvr": "33866569", "ref:DK:cvr:pnummer": "1017045586", "website": "http://www.fermentoren.com"}}, {"type": "node", "id": 674777891, "lat": 55.6660602, "lon": 12.5535057, "tags": {"amenity": "bar", "brewery": "Tuborg;Carlsberg", "fvst:navnelbnr": "1250443", "indoor_seating": "yes", "internet_access": "wlan", "name": "Bar 33 Vesterbro", "old_name": "Cafe 33", "opening_hours": "Fr,Sa 11:00-02:00, Su-Th 11:00-24:00", "outdoor_seating": "yes", "phone": "+45 25 55 55 25", "ref:DK:cvr": "43278770", "ref:DK:cvr:pnummer": "1028273505", "website": "https://bar33.dk/"}}, {"type": "node", "id": 674852970, "lat": 55.6672208, "lon": 12.553453, "tags": {"amenity": "bar", "branch": "Vesterbro", "check_date": "2021-08-03", "fvst:navnelbnr": "992119", "indoor_seating": "yes", "name": "Caf\u00e9 42", "outdoor_seating": "yes", "phone": "+45 33316066", "ref:DK:cvr": "41627581", "ref:DK:cvr:pnummer": "1026200292", "website": "https://bar42.dk/"}}, {"type": "node", "id": 676009938, "lat": 55.6683619, "lon": 12.5501454, "tags": {"amenity": "bar", "fvst:navnelbnr": "118681", "name": "Mc Kluud", "opening_hours": "14:00-02:00", "phone": "+45 33316383", "ref:DK:cvr": "28317212", "ref:DK:cvr:pnummer": "1001966636", "smoking": "isolated", "website": "http://www.mckluud.dk/", "wheelchair": "no"}}, {"type": "node", "id": 683139428, "lat": 55.6676075, "lon": 12.548428, "tags": {"amenity": "bar", "check_date": "2023-04-04", "fvst:navnelbnr": "114369", "name": "Caf\u00e8 Blomsten", "phone": "+45 33213502", "ref:DK:cvr": "25637607", "ref:DK:cvr:pnummer": "1007931863", "smoking": "separated"}}, {"type": "node", "id": 683141422, "lat": 55.6692729, "lon": 12.5496981, "tags": {"alt_name": "Riesen Bar", "amenity": "bar", "check_date": "2023-04-10", "fvst:navnelbnr": "117982", "name": "Riesen", "ref:DK:cvr": "27931294", "wheelchair": "no"}}, {"type": "node", "id": 683192044, "lat": 55.6675503, "lon": 12.5553934, "tags": {"amenity": "pub", "email": "kontakt@cafegrotten.dk", "fvst:navnelbnr": "988049", "indoor_seating": "yes", "name": "Caf\u00e9 Grotten", "opening_hours": "Mo-We 10:00-02:00, Th-Sa 10:00-05:00", "outdoor_seating": "yes", "phone": "+45 33218551", "ref:DK:cvr": "42247642", "ref:DK:cvr:pnummer": "1026958489", "website": "http://www.cafegrotten.dk/"}}, {"type": "node", "id": 687312669, "lat": 55.6772854, "lon": 12.5693007, "tags": {"amenity": "bar", "fvst:navnelbnr": "118492", "name": "Caf\u00e8 Guldhornene", "payment:bitcoin": "yes", "ref:DK:cvr": "31933307", "ref:DK:cvr:pnummer": "1017064254"}}, {"type": "node", "id": 687313455, "lat": 55.6773855, "lon": 12.5694568, "tags": {"amenity": "bar", "fvst:navnelbnr": "115897", "name": "Heidi's Bier Bar", "payment:bitcoin": "yes", "ref:DK:cvr": "27647952", "ref:DK:cvr:pnummer": "1010459180", "website": "https://www.heidisbierbar.dk"}}, {"type": "node", "id": 687314560, "lat": 55.6779133, "lon": 12.5705635, "tags": {"amenity": "bar", "fvst:name": "THE AUSTRALIAN BAR K\u00d8BENHAVN", "fvst:navnelbnr": "112416", "name": "The Australien Bar", "ref:DK:cvr": "17890670", "ref:DK:cvr:pnummer": "1015169296", "website": "https://www.abar.dk/"}}, {"type": "node", "id": 687314916, "lat": 55.6779717, "lon": 12.5707085, "tags": {"amenity": "bar", "fvst:navnelbnr": "661116", "name": "La Boucherie", "ref:DK:cvr": "35043519", "ref:DK:cvr:pnummer": "1018333305"}}, {"type": "node", "id": 687796690, "lat": 55.6822933, "lon": 12.5804369, "tags": {"amenity": "bar", "fvst:navnelbnr": "735352", "name": "Trykbar", "ref:DK:cvr": "39127946", "ref:DK:cvr:pnummer": "1023081624"}}, {"type": "node", "id": 698514092, "lat": 55.6730196, "lon": 12.5597708, "tags": {"amenity": "pub", "fvst:navnelbnr": "118919", "name": "City Pub", "opening_hours": "Su-Tu 16:00-24:00, We,Th 16:00-01:00, Fr,Su 14:00-02:00", "ref:DK:cvr": "31602858", "ref:DK:cvr:pnummer": "1014573034", "wheelchair": "no"}}, {"type": "node", "id": 698796999, "lat": 55.668674, "lon": 12.5565742, "tags": {"alt_name": "St. Pauli 54", "amenity": "bar", "fvst:navnelbnr": "1253868", "name": "St. Pauli Minibar", "phone": "+45 33316527", "ref:DK:cvr": "40403981", "ref:DK:cvr:pnummer": "1024571927"}}, {"type": "node", "id": 698800833, "lat": 55.6696351, "lon": 12.5582526, "tags": {"amenity": "bar", "fvst:navnelbnr": "662590", "indoor_seating": "yes", "name": "Freddys Bar", "outdoor_seating": "yes", "phone": "+45 33227095", "ref:DK:cvr": "28658532", "ref:DK:cvr:pnummer": "1012400221", "wheelchair": "no"}}, {"type": "node", "id": 698801245, "lat": 55.6702253, "lon": 12.5580263, "tags": {"amenity": "bar", "fvst:navnelbnr": "112271", "indoor_seating": "yes", "name": "Hos Tove", "outdoor_seating": "yes", "phone": "+45 33243782", "ref:DK:cvr": "18523175", "ref:DK:cvr:pnummer": "1003468458", "wheelchair": "no"}}, {"type": "node", "id": 704974846, "lat": 55.6864665, "lon": 12.5500587, "tags": {"amenity": "bar", "fvst:navnelbnr": "577983", "name": "Tjili Pop 2", "opening_hours": "Su,Mo 09:00-01:00, Tu,We 09:00-02:00, Th 09:00-03:00, Fr,Sa 09:00-04:00", "ref:DK:cvr": "29550964", "ref:DK:cvr:pnummer": "1004630426", "website": "https://www.tjili.dk/", "wheelchair": "no", "wikidata": "Q18552345"}}, {"type": "node", "id": 724002862, "lat": 55.6758158, "lon": 12.6000522, "tags": {"amenity": "bar", "check_date": "2023-05-18", "name": "Cafe H\u00f8vlen", "ref:DK:cvr": "36502312", "ref:DK:cvr:pnummer": "1020100725", "smoking": "no", "sport": "billiards", "wheelchair": "no"}}, {"type": "node", "id": 724350527, "lat": 55.6723347, "lon": 12.5498081, "tags": {"amenity": "pub", "fvst:navnelbnr": "796827", "name": "Caf\u00e9 Guldregn", "ref:DK:cvr": "21848476", "ref:DK:cvr:pnummer": "1005251062", "website": "http://www.cafe-guldregn.dk/"}}, {"type": "node", "id": 727436488, "lat": 55.6721637, "lon": 12.5636709, "tags": {"amenity": "bar", "contact:phone": "+45 33216090", "fvst:navnelbnr": "113401", "name": "Jernbanecafeen", "ref:DK:cvr": "17125273", "ref:DK:cvr:pnummer": "1001227682", "website": "http://www.jernbanecafeen.dk/", "wheelchair": "no", "wikidata": "Q23596044"}}, {"type": "node", "id": 727630351, "lat": 55.6736355, "lon": 12.5906539, "tags": {"amenity": "pub", "fvst:name": "Rest. Fingerb\u00f8llet", "fvst:navnelbnr": "111923", "name": "Fingerb\u00f8llet", "ref:DK:cvr": "86351811", "website": "http://www.fingerboellet.dk", "wheelchair": "yes"}}, {"type": "node", "id": 727708821, "lat": 55.6719928, "lon": 12.5905788, "tags": {"amenity": "pub", "fvst:navnelbnr": "670165", "name": "Kanal Bodega", "ref:DK:cvr": "31665213", "ref:DK:cvr:pnummer": "1014745951", "wheelchair": "no"}}, {"type": "node", "id": 727708837, "lat": 55.6711746, "lon": 12.5924079, "tags": {"amenity": "pub", "fvst:navnelbnr": "114984", "name": "Kafe Falken", "ref:DK:cvr": "29430705", "ref:DK:cvr:pnummer": "1000392364"}}, {"type": "node", "id": 735030034, "lat": 55.6740877, "lon": 12.5513488, "tags": {"amenity": "pub", "fvst:navnelbnr": "114373", "name": "Larsen's Plaz", "ref:DK:cvr": "18958899", "ref:DK:cvr:pnummer": "1009849625", "wheelchair": "no"}}, {"type": "node", "id": 736564703, "lat": 55.6696331, "lon": 12.5544432, "tags": {"alt_name": "Skipper Bodega", "amenity": "pub", "contact:phone": "+45 33 31 84 76", "fvst:navnelbnr": "112401", "indoor_seating": "yes", "name": "Skippers Bodega", "outdoor_seating": "yes", "ref:DK:cvr": "34445060", "ref:DK:cvr:pnummer": "1017586684", "smoking": "yes", "wheelchair": "no"}}, {"type": "node", "id": 737887225, "lat": 55.6688571, "lon": 12.5487739, "tags": {"amenity": "pub", "fvst:navnelbnr": "574833", "name": "Caf\u00e9 Erik", "ref:DK:cvr": "29942552", "ref:DK:cvr:pnummer": "1018451251"}}, {"type": "node", "id": 746251105, "lat": 55.6675771, "lon": 12.5780731, "tags": {"amenity": "bar", "fvst:navnelbnr": "112526", "name": "Caf\u00e9 Haraldsborg", "opening_hours": "Mo-Su 10:00-02:00", "phone": "+45 32 54 69 02", "ref:DK:cvr": "18021102", "ref:DK:cvr:pnummer": "1002973532"}}, {"type": "node", "id": 746251544, "lat": 55.6678361, "lon": 12.5785286, "tags": {"amenity": "bar", "fvst:navnelbnr": "113152", "name": "Isbj\u00f8rnen", "phone": "+45 32 96 96 40", "ref:DK:cvr": "20634596", "ref:DK:cvr:pnummer": "1000415388"}}, {"type": "node", "id": 746302702, "lat": 55.6690764, "lon": 12.5500661, "tags": {"alt_name": "Bodega Det lille \u00d8resund", "amenity": "bar", "check_date": "2023-04-10", "fvst:navnelbnr": "712408", "name": "Det Lille \u00d8resund", "ref:DK:cvr": "33665253", "smoking": "yes", "wheelchair": "no"}}, {"type": "node", "id": 818683303, "lat": 55.6812668, "lon": 12.5645148, "tags": {"amenity": "pub", "fvst:navnelbnr": "658921", "name": "\u00d8rsted \u00d8lbar & Cafe", "ref:DK:cvr": "36717009", "ref:DK:cvr:pnummer": "1020328815", "website": "https://oerstedoelbar.dk/", "wheelchair": "no"}}, {"type": "node", "id": 818898743, "lat": 55.6719575, "lon": 12.5575483, "tags": {"amenity": "bar", "contact:instagram": "https://www.instagram.com/mikkellerbarvik", "fvst:navnelbnr": "576202", "min_age": "18", "name": "Mikkeller Bar Viktoriagade", "opening_hours": "Mo-Th 14:00-23:00; Fr 14:00-00:00; Sa 12:00-00:00; Su 14:00-22:00", "phone": "+45 33310415", "ref:DK:cvr": "32297757", "ref:DK:cvr:pnummer": "1019053373", "website": "https://mikkeller.com/locations/mikkeller-viktoriagade", "wheelchair": "no"}}, {"type": "node", "id": 870440497, "lat": 55.6736923, "lon": 12.5560021, "tags": {"amenity": "bar", "fvst:name": "Kennedys irish Bar A Kennedy & T Tynan", "fvst:navnelbnr": "111889", "name": "Kennedys Irish Bar", "opening_hours": "Mo-Su 12:00-02:00", "phone": "+45 33315249", "ref:DK:cvr": "25715640", "ref:DK:cvr:pnummer": "1008021429", "wheelchair": "no"}}, {"type": "node", "id": 888340138, "lat": 55.673194, "lon": 12.5612145, "tags": {"alt_name": "Scandic Cube Cafe", "amenity": "bar", "check_date": "2023-04-02", "fvst:navnelbnr": "116204", "name": "Cube", "operator": "Scandic Webers", "phone": "+45 33311432", "ref:DK:cvr": "12596774", "wheelchair": "no"}}, {"type": "node", "id": 893959430, "lat": 55.6754287, "lon": 12.5644398, "tags": {"amenity": "bar", "fvst:navnelbnr": "510638", "name": "Axelborg Bodega", "opening_hours": "11:00-16:00,16:00+", "phone": "+45 33110638", "ref:DK:cvr": "34216444", "ref:DK:cvr:pnummer": "1017432954", "website": "http://www.axelborgbodega.dk/", "wheelchair": "no"}}, {"type": "node", "id": 893968817, "lat": 55.6764611, "lon": 12.5713541, "tags": {"amenity": "bar", "fvst:navnelbnr": "114140", "name": "Villa Vino", "ref:DK:cvr": "27509894", "ref:DK:cvr:pnummer": "1003186208"}}, {"type": "node", "id": 893993391, "lat": 55.6779554, "lon": 12.5807439, "tags": {"alt_name": "Kirstens Cocktail - og Vinbar", "amenity": "bar", "fvst:navnelbnr": "113255", "name": "K Cocktailbar", "opening_hours": "16:00-02:00; Su off", "ref:DK:cvr": "26677637", "ref:DK:cvr:pnummer": "1009190097", "wheelchair": "no"}}, {"type": "node", "id": 894227347, "lat": 55.6789623, "lon": 12.5910624, "tags": {"amenity": "bar", "fvst:navnelbnr": "665473", "name": "Caf\u00e9 M\u00f8nten", "opening_hours": "Mo-Sa 10:00-24:00", "phone": "+45 33152000", "ref:DK:cvr": "37975524", "ref:DK:cvr:pnummer": "1021827041"}}, {"type": "node", "id": 895776321, "lat": 55.6754762, "lon": 12.5662861, "tags": {"amenity": "pub", "branch": "Vesterbrogade", "brand": "The Old Irish Pub", "fvst:navnelbnr": "749035", "name": "The Old Irish Pub Vesterbrogade", "phone": "+45 51 26 84 97", "ref:DK:cvr": "35028692", "ref:DK:cvr:pnummer": "1023454013", "website": "https://oldirishpub.dk/", "wheelchair": "no"}}, {"type": "node", "id": 895777978, "lat": 55.6755287, "lon": 12.5664591, "tags": {"amenity": "pub", "fvst:navnelbnr": "111291", "name": "The Old English Pub", "ref:DK:cvr": "15699345", "ref:DK:cvr:pnummer": "1002974400", "source": "Kaart Ground Survey 2017", "wheelchair": "limited"}}, {"type": "node", "id": 898920410, "lat": 55.6815566, "lon": 12.5842922, "tags": {"access:covid19": "no", "amenity": "bar", "fvst:navnelbnr": "1115608", "name": "Natcafeen", "ref:DK:cvr": "39911116", "ref:DK:cvr:pnummer": "1024008947", "website": "https://natcafeen.dk/"}}, {"type": "node", "id": 898930207, "lat": 55.6821592, "lon": 12.5822351, "tags": {"amenity": "bar", "fvst:navnelbnr": "114335", "name": "Andy's Bar", "opening_hours": "16:00+;Fr 14:00+", "phone": "+45 33120646", "ref:DK:cvr": "34737398", "ref:DK:cvr:pnummer": "1018068555", "smoking": "yes", "website": "https://andysbar.dk/", "wheelchair": "no"}}, {"type": "node", "id": 898933924, "lat": 55.6823061, "lon": 12.5816691, "tags": {"amenity": "bar", "fvst:navnelbnr": "114647", "name": "Cucaracha Bar", "ref:DK:cvr": "31625246", "ref:DK:cvr:pnummer": "1014786631", "wheelchair": "no"}}, {"type": "node", "id": 898939487, "lat": 55.6818705, "lon": 12.5825994, "tags": {"alt_name": "Basement Bar", "amenity": "bar", "fvst:navnelbnr": "119134", "name": "Basement", "ref:DK:cvr": "29838925", "wheelchair": "no"}}, {"type": "node", "id": 898941047, "lat": 55.6812694, "lon": 12.5810346, "tags": {"alt_name": "L.A. Tequila Bar", "amenity": "bar", "fvst:navnelbnr": "117312", "name": "LaBar", "ref:DK:cvr": "27048021", "website": "https://www.latequilabar.dk/byer/kobenhavn/", "wheelchair": "no"}}, {"type": "node", "id": 898950333, "lat": 55.6812502, "lon": 12.5794331, "tags": {"amenity": "bar", "fvst:navnelbnr": "113304", "name": "Cafe Rex", "opening_hours": "We 21:00-24:00; Th 00:00-03:00,21:00-24:00; Fr 00:00-03:00,18:00-24:00; Sa 00:00-05:00,22:00-24:00; Su 00:00-05:00", "phone": "+45 33 93 18 18", "ref:DK:cvr": "26780454", "ref:DK:cvr:pnummer": "1009313326", "shop": "alcohol", "website": "http://www.caferex.dk/"}}, {"type": "node", "id": 898951399, "lat": 55.6810096, "lon": 12.5786867, "tags": {"amenity": "bar", "fvst:navnelbnr": "113043", "name": "Bo-Bi Bar", "opening_hours": "Mo-Su 12:00-24:00", "ref:DK:cvr": "27989136", "ref:DK:cvr:pnummer": "1010726073"}}, {"type": "node", "id": 898953156, "lat": 55.6805487, "lon": 12.5771236, "tags": {"alt_name": "Hornsleth Bar", "amenity": "bar", "fvst:navnelbnr": "666955", "min_age": "23", "name": "Hornsleth", "opening_hours": "Fr-Sa 22:00-05:00", "phone": "+45 31737308", "ref:DK:cvr": "32141099", "ref:DK:cvr:pnummer": "1017108979", "website": "http://hornslethbar.dk/kobenhavn/"}}, {"type": "node", "id": 898964645, "lat": 55.6800207, "lon": 12.5746175, "tags": {"alt_name": "Surf Bar", "amenity": "bar", "fvst:navnelbnr": "117912", "name": "Den glade Gris", "ref:DK:cvr": "28515626", "ref:DK:cvr:pnummer": "1011226384"}}, {"type": "node", "id": 899019395, "lat": 55.671677, "lon": 12.5547467, "tags": {"amenity": "bar", "cuisine": "wine", "fvst:navnelbnr": "116093", "name": "Vinbaren Vesterbro Torv", "phone": "+45 21408527", "ref:DK:cvr": "18050285", "ref:DK:cvr:pnummer": "1015008055", "website": "http://vinbarenvesterbrotorv.dk/", "wheelchair": "no"}}, {"type": "node", "id": 899199394, "lat": 55.6644904, "lon": 12.5838891, "tags": {"amenity": "pub", "fvst:navnelbnr": "955186", "name": "Artillericafeen", "opening_hours": "Mo-Sa 10:00-02:00; Su off", "ref:DK:cvr": "18525739", "ref:DK:cvr:pnummer": "1025718883"}}, {"type": "node", "id": 978057337, "lat": 55.6837431, "lon": 12.56518, "tags": {"amenity": "bar", "fvst:navnelbnr": "114549", "name": "Bibendum", "opening_hours": "Mo-Th 17:00-23:00; Fr-Sa 16:00-23:00; Su off", "opening_hours:kitchen": "16:00-22:00; Su", "phone": "+45 33330774", "ref:DK:cvr": "26925142", "ref:DK:cvr:pnummer": "1009597197", "website": "https://bibendum.dk/", "wheelchair": "no"}}, {"type": "node", "id": 1200105789, "lat": 55.6880152, "lon": 12.5606456, "tags": {"amenity": "bar", "email": "cocktail@kassen.dk", "fvst:navnelbnr": "115544", "name": "Kassen", "opening_hours": "We 20:00-02:00; Th 20:00-03:00; Fr 16:00-04:00; Sa 20:00-04:00", "phone": "+4542572200", "ref:DK:cvr": "30987578", "ref:DK:cvr:pnummer": "1013740387", "website": "http://kassen.dk", "wheelchair": "limited"}}, {"type": "node", "id": 1305262264, "lat": 55.6876448, "lon": 12.5594632, "tags": {"amenity": "bar", "check_date": "2023-04-13", "diet:vegan": "yes", "diet:vegetarian": "yes", "name": "Harbo Bar", "opening_hours": "Mo-Th 08:30-00:00, Fr 08:30-02:00, Sa 09:30-02:00, Su 09:30-23:00"}}, {"type": "node", "id": 1324781959, "lat": 55.6787751, "lon": 12.5803397, "tags": {"amenity": "bar", "fvst:navnelbnr": "116955", "internet_access": "wlan", "name": "Toga Vinstue", "opening_hours": "Mo-We 14:00-03:00, Th 14:00-04:00, Fr 12:00-05:00, Sa 11:00-05:00, Su 16:00-22:00, Jan 1 off", "payment:bitcoin": "yes", "phone": "+45 33122126", "ref:DK:cvr": "33034342", "ref:DK:cvr:pnummer": "1016117656", "smoking": "yes", "website": "http://www.toga.dk/", "wikidata": "Q16324763", "wikipedia": "da:Toga Vinstue"}}, {"type": "node", "id": 1358980017, "lat": 55.6643102, "lon": 12.6032096, "tags": {"alt_name": "Jaguar Bodega", "amenity": "bar", "fvst:navnelbnr": "115280", "name": "Jaguaren", "ref:DK:cvr": "25524705", "wheelchair": "yes"}}, {"type": "node", "id": 1358983535, "lat": 55.664579, "lon": 12.604527, "tags": {"amenity": "pub", "fvst:navnelbnr": "525601", "name": "Bootleggers Craft Beer Bar", "opening_hours": "Mo-We 15:00-24:00, Th 15:00-01:00, Fr 14:00-02:00, Sa 13:00-02:00, Su 14:00-23:00", "phone": "+45 61776111", "smoking": "outside", "website": "https://www.facebook.com/bootamager/", "wheelchair": "limited"}}, {"type": "node", "id": 1439744394, "lat": 55.6738595, "lon": 12.5646995, "tags": {"amenity": "bar", "fvst:navnelbnr": "126382", "name": "Library Bar", "ref:DK:cvr": "32302610", "ref:DK:cvr:pnummer": "1016234822", "wheelchair": "yes"}}, {"type": "node", "id": 1443471679, "lat": 55.686467, "lon": 12.5876904, "tags": {"amenity": "bar", "fvst:navnelbnr": "721942", "name": "Borgerkroen", "ref:DK:cvr": "11929087", "ref:DK:cvr:pnummer": "1021908807", "smoking": "yes", "wheelchair": "no"}}, {"type": "node", "id": 1462189989, "lat": 55.6845001, "lon": 12.5674404, "tags": {"amenity": "bar", "check_date": "2023-05-19", "name": "Funchs Vinstue", "phone": "+45 33115445", "smoking": "yes", "website": "https://www.funchs55.com/"}}, {"type": "node", "id": 1462221515, "lat": 55.6839289, "lon": 12.5684807, "tags": {"amenity": "bar", "fvst:name": "Venato Funchs", "fvst:navnelbnr": "755637", "name": "Jagtstuen", "ref:DK:cvr": "38737635", "smoking": "yes", "wheelchair": "no"}}, {"type": "node", "id": 1463848266, "lat": 55.684931, "lon": 12.558795, "tags": {"amenity": "pub", "fvst:navnelbnr": "110838", "name": "Diligencen", "opening_hours": "Mo-Fr 08:00-24:00; Sa-Su 10:00-24:00", "ref:DK:cvr": "89744415", "ref:DK:cvr:pnummer": "1002825730", "wheelchair": "limited"}}, {"type": "node", "id": 1478802918, "lat": 55.6819408, "lon": 12.5634756, "tags": {"amenity": "pub", "fvst:navnelbnr": "117246", "name": "Caf\u00e9 Stjernen", "ref:DK:cvr": "29208263", "ref:DK:cvr:pnummer": "1012115810"}}, {"type": "node", "id": 1497198641, "lat": 55.6812131, "lon": 12.5837207, "tags": {"amenity": "bar", "fvst:navnelbnr": "526791", "name": "Pal\u00e6 Bar", "ref:DK:cvr": "29732469", "ref:DK:cvr:pnummer": "1012555527"}}, {"type": "node", "id": 1497201304, "lat": 55.6817658, "lon": 12.5837032, "tags": {"amenity": "bar", "fvst:navnelbnr": "119026", "name": "Da Vinci", "ref:DK:cvr": "29326703", "ref:DK:cvr:pnummer": "1012032966", "wheelchair": "no"}}, {"type": "node", "id": 1590786486, "lat": 55.6780616, "lon": 12.5824889, "tags": {"amenity": "pub", "fvst:navnelbnr": "111238", "name": "Cafe Nick", "ref:DK:cvr": "18018543", "ref:DK:cvr:pnummer": "1001412709", "wikidata": "Q21855744"}}, {"type": "node", "id": 1591124412, "lat": 55.682421, "lon": 12.571505, "tags": {"amenity": "bar", "fvst:navnelbnr": "551146", "name": "N\u00f8rreport Bodega", "ref:DK:cvr": "35654305", "ref:DK:cvr:pnummer": "1019100231"}}, {"type": "node", "id": 1595066426, "lat": 55.6644556, "lon": 12.598079, "tags": {"amenity": "pub", "fvst:navnelbnr": "1120264", "name": "Lassie Bar", "ref:DK:cvr": "40975829", "ref:DK:cvr:pnummer": "1025287114"}}, {"type": "node", "id": 1596733408, "lat": 55.6781756, "lon": 12.5686176, "tags": {"amenity": "bar", "fvst:navnelbnr": "671045", "name": "Masken Bar", "ref:DK:cvr": "28861524", "ref:DK:cvr:pnummer": "1011517451"}}, {"type": "node", "id": 1596735570, "lat": 55.6783036, "lon": 12.568967, "tags": {"amenity": "bar", "fvst:navnelbnr": "501284", "name": "The Log Lady", "ref:DK:cvr": "33346549", "ref:DK:cvr:pnummer": "1016639458", "wheelchair": "no"}}, {"type": "node", "id": 1596737699, "lat": 55.6786141, "lon": 12.5693401, "tags": {"amenity": "bar", "email": "info@atlasbar.dk", "fvst:navnelbnr": "111874", "internet_access": "wlan", "level": "-1", "min_age": "0", "name": "Atlas Bar", "opening_hours": "12:00-22:00", "phone": "+4533150352", "ref:DK:cvr": "12874774", "ref:DK:cvr:pnummer": "1000460560", "website": "https://atlasbar.dk/", "wheelchair": "no"}}, {"type": "node", "id": 1596792063, "lat": 55.6779253, "lon": 12.5711363, "tags": {"alt_name": "Retro Disco", "amenity": "bar", "fvst:navnelbnr": "714363", "name": "Retro Bar", "ref:DK:cvr": "36695331", "ref:DK:cvr:pnummer": "1020267077"}}, {"type": "node", "id": 1608797133, "lat": 55.6797778, "lon": 12.584715, "tags": {"amenity": "pub", "contact:email": "hviids@mail.tele.dk", "fvst:navnelbnr": "1272679", "indoor_seating": "yes", "name": "Hviids Vinstue", "opening_hours": "PH,Mo-Th 10:00-01:00, PH,Su 10:00-20:00, PH,Fr,Sa 10:00-02:00", "outdoor_seating": "yes", "phone": "+45 33151064", "ref:DK:cvr": "42086916", "ref:DK:cvr:pnummer": "1026778006", "smoking": "isolated", "website": "http://www.hviidsvinstue.dk/", "wheelchair": "limited", "wikidata": "Q23590697"}}, {"type": "node", "id": 1612954850, "lat": 55.6756583, "lon": 12.5735337, "tags": {"amenity": "bar", "description": "live music every night", "fvst:name": "MOJO APS", "fvst:navnelbnr": "112592", "name": "Mojo Blues Bar", "ref:DK:cvr": "18752204", "smoking": "yes", "website": "https://www.mojo.dk/", "wheelchair": "yes"}}, {"type": "node", "id": 1613051108, "lat": 55.6767102, "lon": 12.5721156, "tags": {"amenity": "pub", "fvst:navnelbnr": "1240578", "name": "Centralhj\u00f8rnet", "ref:DK:cvr": "42841781", "ref:DK:cvr:pnummer": "1027736021", "source": "survey", "website": "https://centralhjornet.dk/", "wheelchair": "no", "wikidata": "Q106668905"}}, {"type": "node", "id": 1616786814, "lat": 55.6813135, "lon": 12.5642273, "tags": {"amenity": "pub", "fvst:navnelbnr": "113995", "internet_access": "wlan", "internet_access:fee": "no", "name": "Cafe Globen", "ref:DK:cvr": "28299346", "ref:DK:cvr:pnummer": "1011002907", "website": "http://www.cafegloben.dk", "wheelchair": "limited"}}, {"type": "node", "id": 1628406934, "lat": 55.681166, "lon": 12.580734, "tags": {"amenity": "bar", "fvst:navnelbnr": "112508", "name": "Wessels Kro", "ref:DK:cvr": "28858396", "ref:DK:cvr:pnummer": "1011511305", "smoking": "separated"}}, {"type": "node", "id": 1628413117, "lat": 55.6811342, "lon": 12.5816783, "tags": {"amenity": "bar", "cuisine": "wine", "fvst:navnelbnr": "505985", "name": "Kj\u00e6r & Sommerfeldt", "opening_hours": "Mo-Th,Sa 10:00-18:00; Fr 10:00-20:00", "ref:DK:cvr": "30531620", "ref:DK:cvr:pnummer": "1014812462", "shop": "alcohol", "website": "https://www.kjaersommerfeldt.dk/butik-k%C3%B8benhavn", "wheelchair": "yes"}}, {"type": "node", "id": 1628427956, "lat": 55.6819319, "lon": 12.5801525, "tags": {"amenity": "bar", "fvst:navnelbnr": "119817", "name": "R Vinbar", "ref:DK:cvr": "33956541", "ref:DK:cvr:pnummer": "1017164321"}}, {"type": "node", "id": 1628470253, "lat": 55.6816239, "lon": 12.5793588, "tags": {"amenity": "pub", "fvst:navnelbnr": "112691", "name": "Byens Kro", "ref:DK:cvr": "28962215", "ref:DK:cvr:pnummer": "1010357779"}}, {"type": "node", "id": 1629984199, "lat": 55.6806961, "lon": 12.5884807, "tags": {"amenity": "bar", "fvst:navnelbnr": "533543", "name": "Hong Kong Night Club", "ref:DK:cvr": "14156895", "wheelchair": "no"}}, {"type": "node", "id": 1629995901, "lat": 55.6803457, "lon": 12.5897588, "tags": {"amenity": "pub", "fvst:navnelbnr": "114345", "name": "Hyttefadet", "outdoor_seating": "yes", "ref:DK:cvr": "18408171", "ref:DK:cvr:pnummer": "1003245273", "wheelchair": "limited"}}, {"type": "node", "id": 1629996639, "lat": 55.6803121, "lon": 12.5898879, "tags": {"amenity": "pub", "fvst:navnelbnr": "786680", "name": "Skipperkroen", "ref:DK:cvr": "17720082", "ref:DK:cvr:pnummer": "1024218275", "wheelchair": "limited"}}, {"type": "node", "id": 1629999347, "lat": 55.6802753, "lon": 12.5900424, "tags": {"amenity": "pub", "fvst:navnelbnr": "786684", "name": "Fisken", "ref:DK:cvr": "17720082", "ref:DK:cvr:pnummer": "1024218119", "wheelchair": "limited"}}, {"type": "node", "id": 1630068073, "lat": 55.6770568, "lon": 12.5897281, "tags": {"amenity": "pub", "fvst:navnelbnr": "934514", "name": "Cafe Malm\u00f8", "outdoor_seating": "yes", "payment:credit_cards": "yes", "phone": "+45 3312 7260", "ref:DK:cvr": "36094257", "ref:DK:cvr:pnummer": "1019916754", "toilets": "yes", "website": "https://www.xn--cafemalm-d5a.dk/"}}, {"type": "node", "id": 1822849398, "lat": 55.6583402, "lon": 12.6028151, "tags": {"amenity": "pub", "fvst:navnelbnr": "114811", "name": "Caf\u00e9 Lystig", "opening_hours": "Fr 16:00-04:00, Sa 18:00-04:00", "ref:DK:cvr": "21579343", "ref:DK:cvr:pnummer": "1005036333", "website": "https://www.facebook.com/pages/Cafe-Lystig/263383627062137"}}, {"type": "node", "id": 1862807125, "lat": 55.6537447, "lon": 12.5909462, "tags": {"amenity": "bar", "description": "V\u00e6rtshus for beboere p\u00e5 Gr\u00f8njordskollegiet", "fvst:name": "Hatten Gr\u00f8njordskollegiet", "fvst:navnelbnr": "111826", "name": "Hatten Bar", "operator": "Gr\u00f8njordskollegiet", "ref:DK:cvr": "10801958"}}, {"type": "node", "id": 2008179830, "lat": 55.6859481, "lon": 12.5523945, "tags": {"amenity": "bar", "fvst:navnelbnr": "509492", "name": "Dupong", "outdoor_seating": "no", "ref:DK:cvr": "33864922", "ref:DK:cvr:pnummer": "1017038652", "smoking": "no"}}, {"type": "node", "id": 2014805166, "lat": 55.6858796, "lon": 12.5523207, "tags": {"alt_name": "\u00d8lsnedkernes Klub Bar", "amenity": "bar", "contact:facebook": "https://www.facebook.com/olsnedkeren/", "contact:instagram": "https://www.instagram.com/olsnedkeren/", "drink:beer": "served", "email": "baren@olsnedkeren.dk", "fvst:navnelbnr": "505533", "min_age": "18", "name": "\u00d8lsnedkeren", "opening_hours": "Mo-We 14:00-24:00, Th-Sa 14:00-02:00", "outdoor_seating": "no", "ref:DK:cvr": "33276249", "ref:DK:cvr:pnummer": "1016491892", "website": "https://olsnedkeren.dk/", "wheelchair": "limited"}}, {"type": "node", "id": 2020615652, "lat": 55.6687256, "lon": 12.559701, "tags": {"amenity": "bar", "fvst:navnelbnr": "118305", "name": "Bakken", "opening_hours": "Th 21:00-05:00; Fr-Sa 20:00-05:00", "ref:DK:cvr": "32656587", "ref:DK:cvr:pnummer": "1015720626", "website": "http://bakkenkbh.dk"}}, {"type": "node", "id": 2036051372, "lat": 55.6818289, "lon": 12.5633186, "tags": {"alt_name": "Smuggler Imports", "amenity": "bar", "fvst:navnelbnr": "761398", "internet_access": "wlan", "name": "Gorki", "opening_hours": "Tu-Sa 15:00-24:00", "phone": "+45 40562193", "product": "beer", "ref:DK:cvr": "38904205", "shop": "alcohol", "website": "http://www.smuggler.dk/", "wheelchair": "no"}}, {"type": "node", "id": 2144156629, "lat": 55.6573694, "lon": 12.6036199, "tags": {"amenity": "pub", "fvst:navnelbnr": "669978", "name": "Cafe Sundbyvester", "ref:DK:cvr": "36454415", "ref:DK:cvr:pnummer": "1019955520", "website": "http://cafesundbyvester.dk/"}}, {"type": "node", "id": 2156654226, "lat": 55.6744834, "lon": 12.5512432, "tags": {"amenity": "bar", "email": "amigobar@os.dk", "fvst:navnelbnr": "111881", "name": "Amigo Bar", "phone": "+45 3321 4915", "ref:DK:cvr": "14951881", "ref:DK:cvr:pnummer": "1000834597", "smoking": "yes"}}, {"type": "node", "id": 2165235074, "lat": 55.681795, "lon": 12.5709215, "tags": {"amenity": "bar", "fvst:name": "MC KO APS", "fvst:navnelbnr": "576972", "name": "The Globe", "ref:DK:cvr": "20042877", "ref:DK:cvr:pnummer": "1004279501", "website": "https://www.the-globe.dk/"}}, {"type": "node", "id": 2338189050, "lat": 55.6733748, "lon": 12.5517592}, {"type": "node", "id": 2338189058, "lat": 55.6732493, "lon": 12.5516709}, {"type": "node", "id": 2338189065, "lat": 55.6732082, "lon": 12.5517698}, {"type": "node", "id": 2338189077, "lat": 55.6733669, "lon": 12.5516622}, {"type": "node", "id": 2523038593, "lat": 55.6777292, "lon": 12.5784331, "tags": {"amenity": "bar", "drink:cocktail": "served", "fvst:navnelbnr": "543600", "name": "Little Green Door", "opening_hours": "16:00-01:00,Fr-Sa 16:00-02:00,Su-Tu off", "phone": "+45 31737354", "ref:DK:cvr": "35256008", "ref:DK:cvr:pnummer": "1018548247", "website": "http://madamchu.dk"}}, {"type": "node", "id": 2543973526, "lat": 55.6801316, "lon": 12.5761475, "tags": {"age_limit": "23", "air_conditioning": "yes", "amenity": "bar", "check_date": "2023-05-14", "currency:XBT": "yes", "fvst:navnelbnr": "732139", "indoor_seating": "yes", "name": "The Jane", "note": "15% discount on all cocktails!", "opening_hours": "Th 20:00+; Fr 16:00+; Sa 20:00+", "payment:credit_cards": "yes", "payment:debit_cards": "yes", "phone": "+45 69 69 60 00", "ref:DK:cvr": "35485708", "ref:DK:cvr:pnummer": "1022243507", "website": "https://www.thejane.dk/", "wheelchair": "no", "yelp": "http://www.yelp.com/biz/the-jane-k%C3%B8benhavn-k"}}, {"type": "node", "id": 2599935006, "lat": 55.6766934, "lon": 12.5766194, "tags": {"alt_name": "Ruby Cocktailbar", "amenity": "bar", "check_date": "2023-04-04", "facebook": "https://www.facebook.com/rubykbh", "fvst:navnelbnr": "119264", "name": "Ruby", "opening_hours": "Mo-Sa 16:00-02:00, Su 18:00-02:00", "phone": "+45 33931203", "ref:DK:cvr": "32290140", "website": "https://rby.dk/"}}, {"type": "node", "id": 2837243901, "lat": 55.6781561, "lon": 12.5698566, "tags": {"amenity": "bar", "fvst:navnelbnr": "115459", "name": "Floss", "ref:DK:cvr": "13220034", "ref:DK:cvr:pnummer": "1020634983", "smoking": "yes", "wheelchair": "limited"}}, {"type": "node", "id": 2855855758, "lat": 55.676199, "lon": 12.571519, "tags": {"amenity": "pub", "contact:facebook": "https://www.facebook.com/taphouse.dk/", "contact:foursquare": "https://foursquare.com/v/taphouse/5311e1ab498e444e2f4ea063", "email": "kontakt@taphouse.dk", "fvst:navnelbnr": "543684", "internet_access": "wlan", "internet_access:fee": "no", "name": "Taphouse", "opening_hours": "Mo-Th 15:00-02:00; Fr-Sa 12:00-02:00; Su 12:00-24:00", "phone": "+4588876543", "ref:DK:cvr": "35140905", "ref:DK:cvr:pnummer": "1018340948", "smoking": "no", "website": "https://taphouse.dk/", "wheelchair": "no"}}, {"type": "node", "id": 3106600429, "lat": 55.6626284, "lon": 12.6043899, "tags": {"amenity": "bar", "fvst:name": "Heibir / Amagerhylden", "fvst:navnelbnr": "735183", "name": "Amagerhylden", "phone": "+45 32542800", "ref:DK:cvr": "32652212", "ref:DK:cvr:pnummer": "1015704795", "smoking": "separated", "website": "http://www.amagerhylden.dk/"}}, {"type": "node", "id": 3312007936, "lat": 55.6731978, "lon": 12.5516753}, {"type": "node", "id": 3312007937, "lat": 55.6731996, "lon": 12.5517704}, {"type": "node", "id": 3372385620, "lat": 55.684032, "lon": 12.5674679, "tags": {"amenity": "pub", "fvst:navnelbnr": "1340022", "name": "S\u00f8ren Ged's Garage", "opening_hours": "Mo-We 11:00-02:00,Th-Sa 11:00-05:00, Su 11:00-02:00", "ref:DK:cvr": "18525739", "ref:DK:cvr:pnummer": "1029298498", "website": "https://www.s\u00f8rengedsgarage.dk/", "wheelchair": "no"}}, {"type": "node", "id": 3372385621, "lat": 55.6846268, "lon": 12.5675944, "tags": {"alt_name": "Barkowski Bar", "amenity": "bar", "check_date": "2020-12-15", "fvst:navnelbnr": "521282", "name": "Barkowski", "opening_hours": "Tu-We 16:00-24:00, Th 14:00-02:00, Fr 14:00-05:00, Sa 13:00-05:00, Su 14:00-02:00", "phone": "+45 30 66 85 34", "ref:DK:cvr": "34904693", "ref:DK:cvr:pnummer": "1018195212", "website": "https://barkowskibar.dk/"}}, {"type": "node", "id": 3404321016, "lat": 55.67744, "lon": 12.5699, "tags": {"amenity": "pub", "fvst:navnelbnr": "519972", "name": "Musen & Elefanten", "opening_hours": "Th 16:00-04:00,Fr-Sa 16:00-05:00", "payment:bitcoin": "yes", "phone": "+45 26712779", "ref:DK:cvr": "34703086", "ref:DK:cvr:pnummer": "1018064096", "website": "https://musen-og-elefanten.dk/"}}, {"type": "node", "id": 3404321298, "lat": 55.671218, "lon": 12.5604749, "tags": {"amenity": "bar", "fvst:navnelbnr": "115610", "name": "Spunk Bar", "ref:DK:cvr": "24214583", "ref:DK:cvr:pnummer": "1006414760"}}, {"type": "node", "id": 3404321338, "lat": 55.67592, "lon": 12.56586, "tags": {"amenity": "bar", "fvst:navnelbnr": "762392", "name": "The Shamrock Inn", "opening_hours": "Mo 15:00-02:00,Tu 15:00-01:01; We 15:00-02:00,Th 15:00-03:00,Fr 12:30-05:00,Sa 13:30-05:00, Su 15:00-01:00", "ref:DK:cvr": "34594791", "ref:DK:cvr:pnummer": "1023922211", "website": "https://theshamrockinn.dk/"}}, {"type": "node", "id": 3404342223, "lat": 55.6740948, "lon": 12.5499759, "tags": {"amenity": "bar", "fvst:navnelbnr": "119665", "name": "Falernum", "ref:DK:cvr": "31178851", "ref:DK:cvr:pnummer": "1016162252", "wheelchair": "no"}}, {"type": "node", "id": 3529010440, "lat": 55.6731985, "lon": 12.5517167}, {"type": "node", "id": 3772456953, "lat": 55.6793579, "lon": 12.5749273, "tags": {"amenity": "bar", "fvst:navnelbnr": "543663", "name": "B\u00e6st", "opening_hours": "Th 20:00-02:00, Fr-Sa 18:00-05:00", "ref:DK:cvr": "34476519", "ref:DK:cvr:pnummer": "1017757292", "website": "http://xn--bst-yla.dk/"}}, {"type": "node", "id": 3773087372, "lat": 55.6798954, "lon": 12.5777113, "tags": {"amenity": "bar", "fvst:navnelbnr": "556537", "name": "Balderdash", "opening_hours": "We 17:00-01:00, Th 17:00-02:00, Fr 17:00-02:00, Sa 17:00-02:00", "phone": "+45 53107885", "ref:DK:cvr": "35851992", "ref:DK:cvr:pnummer": "1019390221"}}, {"type": "node", "id": 3773088919, "lat": 55.6776418, "lon": 12.5780759, "tags": {"amenity": "bar", "fvst:navnelbnr": "714992", "name": "The Bird and the Churchkey", "opening_hours": "Tu-We 16:00-01:00, Th 16:00-02:00, Fr-Sa 16:00-04:00", "ref:DK:cvr": "31946212", "ref:DK:cvr:pnummer": "1015029982", "website": "https://thebird.dk/"}}, {"type": "node", "id": 3898784968, "lat": 55.6685278, "lon": 12.5599599, "tags": {"amenity": "pub", "facebook": "https://www.facebook.com/warpigsbrewpub", "fvst:navnelbnr": "560424", "internet_access": "wlan", "internet_access:fee": "no", "microbrewery": "yes", "name": "Warpigs Brewpub", "opening_hours": "Mo-Th 11:00-24:00, Fr-Sa 11:00-02:00, Su 11:00-22:00", "outdoor_seating": "yes", "phone": "+45 43484848", "ref:DK:cvr": "35864237", "ref:DK:cvr:pnummer": "1019887754", "takeaway": "yes", "website": "https://warpigs.dk/", "wheelchair": "yes"}}, {"type": "node", "id": 4001191951, "lat": 55.6577871, "lon": 12.6026326, "tags": {"amenity": "pub", "name": "Tingkroen", "opening_hours": "Mo-Sa 10:00-24:00; Su10:00-22:00"}}, {"type": "node", "id": 4004309539, "lat": 55.6660287, "lon": 12.5976758, "tags": {"alt_name": "Boulevarden", "amenity": "bar", "fvst:navnelbnr": "1202480", "name": "Boulevard Bodega", "opening_hours": "Mo-Th 12:00-21:00; Fr,Sa 12:00-22:00; Su 12:00-17:00", "ref:DK:cvr": "39969386", "ref:DK:cvr:pnummer": "1027803675"}}, {"type": "node", "id": 4004309540, "lat": 55.665826, "lon": 12.578507, "tags": {"amenity": "bar", "fvst:navnelbnr": "917481", "indoor_seating": "yes", "name": "Amager Bryghus Taproom Bryggen", "opening_hours": "Mo,Tu 15:00-23:00; We,Th 15:00-24:00; Fr,Sa 14:00-24:00; Su 13:00-21:00", "outdoor_seating": "yes", "smoking": "outside", "wheelchair": "no"}}, {"type": "node", "id": 4007452347, "lat": 55.6878755, "lon": 12.5702372, "tags": {"access": "private", "amenity": "bar", "check_date": "2022-06-08", "description": "studentercafe", "name": "Jacques D.", "ref:DK:cvr": "17331531", "website": "http://jacquesd.dk/"}}, {"type": "node", "id": 4007480897, "lat": 55.678419, "lon": 12.554611, "tags": {"amenity": "bar", "fvst:navnelbnr": "761790", "name": "Salon 39", "ref:DK:cvr": "39713039", "ref:DK:cvr:pnummer": "1023781855"}}, {"type": "node", "id": 4011854861, "lat": 55.6787957, "lon": 12.5722433, "tags": {"amenity": "bar", "fvst:name": "Gringo Bar", "fvst:navnelbnr": "714364", "name": "Gringo Bar", "ref:DK:cvr": "38311484", "ref:DK:cvr:pnummer": "1022069779"}}, {"type": "node", "id": 4012815277, "lat": 55.675205, "lon": 12.586764, "tags": {"amenity": "bar", "fvst:name": "Kayak Bar Kajen Drift ApS", "fvst:navnelbnr": "734284", "name": "Kayak Bar", "opening_hours": "Jun-Aug", "phone": "+45 3049 0013", "ref:DK:cvr": "39120992", "ref:DK:cvr:pnummer": "1023073826", "website": "https://kayakbar.dk/"}}, {"type": "node", "id": 4015755825, "lat": 55.6788802, "lon": 12.5700342, "tags": {"amenity": "bar", "fvst:navnelbnr": "924220", "name": "Born 12/ Jailhouse CPH", "note": "gay", "phone": "+45 33152255", "ref:DK:cvr": "39980665", "ref:DK:cvr:pnummer": "1024081784", "website": "https://jailhousecph.dk/"}}, {"type": "node", "id": 4016613453, "lat": 55.6736038, "lon": 12.5660687, "tags": {"amenity": "bar", "fvst:navnelbnr": "535576", "name": "Nimb Bar", "ref:DK:cvr": "10404916", "ref:DK:cvr:pnummer": "1018808885", "wheelchair": "yes"}}, {"type": "node", "id": 4018484845, "lat": 55.6786438, "lon": 12.5924247, "tags": {"amenity": "bar", "fvst:navnelbnr": "530990", "name": "Den Vandrette Vinbar", "opening_hours": "17:00-23:00; Su-Mo off", "phone": "+45 7214 8228", "ref:DK:cvr": "35226532", "ref:DK:cvr:pnummer": "1018414526", "website": "https://www.denvandrette.dk/"}}, {"type": "node", "id": 4072657122, "lat": 55.6811399, "lon": 12.5830687, "tags": {"amenity": "bar", "fvst:navnelbnr": "636689", "name": "Lou Lou"}}, {"type": "node", "id": 4261837130, "lat": 55.6775664, "lon": 12.5811954, "tags": {"alt_name": "Cava Bar - Playa", "amenity": "bar", "fvst:navnelbnr": "920651", "name": "El Cava", "ref:DK:cvr": "40847618", "ref:DK:cvr:pnummer": "1025116239"}}, {"type": "node", "id": 4314938978, "lat": 55.6834282, "lon": 12.5882248, "tags": {"amenity": "bar", "cuisine": "tapas", "fvst:navnelbnr": "533980", "name": "Dahl & Dahl", "payment:credit_cards": "yes", "phone": "+45 2896 4006", "ref:DK:cvr": "34719519", "ref:DK:cvr:pnummer": "1017989835", "toilets": "yes", "website": "https://www.dahl-dahl.dk/"}}, {"type": "node", "id": 4314938985, "lat": 55.681141, "lon": 12.5892433, "tags": {"amenity": "bar", "fvst:navnelbnr": "561054", "name": "Nebbiolo Winebar", "opening_hours": "Mo-Su 15:00-24:00", "outdoor_seating": "yes", "payment:credit_cards": "yes", "ref:DK:cvr": "36538775", "ref:DK:cvr:pnummer": "1020144838", "toilets": "yes", "website": "https://nebbiolo-winebar.com/", "wheelchair": "no"}}, {"type": "node", "id": 4318843593, "lat": 55.6773717, "lon": 12.576151, "tags": {"amenity": "bar", "description": "Oldest Jazz venue in Copenhagen; Live Music Fr-Sa 22-02 & Su 21-01", "fvst:navnelbnr": "113195", "name": "La Fontaine", "opening_hours": "Mo-Su 20:00-05:00", "ref:DK:cvr": "19139182", "ref:DK:cvr:pnummer": "1003696106", "website": "http://www.lafontaine.dk"}}, {"type": "node", "id": 4328324015, "lat": 55.6801783, "lon": 12.5760558, "tags": {"amenity": "bar", "fvst:navnelbnr": "523694", "name": "Str\u00f8m Bar", "opening_hours": "Mo-Th 18:00-01:00; Fr 16:00-03:00; Sa 18:00-03:00", "ref:DK:cvr": "34576688", "ref:DK:cvr:pnummer": "1017674745"}}, {"type": "node", "id": 4328446361, "lat": 55.6805372, "lon": 12.5833472, "tags": {"amenity": "bar", "cuisine": "champagne", "fvst:navnelbnr": "514726", "indoor_seating": "yes", "name": "Balthazar Champagne Bar", "opening_hours": "Th,Fr 16:00-02:00, Sa 14:00-02:00", "outdoor_seating": "no", "ref:DK:cvr": "33368127", "ref:DK:cvr:pnummer": "1016571446", "smoking": "no", "wheelchair": "no"}}, {"type": "node", "id": 4330130939, "lat": 55.677305, "lon": 12.5815953, "tags": {"amenity": "bar", "cuisine": "winebar", "fvst:navnelbnr": "114994", "name": "Ved Stranden 10", "opening_hours": "Mo-Fr 15:00-22:00; Sa 12:00-22:00; Su off", "phone": "+45 35424040", "ref:DK:cvr": "32476767", "ref:DK:cvr:pnummer": "1015575553", "website": "http://www.vedstranden10.dk/", "wikidata": "Q28225883"}}, {"type": "node", "id": 4331204551, "lat": 55.6727762, "lon": 12.5668858, "tags": {"amenity": "bar", "fvst:navnelbnr": "531950", "name": "Alpehytten Biergarten I", "operator": "Tivoli", "ref:DK:cvr": "10404916", "ref:DK:cvr:pnummer": "1002894451"}}, {"type": "node", "id": 4341862603, "lat": 55.6665245, "lon": 12.5980941, "tags": {"alt_name": "Det Argentinske Vinhus", "amenity": "bar", "check_date:opening_hours": "2023-05-14", "drink:wine": "served", "fvst:navnelbnr": "505432", "name": "Vinos Los Andes", "opening_hours": "Th-Sa 13:00-19:00", "opening_hours:signed": "no", "ref:DK:cvr": "31363497", "ref:DK:cvr:pnummer": "1014331804", "shop": "alcohol", "website": "http://detargentinskevinhus.dk/"}}, {"type": "node", "id": 4341862608, "lat": 55.6735506, "lon": 12.5661, "tags": {"amenity": "bar", "fvst:navnelbnr": "118085", "name": "Nimb Bar og Banquet 1. sal", "ref:DK:cvr": "10404916", "ref:DK:cvr:pnummer": "1018808885"}}, {"type": "node", "id": 4387720611, "lat": 55.6869467, "lon": 12.5594593, "tags": {"amenity": "bar", "fvst:name": "Vinhanen S.M.B.A.", "fvst:navnelbnr": "523380", "name": "Vinhanen", "ref:DK:cvr": "35039244", "ref:DK:cvr:pnummer": "1018260383"}}, {"type": "node", "id": 4389544398, "lat": 55.6752253, "lon": 12.5612217, "tags": {"amenity": "bar", "fvst:navnelbnr": "114231", "name": "Imperial Bio \u00d8vre Bar", "ref:DK:cvr": "28344910", "ref:DK:cvr:pnummer": "1003023344", "wheelchair": "no"}}, {"type": "node", "id": 4402639618, "lat": 55.6871096, "lon": 12.5492778, "tags": {"amenity": "bar", "fvst:navnelbnr": "564445", "name": "Sidecar", "old_name": "Kocktails", "ref:DK:cvr": "36543868", "ref:DK:cvr:pnummer": "1020163239", "website": "https://www.sidecarnoerrebro.dk/"}}, {"type": "node", "id": 4436489213, "lat": 55.6593211, "lon": 12.590689, "tags": {"amenity": "bar", "fvst:name": "IT- Universitetet Studentercaf\u00e9en Scrollbar", "fvst:navnelbnr": "115893", "name": "Scrollbar", "opening_hours:signed": "no", "operator": "IT-Universitetet", "ref:DK:cvr": "28235283", "ref:DK:cvr:pnummer": "1011069254", "toilets:wheelchair": "yes", "wheelchair": "yes"}}, {"type": "node", "id": 4460697811, "lat": 55.66769, "lon": 12.5589, "tags": {"amenity": "bar", "facebook": "https://www.facebook.com/Mesteren-L\u00e6rlingen-215687798449433/", "fvst:navnelbnr": "115011", "name": "Mesteren & L\u00e6rlingen", "outdoor_seating": "yes", "payment:credit_cards": "yes", "phone": "+45 32152483", "ref:DK:cvr": "32082645", "ref:DK:cvr:pnummer": "1015381783", "smoking": "yes", "toilets": "yes"}}, {"type": "node", "id": 4489479205, "lat": 55.680944, "lon": 12.571343, "tags": {"amenity": "bar", "fvst:navnelbnr": "662261", "name": "Boulebar Sankt Petri", "opening_hours": "15:00-23:00; Th 15:00-24:00; Fr 11:00-24:00; Sa 10:00-24:00; Su 10:00-23:00", "phone": "+45 82820800", "pitch": "boules", "ref:DK:cvr": "37452939", "ref:DK:cvr:pnummer": "1021592613", "toilets:wheelchair": "yes", "website": "https://www.boulebar.dk/", "wheelchair": "yes"}}, {"type": "node", "id": 4515551975, "lat": 55.6654227, "lon": 12.5488293, "tags": {"amenity": "bar", "fvst:navnelbnr": "109917", "name": "Boulevarden", "phone": "+45 3331 8303", "ref:DK:cvr": "13633142", "ref:DK:cvr:pnummer": "1000597724"}}, {"type": "node", "id": 4536946914, "lat": 55.6832898, "lon": 12.5879807, "tags": {"amenity": "bar", "cocktails": "yes", "fvst:navnelbnr": "653451", "name": "The Barbershop", "phone": "+45 52633777", "ref:DK:cvr": "37615552", "ref:DK:cvr:pnummer": "1021339977", "website": "https://www.thebarbershop.dk/"}}, {"type": "node", "id": 4557103882, "lat": 55.6674267, "lon": 12.5972606, "tags": {"amenity": "bar", "check_date": "2023-04-23", "contact:email": "haabetbodegabar@gmail.com", "contact:phone": "+45 31 24 08 19", "fvst:navnelbnr": "950362", "name": "Haabet Bodega Bar", "opening_hours": "Mo-Th 16:00-24:00, Fr-Sa 15:00-24:00", "ref:DK:cvr": "37149020", "ref:DK:cvr:pnummer": "1025906043", "smoking": "yes", "website": "http://haabetbodegabar.dk/"}}, {"type": "node", "id": 4564289856, "lat": 55.6787144, "lon": 12.580105, "tags": {"amenity": "bar", "fvst:navnelbnr": "923586", "level": "-1", "name": "Christian IV", "ref:DK:cvr": "40364927", "website": "http://kantbar.dk/"}}, {"type": "node", "id": 4575935451, "lat": 55.6752286, "lon": 12.5724216, "tags": {"amenity": "bar", "fvst:navnelbnr": "669713", "name": "Southern Cross Pub", "payment:credit_cards": "yes", "phone": "+45 3311 0939", "ref:DK:cvr": "33758871", "toilets": "yes", "website": "https://www.southerncross.dk/"}}, {"type": "node", "id": 4593377199, "lat": 55.671211, "lon": 12.5496708, "tags": {"amenity": "bar", "contact:instagram": "httpd://www.instagram.com/ancestralebra", "email": "spis@ancestrale.dk", "facebook": "https://www.facebook.com/Ancestralebar/", "fvst:navnelbnr": "958384", "name": "Ancestrale", "opening_hours": "Mo-Th 16:00-23:00; Fr-Sa 16:00-24:00", "phone": "+4560407414", "ref:DK:cvr": "41474068", "ref:DK:cvr:pnummer": "1025977730", "website": "http://ancestrale.dk"}}, {"type": "node", "id": 4593377213, "lat": 55.6665259, "lon": 12.5530327, "tags": {"amenity": "bar", "facebook": "https://www.facebook.com/Rbabarrab", "fvst:navnelbnr": "962630", "indoor_seating": "yes", "name": "Rbabarrab", "opening_hours": "Fr,Sa 11:00-03:00, Su-Th 11:00-24:00", "outdoor_seating": "no", "phone": "+45 24 26 92 91", "ref:DK:cvr": "37613932", "wheelchair": "limited"}}, {"type": "node", "id": 4619690320, "lat": 55.683378, "lon": 12.5875853, "tags": {"amenity": "bar", "fvst:name": "ReKom \u00d8st Drift Bravo", "fvst:navnelbnr": "671128", "name": "Dandy", "phone": "+45 3173 7304", "ref:DK:cvr": "37582220", "ref:DK:cvr:pnummer": "1021301716", "website": "http://dandycph.com/"}}, {"type": "node", "id": 4622355403, "lat": 55.6758239, "lon": 12.5930274, "tags": {"amenity": "bar", "name": "Kanalens K\u00e6lder", "opening_hours:signed": "no"}}, {"type": "node", "id": 4673538603, "lat": 55.6558235, "lon": 12.6098903, "tags": {"amenity": "bar", "drink:wine": "served", "fvst:navnelbnr": "667771", "name": "Toto Vin- og Spisebar", "opening_hours": "Tu-Th 16:00-24:00; Fr,Sa 15:00-24:00", "ref:DK:cvr": "38026089", "ref:DK:cvr:pnummer": "1021769807"}}, {"type": "node", "id": 4715837029, "lat": 55.6816577, "lon": 12.584914, "tags": {"amenity": "bar", "facebook": "https://m.facebook.com/pages/category/Pub/Wall-Street-Pub-187011364648720/", "fvst:name": "T og M Partners . C/O Wall Street Pub", "fvst:navnelbnr": "697806", "name": "Wall Street Pub", "phone": "+45 33 14 77 42", "ref:DK:cvr": "25508149", "ref:DK:cvr:pnummer": "1007788157", "toilets": "yes"}}, {"type": "node", "id": 4735675880, "lat": 55.679078, "lon": 12.5690251, "tags": {"amenity": "bar", "brewery": "yes;various", "fvst:navnelbnr": "670412", "internet_access": "wlan", "name": "Peders - Pisserendens \u00f8lk\u00e6lder", "opening_hours": "Mo-Th 16:00-24:00, Fr-Sa 14:00-01:00, Su 15:00-21:00", "opening_hours:covid19": "Tu-Th 16:00-00:00, Fr-Sa 14:00-00:00", "outdoor_seating": "yes", "payment:cash": "yes", "payment:contactless": "yes", "payment:credit_cards": "yes", "ref:DK:cvr": "37880736", "ref:DK:cvr:pnummer": "1021603267", "short_name": "Peders", "website": "https://pederscph.dk/"}}, {"type": "node", "id": 4736814542, "lat": 55.68475, "lon": 12.55307, "tags": {"amenity": "bar", "drink:beer": "served", "fvst:name": "Himmeriget", "fvst:navnelbnr": "574675", "name": "Himmerriget", "opening_hours": "Mo-Sa 15:00-02:00, Su 15:00-24:00", "ref:DK:cvr": "35859659", "ref:DK:cvr:pnummer": "1020227016", "website": "http://www.himmeriget.dk/", "wheelchair": "yes"}}, {"type": "node", "id": 4873747936, "lat": 55.6782794, "lon": 12.5716769, "tags": {"alt_name": "Miami Bar", "amenity": "bar", "fvst:navnelbnr": "807546", "name": "Miami", "ref:DK:cvr": "37060178"}}, {"type": "node", "id": 4873751689, "lat": 55.6783238, "lon": 12.5718204, "tags": {"amenity": "bar", "fvst:navnelbnr": "510135", "name": "The Drunken Flamingo", "ref:DK:cvr": "34477795", "ref:DK:cvr:pnummer": "1017620610"}}, {"type": "node", "id": 4873752563, "lat": 55.6800374, "lon": 12.5748724, "tags": {"alt_name": "Farfars bodega & dans", "amenity": "bar", "fvst:navnelbnr": "522836", "name": "Farfar", "phone": "+45 69692023", "ref:DK:cvr": "34736871", "website": "https://farfarbodega.dk/"}}, {"type": "node", "id": 4878969893, "lat": 55.6820368, "lon": 12.5711571, "tags": {"amenity": "bar", "fvst:navnelbnr": "515809", "name": "Rhino Bar", "ref:DK:cvr": "33582676", "ref:DK:cvr:pnummer": "1016832266", "source": "Kaart Ground Survey 2017", "wheelchair": "no"}}, {"type": "node", "id": 4881595007, "lat": 55.6770916, "lon": 12.5755872, "tags": {"amenity": "bar", "fvst:navnelbnr": "903121", "name": "Comedy Zoo Cafe", "opening_hours": "Mo-We 16:30-23:00; Th-Sa 12:00-01:00", "ref:DK:cvr": "39338556", "ref:DK:cvr:pnummer": "1023353055", "website": "http://comedyzoocafe.dk/"}}, {"type": "node", "id": 4883742491, "lat": 55.6722464, "lon": 12.5558859, "tags": {"amenity": "bar", "fvst:navnelbnr": "540110", "level": "1", "name": "Zeppelin", "phone": "+45 71 70 36 66", "ref:DK:cvr": "35659641", "ref:DK:cvr:pnummer": "1019119765", "source": "Kaart Ground Survey 2017", "website": "http://zeppelincph.dk/welcome-to-copenhagens-finest-rock-bar/", "wheelchair": "no"}}, {"type": "node", "id": 4888056705, "lat": 55.6714963, "lon": 12.5722551, "tags": {"amenity": "bar", "fvst:navnelbnr": "795212", "name": "Byens bodega", "opening_hours": "Mo-Th 14:00-02:00, Fr 12:00-02:00, Sa 15:00-02:00", "ref:DK:cvr": "34098166", "ref:DK:cvr:pnummer": "1017391999"}}, {"type": "node", "id": 4949586070, "lat": 55.6814236, "lon": 12.5712927, "tags": {"amenity": "bar", "fvst:navnelbnr": "709814", "name": "No Stress Bar DK", "ref:DK:cvr": "38517511", "ref:DK:cvr:pnummer": "1022304018", "website": "http://www.nostressbar.dk/"}}, {"type": "node", "id": 4959567011, "lat": 55.6717677, "lon": 12.552406, "tags": {"amenity": "bar", "cuisine": "champagne;cocktails", "fvst:navnelbnr": "798024", "name": "The reception", "ref:DK:cvr": "38509527", "ref:DK:cvr:pnummer": "1022343129", "website": "http://www.thereception.dk/"}}, {"type": "node", "id": 5075577872, "lat": 55.6717046, "lon": 12.5617535, "tags": {"amenity": "bar", "fvst:navnelbnr": "118832", "name": "Absalon Bar", "operator": "Absalon Hotel", "ref:DK:cvr": "32781829", "ref:DK:cvr:pnummer": "1015892990"}}, {"type": "node", "id": 5109659910, "lat": 55.6792622, "lon": 12.5684369, "tags": {"amenity": "bar", "fvst:navnelbnr": "906047", "name": "Men\"s bar", "ref:DK:cvr": "36898534", "ref:DK:cvr:pnummer": "1021137398"}}, {"type": "node", "id": 5110956545, "lat": 55.6835862, "lon": 12.5702644, "tags": {"amenity": "bar", "branch": "City", "fvst:navnelbnr": "669464", "name": "Bootleggers", "ref:DK:cvr": "35644806", "ref:DK:cvr:pnummer": "1019322781", "smoking": "no"}}, {"type": "node", "id": 5124560643, "lat": 55.6704442, "lon": 12.5616796, "tags": {"amenity": "bar", "fvst:navnelbnr": "716546", "name": "Halmtorvet 9", "outdoor_seating": "yes", "payment:credit_cards": "yes", "ref:DK:cvr": "38792547", "ref:DK:cvr:pnummer": "1022657948", "smoking": "yes", "sport": "table_soccer", "toilets": "yes", "website": "https://halmtorvet9.dk/", "wheelchair": "yes"}}, {"type": "node", "id": 5125941664, "lat": 55.6687889, "lon": 12.574102, "tags": {"amenity": "bar", "fee": "yes", "fvst:name": "Copenhagen Marriott Exce. Lounge", "fvst:navnelbnr": "716273", "name": "Copenhagen Marriott Excecutive Lounge", "ref:DK:cvr": "37939838", "ref:DK:cvr:pnummer": "1022838489"}}, {"type": "node", "id": 5139657734, "lat": 55.6759648, "lon": 12.574294, "tags": {"amenity": "bar", "fvst:navnelbnr": "122607", "name": "Cph down town", "ref:DK:cvr": "33041713", "ref:DK:cvr:pnummer": "1016137029"}}, {"type": "node", "id": 5139921309, "lat": 55.6851005, "lon": 12.5660795, "tags": {"access:covid19": "no", "amenity": "bar", "branch": "Vendersgade", "fvst:navnelbnr": "540465", "name": "Mikropolis", "ref:DK:cvr": "25105583", "website": "https://mikropolis.dk/"}}, {"type": "node", "id": 5148568613, "lat": 55.6778037, "lon": 12.5745925, "tags": {"amenity": "bar", "name": "Heart of Hearts", "shop": "tattoo"}}, {"type": "node", "id": 5269666797, "lat": 55.6829218, "lon": 12.582556, "tags": {"amenity": "bar", "fvst:navnelbnr": "125356", "name": "Petanque Bar", "phone": "+45 78775400", "website": "https://www.petanquebar.dk/"}}, {"type": "node", "id": 5401946315, "lat": 55.6843528, "lon": 12.5728215, "tags": {"amenity": "bar", "check_date": "2020-12-09", "indoor_seating": "yes", "name": "Amager Bryghus Taproom", "note": "sunday missing, open ended?", "opening_hours": "Mo 14:00-22:00; Tu-Th 14:00-24:00; Fr-Sa 12:00-02:00", "outdoor_seating": "no", "shop": "brewing_supplies", "wheelchair": "no"}}, {"type": "node", "id": 5417511363, "lat": 55.6819681, "lon": 12.5824159, "tags": {"amenity": "bar", "fvst:navnelbnr": "735886", "name": "Jazzhus Montmartre Bar", "ref:DK:cvr": "32667716", "ref:DK:cvr:pnummer": "1015752366", "wheelchair": "no"}}, {"type": "node", "id": 5539726136, "lat": 55.6730867, "lon": 12.5587722, "tags": {"amenity": "bar", "check_date": "2023-04-13", "check_date:currency:XBT": "2023-03-26", "cocktails": "yes", "currency:XBT": "yes", "email": "info@curfew.dk", "fvst:navnelbnr": "562073", "min_age": "21", "name": "Curfew", "opening_hours": "Tu-Th 18:00-02:00; Fr-Sa 17:00-03:00", "payment:cash": "yes", "payment:credit_cards": "yes", "payment:debit_cards": "yes", "payment:lightning": "yes", "payment:onchain": "yes", "phone": "+45 29299276", "ref:DK:cvr": "36067179", "ref:DK:cvr:pnummer": "1020615865", "survey:date": "2022-10-28", "website": "https://curfew.dk/"}}, {"type": "node", "id": 5713943875, "lat": 55.6657426, "lon": 12.5785514, "tags": {"amenity": "bar", "fvst:navnelbnr": "740620", "name": "Beer and the Bean", "ref:DK:cvr": "37685232", "ref:DK:cvr:pnummer": "1021426969"}}, {"type": "node", "id": 5786719592, "lat": 55.6877519, "lon": 12.5596089, "tags": {"amenity": "bar", "brand": "K\u00f8benhavn", "fvst:navnelbnr": "524351", "name": "Escobar", "outdoor_seating": "yes", "ref:DK:cvr": "31271274", "smoking": "outside"}}, {"type": "node", "id": 5909838195, "lat": 55.6679133, "lon": 12.5502065, "tags": {"amenity": "bar", "cuisine": "cocktails", "fvst:navnelbnr": "732307", "name": "Bar Una", "opening_hours": "We-Th 17:00-01:00, Fr-Sa 17:00-04:00", "phone": "+45 3133 9037", "ref:DK:cvr": "33582757", "ref:DK:cvr:pnummer": "1016752580", "website": "https://www.baruna.dk/"}}, {"type": "node", "id": 5916973685, "lat": 55.678321, "lon": 12.5930312, "tags": {"amenity": "bar", "fvst:navnelbnr": "749394", "name": "Tipsy Mermaid", "ref:DK:cvr": "28712057", "ref:DK:cvr:pnummer": "1020258566", "website": "http://www.tipsymermaid.dk/"}}, {"type": "node", "id": 5976423685, "lat": 55.6545487, "lon": 12.6103787, "tags": {"amenity": "bar", "fvst:name": "Amagerbrogade 160", "fvst:navnelbnr": "957574", "name": "Hop House", "ref:DK:cvr": "38965646", "ref:DK:cvr:pnummer": "1022876186", "website": "https://www.hophouse.dk/"}}, {"type": "node", "id": 6071076502, "lat": 55.671848, "lon": 12.552391, "tags": {"amenity": "bar", "cocktails": "yes", "fvst:navnelbnr": "770970", "name": "Duck and Cover", "opening_hours": "Tu-Sa 16:00-22:00", "phone": "+45 28124290", "ref:DK:cvr": "34726965", "ref:DK:cvr:pnummer": "1018030191", "website": "http://duckandcoverbar.dk/"}}, {"type": "node", "id": 6295810438, "lat": 55.6794251, "lon": 12.5763531, "tags": {"amenity": "bar", "check_date": "2023-04-05", "name": "Citizen Cocktailbar", "opening_hours": "We-Sa 18:00-23:59", "ref:DK:cvr": "39851466", "website": "https://citizencph.dk/"}}, {"type": "node", "id": 6373071797, "lat": 55.6768192, "lon": 12.5760433, "tags": {"amenity": "bar", "fvst:navnelbnr": "733180", "name": "Godt \u00d8l", "payment:credit_cards": "yes", "phone": "+4523356866", "ref:DK:cvr": "38854224", "ref:DK:cvr:pnummer": "1022749834", "toilets": "yes", "website": "http://godt\u00f8l.dk"}}, {"type": "node", "id": 6402972686, "lat": 55.683934, "lon": 12.5733835, "tags": {"access:covid19": "no", "alt_name": "Y's Caf\u00e9 og Cocktailbar", "amenity": "bar", "drink:beer": "served", "drink:cocktail": "served", "fvst:navnelbnr": "113052", "name": "Ys", "ref:DK:cvr": "16291374", "ref:DK:cvr:pnummer": "1001073612", "website": "https://ys-cocktail.dk/"}}, {"type": "node", "id": 6432661706, "lat": 55.6775774, "lon": 12.57013, "tags": {"amenity": "bar", "fvst:navnelbnr": "514086", "name": "T\u00f8rst Bar", "ref:DK:cvr": "33948093", "ref:DK:cvr:pnummer": "1017136999"}}, {"type": "node", "id": 6570561561, "lat": 55.6671999, "lon": 12.5726521, "tags": {"amenity": "bar", "cuisine": "pizza;sandwich", "fvst:navnelbnr": "755618", "name": "Green Island of Copenhagen", "outdoor_seating": "yes", "payment:credit_cards": "yes", "phone": "+45 30295094", "ref:DK:cvr": "31219434", "ref:DK:cvr:pnummer": "1014217718", "seasonal": "summer", "toilets": "yes", "website": "https://www.green-island.dk/"}}, {"type": "node", "id": 6610407468, "lat": 55.6730015, "lon": 12.5494138, "tags": {"alt_name": "Cafe Postgaarden", "amenity": "bar", "check_date": "2023-04-10", "fvst:navnelbnr": "115093", "name": "Postgaarden Bar", "opening_hours": "12:00-22:00; Th-Sa 12:00-24:00; Su,PH 12:00-20:00", "phone": "+45 33312353", "ref:DK:cvr": "28924542", "smoking": "yes", "website": "http://www.postgaardencafe.dk/"}}, {"type": "node", "id": 6693570070, "lat": 55.6812174, "lon": 12.5837622, "tags": {"amenity": "bar", "fvst:navnelbnr": "906843", "name": "Bar Deco", "phone": "+45 26157437", "ref:DK:cvr": "29732469", "ref:DK:cvr:pnummer": "1024847019"}}, {"type": "node", "id": 6695972763, "lat": 55.6762539, "lon": 12.5716401, "tags": {"amenity": "bar", "fvst:navnelbnr": "798582", "name": "Not your Usual", "ref:DK:cvr": "38325140", "ref:DK:cvr:pnummer": "1022085227"}}, {"type": "node", "id": 6699329871, "lat": 55.684145, "lon": 12.550991, "tags": {"amenity": "bar", "fvst:navnelbnr": "796846", "name": "Gamble", "phone": "+45 26220575", "ref:DK:cvr": "39332094", "ref:DK:cvr:pnummer": "1023345826", "website": "http://gamble-cph.dk/"}}, {"type": "node", "id": 6761993669, "lat": 55.6770384, "lon": 12.5703918, "tags": {"amenity": "bar", "fvst:navnelbnr": "113817", "name": "Sams Bar", "ref:DK:cvr": "66082717", "ref:DK:cvr:pnummer": "1002224766"}}, {"type": "node", "id": 6837306986, "lat": 55.6758545, "lon": 12.5750111, "tags": {"amenity": "bar", "fvst:navnelbnr": "670172", "name": "Zefside", "ref:DK:cvr": "32768202", "ref:DK:cvr:pnummer": "1015903534"}}, {"type": "node", "id": 7692582438, "lat": 55.6806926, "lon": 12.5893772, "tags": {"amenity": "bar", "check_date": "2020-12-01", "name": "Caf\u00e9 Blomsten", "ref:DK:cvr": "20366680", "smoking": "yes"}}, {"type": "node", "id": 7704420213, "lat": 55.6816096, "lon": 12.5817854, "tags": {"amenity": "bar", "fvst:navnelbnr": "945780", "name": "Caf\u00e9 Dan Turell", "payment:credit_cards": "yes", "phone": "+45 4292 9627", "ref:DK:cvr": "40786120", "ref:DK:cvr:pnummer": "1025180387", "toilets": "yes", "website": "https://cafedanturell.dk/"}}, {"type": "node", "id": 7708040588, "lat": 55.6818091, "lon": 12.5827019, "tags": {"amenity": "bar", "drink:wine": "served", "fvst:navnelbnr": "943854", "name": "TAPS Winebar Copenhagen", "ref:DK:cvr": "40848886", "ref:DK:cvr:pnummer": "1025117944"}}, {"type": "node", "id": 7713115157, "lat": 55.6741647, "lon": 12.5698778, "tags": {"alt_name": "F\u00e6rgekroen Bryghus Bryggeri", "amenity": "bar", "fvst:navnelbnr": "982087", "microbrewery": "yes", "name": "F\u00e6rgekroen (Bryggeriet)", "ref:DK:cvr": "28223722", "ref:DK:cvr:pnummer": "1011064988", "seasonal": "summer"}}, {"type": "node", "id": 7741931221, "lat": 55.6839892, "lon": 12.5676699, "tags": {"amenity": "bar", "drink:wine": "served", "fvst:navnelbnr": "943976", "mapillary": "177505994675976", "name": "Vinum Historia", "opening_hours": "12:00-24:00", "ref:DK:cvr": "41284501", "ref:DK:cvr:pnummer": "1025725510", "website": "https://www.vinumhistoria.com/"}}, {"type": "node", "id": 7785159023, "lat": 55.6682632, "lon": 12.5615533, "tags": {"amenity": "bar", "branch": "K\u00f8dbyen", "fvst:name": "\u00c5ben SHG", "fvst:navnelbnr": "943430", "microbrewery": "yes", "name": "\u00c5ben", "opening_hours": "Mo-Su 12:00-24:00", "outdoor_seating": "yes", "ref:DK:cvr": "41277025", "ref:DK:cvr:pnummer": "1025715507", "website": "https://www.aabenbryg.com"}}, {"type": "node", "id": 7833009689, "lat": 55.669926, "lon": 12.558393, "tags": {"amenity": "bar", "contact:facebook": "http://www.facebook.com/1656cocktailbar", "contact:instagram": "https://www.instagram.com/1656cocktailbar/", "email": "hello@1656.dk", "fvst:navnelbnr": "951763", "indoor_seating": "yes", "name": "Cocktail Bar 1656", "opening_hours": "Su-We 18:00-01:00; Th 18:00-02:00; Fr 17:00-02:00; Sa 18:00-02:00", "outdoor_seating": "yes", "ref:DK:cvr": "35415688", "ref:DK:cvr:pnummer": "1019017180", "website": "http://cocktailkompagniet.dk/"}}, {"type": "node", "id": 7833198996, "lat": 55.664762, "lon": 12.599882, "tags": {"amenity": "bar", "fvst:navnelbnr": "942043", "name": "Bulleye", "opening_hours": "Tu-Th 16:00-22:00; Fr-Su 14:00-22:00", "phone": "+45 20738046", "ref:DK:cvr": "41066121", "ref:DK:cvr:pnummer": "1025407152"}}, {"type": "node", "id": 8090448341, "lat": 55.682092, "lon": 12.573523, "tags": {"amenity": "bar", "bar": "wine_bar", "drink:wine": "yes", "fvst:navnelbnr": "1285164", "name": "Melo Vinbar", "name:en": "Melo Wine Bar", "phone": "+45 23816459", "ref:DK:cvr": "43624997", "ref:DK:cvr:pnummer": "1028722768", "shop": "alcohol"}}, {"type": "node", "id": 8090448342, "lat": 55.68047, "lon": 12.582208, "tags": {"amenity": "bar", "fvst:navnelbnr": "951919", "name": "Cocktail Bar 1105", "ref:DK:cvr": "32344186", "ref:DK:cvr:pnummer": "1019028034"}}, {"type": "node", "id": 8107469773, "lat": 55.675785, "lon": 12.567133, "tags": {"amenity": "pub", "fvst:navnelbnr": "953627", "name": "Proud Mary", "phone": "+45 31341876", "ref:DK:cvr": "41215933", "website": "https://proudmarypub.dk/", "wheelchair": "limited"}}, {"type": "node", "id": 8109952209, "lat": 55.6821665, "lon": 12.5821748, "tags": {"amenity": "bar", "fvst:navnelbnr": "515812", "name": "Ibiza Beach Bar", "ref:DK:cvr": "33076401"}}, {"type": "node", "id": 8112044321, "lat": 55.6816061, "lon": 12.5843072, "tags": {"amenity": "bar", "fvst:navnelbnr": "638057", "name": "Aloha Beach Bar", "opening_hours": "Mo-We 18:00-03:00, Th 18:00-04:00, Fr-Sa 18:00-03:05", "phone": "+45 69692031", "ref:DK:cvr": "36402652", "website": "https://alohabeachbar.dk/"}}, {"type": "node", "id": 8112044325, "lat": 55.6727866, "lon": 12.6003087, "tags": {"amenity": "bar", "fvst:navnelbnr": "512128", "name": "Nemo Bar", "ref:DK:cvr": "14642285"}}, {"type": "node", "id": 8115001031, "lat": 55.662793, "lon": 12.591147, "tags": {"access:covid19": "private", "amenity": "bar", "fvst:navnelbnr": "735007", "name": "Roland Bar", "ref:DK:cvr": "34773041"}}, {"type": "node", "id": 8117585781, "lat": 55.667841, "lon": 12.57367, "tags": {"amenity": "bar", "fvst:navnelbnr": "936516", "name": "Svajerbar", "ref:DK:cvr": "26718899"}}, {"type": "node", "id": 8117585795, "lat": 55.6577524, "lon": 12.6064559, "tags": {"amenity": "bar", "fvst:navnelbnr": "118706", "name": "Caf\u00e9 Englandshus", "opening_hours": "Mo-Su 10:00-02:00", "ref:DK:cvr": "29683190"}}, {"type": "node", "id": 8117602438, "lat": 55.6817464, "lon": 12.58466, "tags": {"amenity": "bar", "fvst:navnelbnr": "516447", "name": "Stereo Bar", "ref:DK:cvr": "34711941"}}, {"type": "node", "id": 8117602439, "lat": 55.68209, "lon": 12.5824986, "tags": {"amenity": "bar", "fvst:navnelbnr": "638047", "indoor_seating": "yes", "name": "Rabalder Bar", "opening_hours": "15:00 -22:00; Fr-Sa 13:00-22:00", "outdoor_seating": "no", "phone": "+45 31737347", "ref:DK:cvr": "36953489", "website": "https://rabalderbar.dk/kobenhavn/"}}, {"type": "node", "id": 8117602443, "lat": 55.6777981, "lon": 12.5703019, "tags": {"amenity": "bar", "fvst:navnelbnr": "122006", "level": "1", "name": "Tyrolia", "ref:DK:cvr": "33244460"}}, {"type": "node", "id": 8117602444, "lat": 55.677814, "lon": 12.569832, "tags": {"amenity": "bar", "fvst:navnelbnr": "805559", "name": "Use Us", "operator": "\u00d8vrige engros-k\u00e6der", "ref:DK:cvr": "39964325", "website": "https://tapit.dk/"}}, {"type": "node", "id": 8117602447, "lat": 55.687525, "lon": 12.559342, "tags": {"amenity": "bar", "fvst:navnelbnr": "954601", "name": "Barbarian", "ref:DK:cvr": "41100729", "website": "https://barberianscph.com/"}}, {"type": "node", "id": 8119008300, "lat": 55.6593805, "lon": 12.6024967, "tags": {"amenity": "bar", "fvst:navnelbnr": "115213", "name": "Fair Play", "ref:DK:cvr": "20492546"}}, {"type": "node", "id": 8119008303, "lat": 55.6616273, "lon": 12.6074349, "tags": {"amenity": "bar", "fvst:navnelbnr": "1250394", "name": "Caf\u00e9 Josephine", "ref:DK:cvr": "43039822", "ref:DK:cvr:pnummer": "1027976596", "smoking": "yes"}}, {"type": "node", "id": 8119008305, "lat": 55.6644295, "lon": 12.6081392, "tags": {"amenity": "bar", "fvst:navnelbnr": "113126", "name": "Caf\u00e9 Guldhuset", "opening_hours": "Mo-Su 15:00-22:00", "ref:DK:cvr": "27207308"}}, {"type": "node", "id": 8119069621, "lat": 55.682048, "lon": 12.582457, "tags": {"amenity": "bar", "fvst:name": "Gothersgade 33A", "fvst:navnelbnr": "121527", "name": "Alpehytten", "phone": "+45 31482885", "ref:DK:cvr": "33149948", "website": "http://www.alpe-hytten.dk/"}}, {"type": "node", "id": 8119069626, "lat": 55.6811217, "lon": 12.584053, "tags": {"amenity": "bar", "fvst:navnelbnr": "907023", "indoor_seating": "yes", "name": "Kongens bar", "opening_hours": "Tu-Th 15:00-01:00, Fr,Sa 15:00-03:00; Su,Mo off", "outdoor_seating": "no", "ref:DK:cvr": "39980177", "smoking": "yes", "wheelchair": "no"}}, {"type": "node", "id": 8119069628, "lat": 55.6718348, "lon": 12.5626038, "tags": {"amenity": "bar", "check_date": "2023-04-02", "fvst:navnelbnr": "567578", "name": "Good Morning City Copenhagen Star Bar", "ref:DK:cvr": "33580037"}}, {"type": "node", "id": 8124949019, "lat": 55.688107, "lon": 12.561284, "tags": {"amenity": "bar", "fvst:navnelbnr": "117693", "name": "N\u00f8rrebro Teater Bar", "ref:DK:cvr": "16148245"}}, {"type": "node", "id": 8124949020, "lat": 55.6818909, "lon": 12.5592724, "tags": {"amenity": "bar", "fvst:navnelbnr": "905878", "name": "GL24 S\u00f8pavillonen", "ref:DK:cvr": "39911558"}}, {"type": "node", "id": 8124949021, "lat": 55.678374, "lon": 12.587563, "tags": {"amenity": "bar", "fvst:navnelbnr": "717035", "name": "Tata bar", "ref:DK:cvr": "36945184", "website": "https://hotelsanders.com/tatacocktailbar/"}}, {"type": "node", "id": 8124949025, "lat": 55.679342, "lon": 12.57629, "tags": {"amenity": "bar", "fvst:navnelbnr": "802955", "name": "Voodoo", "ref:DK:cvr": "36417935", "website": "https://voodoo-lounge.dk/"}}, {"type": "node", "id": 8124949026, "lat": 55.6765698, "lon": 12.5745614, "tags": {"amenity": "bar", "fvst:navnelbnr": "794636", "name": "Galathea Dybet", "ref:DK:cvr": "37610720"}}, {"type": "node", "id": 8124949030, "lat": 55.6732198, "lon": 12.5554902, "tags": {"amenity": "bar", "check_date": "2023-04-01", "fvst:navnelbnr": "112993", "name": "Det Ny Teater Bar 1 balkonplan", "ref:DK:cvr": "17741039"}}, {"type": "node", "id": 8130361811, "lat": 55.6670444, "lon": 12.5571596, "tags": {"amenity": "bar", "fvst:navnelbnr": "803351", "name": "Scandic K\u00f8dbyen Baren", "operator": "Scandic Hotels", "ref:DK:cvr": "12596774"}}, {"type": "node", "id": 8133042254, "lat": 55.687938, "lon": 12.554122, "tags": {"amenity": "bar", "fvst:navnelbnr": "516858", "name": "Trabi Bar", "ref:DK:cvr": "34623287", "ref:DK:cvr:pnummer": "1017835358"}}, {"type": "node", "id": 8137328708, "lat": 55.6545648, "lon": 12.6118398, "tags": {"amenity": "bar", "fvst:navnelbnr": "924250", "name": "Caf\u00e9 H\u00f8jden", "ref:DK:cvr": "38908790", "ref:DK:cvr:pnummer": "1022808040", "smoking": "yes"}}, {"type": "node", "id": 8137328711, "lat": 55.6672646, "lon": 12.5857953, "tags": {"amenity": "bar", "fvst:navnelbnr": "539636", "name": "Radisson Blu Scandinavia Hotel Red 7 Bar", "ref:DK:cvr": "35255109", "ref:DK:cvr:pnummer": "1018543636"}}, {"type": "node", "id": 8137334217, "lat": 55.684718, "lon": 12.564939, "tags": {"amenity": "bar", "fvst:navnelbnr": "113452", "name": "Hotel Kong Arthur Baren", "ref:DK:cvr": "75612419", "ref:DK:cvr:pnummer": "1002465170", "website": "https://www.arthurhotels.dk/dk/hotel-kong-arthur/mad-drikke/baren/"}}, {"type": "node", "id": 8139020148, "lat": 55.6708454, "lon": 12.5584234, "tags": {"amenity": "bar", "fvst:navnelbnr": "918720", "name": "Die Strafbar", "ref:DK:cvr": "39602458", "ref:DK:cvr:pnummer": "1024897881"}}, {"type": "node", "id": 8140256632, "lat": 55.6690236, "lon": 12.552327, "tags": {"amenity": "bar", "check_date": "2023-05-05", "fvst:navnelbnr": "122957", "name": "Simpelt V", "opening_hours": "18:00-02:00,We 18:00-03:00,Fr-Sa 15:00-05:00, Su 17:00-02:00", "ref:DK:cvr": "33050860", "ref:DK:cvr:pnummer": "1016274719", "website": "https://simpeltv.dk/"}}, {"type": "node", "id": 8141496993, "lat": 55.67961, "lon": 12.576044, "tags": {"amenity": "bar", "fvst:navnelbnr": "112895", "name": "Peder Oxe Vink\u00e6lderen", "ref:DK:cvr": "26119243", "ref:DK:cvr:pnummer": "1003206635"}}, {"type": "node", "id": 8144238928, "lat": 55.672427, "lon": 12.557519, "tags": {"amenity": "bar", "brewery": "Refsvindinge", "check_date": "2023-04-02", "drink:beer": "served", "fvst:navnelbnr": "550794", "name": "Dia'legd", "opening_hours": "Th 17:00-24:00, Fr 16:00-02:00, Sa 15:00-02:00", "phone": "+45 20676583", "ref:DK:cvr": "35477292", "ref:DK:cvr:pnummer": "1018764705", "website": "http://dialegd.dk/"}}, {"type": "node", "id": 8144238930, "lat": 55.6732055, "lon": 12.5554754, "tags": {"amenity": "bar", "check_date": "2023-04-01", "fvst:navnelbnr": "113055", "name": "Det Ny Teater Bar 2 parketplan", "ref:DK:cvr": "17741039", "ref:DK:cvr:pnummer": "1001350203"}}, {"type": "node", "id": 8144238933, "lat": 55.6784007, "lon": 12.5687681, "tags": {"amenity": "bar", "check_date": "2023-04-19", "fvst:navnelbnr": "113034", "lgbtq": "primary", "name": "COSY BAR", "ref:DK:cvr": "15734531", "ref:DK:cvr:pnummer": "1000969333", "website": "https://www.cosybar.dk/"}}, {"type": "node", "id": 8144347980, "lat": 55.680729, "lon": 12.589781, "tags": {"amenity": "bar", "fvst:navnelbnr": "962479", "name": "Nyhavns Champagnebodega", "ref:DK:cvr": "40493549", "ref:DK:cvr:pnummer": "1024674181"}}, {"type": "node", "id": 8146445532, "lat": 55.661655, "lon": 12.610258, "tags": {"amenity": "bar", "fvst:navnelbnr": "670167", "name": "Postbodegaen", "ref:DK:cvr": "52666155", "ref:DK:cvr:pnummer": "1019682044", "smoking": "yes"}}, {"type": "node", "id": 8146445535, "lat": 55.6663302, "lon": 12.6120932, "tags": {"amenity": "bar", "fvst:name": "V\u00c6RTSHUS;CAPRI/HOLMBLADET-BODEGA", "fvst:navnelbnr": "927613", "name": "Holmbladet", "opening_hours": "Su-Mo 12:00-00:00; Tu-Th 12:00-02:00; Fr-Sa 12:00-03:00", "ref:DK:cvr": "37604410", "ref:DK:cvr:pnummer": "1021347481", "website": "https://holmbladet.dk/"}}, {"type": "node", "id": 8146445536, "lat": 55.65831, "lon": 12.608439, "tags": {"amenity": "bar", "description": "Big beer selection, bottle or draft", "drink:beer": "served", "fvst:navnelbnr": "913147", "name": "Blue Raven", "opening_hours": "Tu-Sa 15:00-22:00; Su-Mo off", "opening_hours:covid19": "off", "ref:DK:cvr": "39823705", "ref:DK:cvr:pnummer": "1023910787", "website": "http://www.blueravenbar.dk/"}}, {"type": "node", "id": 8146827279, "lat": 55.6732954, "lon": 12.5714839, "tags": {"amenity": "bar", "fvst:navnelbnr": "936384", "name": "Churros", "ref:DK:cvr": "10404916", "ref:DK:cvr:pnummer": "1002894451"}}, {"type": "node", "id": 8158377269, "lat": 55.6713715, "lon": 12.5600529, "tags": {"amenity": "bar", "check_date": "2023-04-05", "fvst:navnelbnr": "722039", "name": "Hats Boots & Bourbon", "phone": "+45 91821908", "ref:DK:cvr": "38643762", "ref:DK:cvr:pnummer": "1022446262", "shop": "clothes", "website": "https://hatsbootsbourbon.com/"}}, {"type": "node", "id": 8162242504, "lat": 55.6732342, "lon": 12.5554496, "tags": {"amenity": "bar", "check_date": "2023-04-01", "fvst:navnelbnr": "113522", "name": "Det Ny Teater Bar 1", "ref:DK:cvr": "17741039", "ref:DK:cvr:pnummer": "1001350203"}}, {"type": "node", "id": 8165451528, "lat": 55.6732372, "lon": 12.5554976, "tags": {"amenity": "bar", "check_date": "2023-04-01", "fvst:navnelbnr": "113593", "name": "Det Ny Teater Bar 2 balkonplan", "ref:DK:cvr": "17741039", "ref:DK:cvr:pnummer": "1001350203"}}, {"type": "node", "id": 8168142117, "lat": 55.6731526, "lon": 12.5666068, "tags": {"amenity": "bar", "fvst:navnelbnr": "115785", "name": "Smugkroen", "ref:DK:cvr": "10404916", "ref:DK:cvr:pnummer": "1002894451"}}, {"type": "node", "id": 8184307396, "lat": 55.6596717, "lon": 12.6061264, "tags": {"amenity": "bar", "fvst:navnelbnr": "667449", "name": "Old Irish Pub Amagerbrogade", "phone": "+45 28401601", "ref:DK:cvr": "35028692", "ref:DK:cvr:pnummer": "1021427620", "website": "https://oldirishpub.dk/pub/amager/"}}, {"type": "node", "id": 8184307398, "lat": 55.657739, "lon": 12.58859, "tags": {"access": "customers", "amenity": "bar", "fvst:navnelbnr": "962319", "name": "Danmarks Radio DR-Byen", "ref:DK:cvr": "62786515", "ref:DK:cvr:pnummer": "1008875630"}}, {"type": "node", "id": 8184307408, "lat": 55.6732293, "lon": 12.555517, "tags": {"amenity": "bar", "check_date": "2023-04-01", "fvst:navnelbnr": "112150", "name": "Det Ny Teater Bar 2", "ref:DK:cvr": "17741039", "ref:DK:cvr:pnummer": "1001350203"}}, {"type": "node", "id": 8185482851, "lat": 55.6674446, "lon": 12.5857524, "tags": {"amenity": "bar", "fvst:navnelbnr": "539631", "name": "Radisson Blu Scandinavia Hotel Bus Stop Bar", "ref:DK:cvr": "35255109", "ref:DK:cvr:pnummer": "1018543636"}}, {"type": "node", "id": 8185482852, "lat": 55.6627137, "lon": 12.5893639, "tags": {"access": "private", "amenity": "bar", "fvst:navnelbnr": "735008", "name": "TORS / BARstionen", "ref:DK:cvr": "38103199", "ref:DK:cvr:pnummer": "1021832185"}}, {"type": "node", "id": 8194350862, "lat": 55.6748826, "lon": 12.5637546, "tags": {"alt_name": "Radisson Blu Royal Hotel Cafe Royal", "amenity": "bar", "fvst:navnelbnr": "539449", "name": "Radisson Blu Royal Hotel Hotel Bar", "operator": "Radisson Blu", "ref:DK:cvr": "35255095", "ref:DK:cvr:pnummer": "1018543628"}}, {"type": "node", "id": 8194597733, "lat": 55.6732077, "lon": 12.5554895, "tags": {"amenity": "bar", "check_date": "2023-04-01", "fvst:navnelbnr": "646042", "name": "Det Ny Teater Bar k\u00e6lder", "ref:DK:cvr": "17741039", "ref:DK:cvr:pnummer": "1001350203"}}, {"type": "node", "id": 8200275553, "lat": 55.6771747, "lon": 12.5757653, "tags": {"amenity": "bar", "fvst:navnelbnr": "956870", "name": "C\u00f3cteles Copenhagen", "phone": "+45 42942672", "takeaway": "only", "website": "https://xn--cctelescopenhagen-gyb.com/"}}, {"type": "node", "id": 8200275556, "lat": 55.677264, "lon": 12.569676, "tags": {"amenity": "bar", "fvst:navnelbnr": "961585", "name": "Hugos Strandbar", "opening_hours": "Th 20:00-03:00, Fr-Sa 20:00-05:00", "phone": "+45 81813305", "ref:DK:cvr": "39475391", "ref:DK:cvr:pnummer": "1026208390", "website": "http://tequilabar.dk/"}}, {"type": "node", "id": 8200275557, "lat": 55.673224, "lon": 12.55546, "tags": {"amenity": "bar", "check_date": "2023-04-01", "fvst:navnelbnr": "113521", "name": "Det Ny Teater Bar 1 parketplan", "ref:DK:cvr": "17741039", "ref:DK:cvr:pnummer": "1001350203"}}, {"type": "node", "id": 8200381042, "lat": 55.681228, "lon": 12.579438, "tags": {"amenity": "bar", "fvst:navnelbnr": "961582", "name": "R\u00e6vens Bar", "opening_hours": "15:00+,Su-Mo off", "phone": "+45 81813306", "ref:DK:cvr": "39913992", "ref:DK:cvr:pnummer": "1025979881", "website": "http://raevensbar.dk/"}}, {"type": "node", "id": 8204073348, "lat": 55.687674, "lon": 12.559516, "tags": {"amenity": "bar", "fvst:navnelbnr": "955713", "name": "Torobar", "opening_hours": "11:00-24:00; Fr-Sa 11:00-02:00", "ref:DK:cvr": "39516942", "ref:DK:cvr:pnummer": "1023557505", "website": "http://torobar.dk/"}}, {"type": "node", "id": 8205379977, "lat": 55.681017, "lon": 12.590068, "tags": {"amenity": "bar", "bar": "cocktail", "drink:cocktail": "served", "fvst:navnelbnr": "944386", "name": "The Union Local", "phone": "+45 42666931", "ref:DK:cvr": "40883436", "ref:DK:cvr:pnummer": "1025163202", "website": "https://www.theunionkitchen.dk/local"}}, {"type": "node", "id": 8207872776, "lat": 55.659827, "lon": 12.610603, "tags": {"amenity": "bar", "fvst:navnelbnr": "937749", "name": "Cafe Sundet", "ref:DK:cvr": "34469091", "ref:DK:cvr:pnummer": "1017582263", "smoking": "yes", "sport": "billiards"}}, {"type": "node", "id": 8211567574, "lat": 55.6742078, "lon": 12.5660833, "tags": {"amenity": "bar", "fvst:navnelbnr": "960253", "name": "Gl\u00f8gg og Hygge", "ref:DK:cvr": "31863570", "ref:DK:cvr:pnummer": "1019327708", "seasonal": "winter"}}, {"type": "node", "id": 8214134206, "lat": 55.6745058, "lon": 12.5657286, "tags": {"amenity": "bar", "fvst:navnelbnr": "930991", "name": "Mr. Snowmans hotdrinks", "ref:DK:cvr": "31863570", "ref:DK:cvr:pnummer": "1019327708"}}, {"type": "node", "id": 8227922735, "lat": 55.6739216, "lon": 12.5687429, "tags": {"amenity": "bar", "fvst:navnelbnr": "745430", "name": "Orangeriet Bar", "ref:DK:cvr": "10404916", "ref:DK:cvr:pnummer": "1002894451"}}, {"type": "node", "id": 8485655410, "lat": 55.6572408, "lon": 12.5890611, "tags": {"amenity": "bar", "check_date:opening_hours": "2022-10-04", "name": "Klangbar", "opening_hours:covid19": "closed", "opening_hours:signed": "no"}}, {"type": "node", "id": 8486140275, "lat": 55.6851195, "lon": 12.5527485, "tags": {"amenity": "pub", "fvst:navnelbnr": "1144337", "name": "Sorte Ren\u00e9", "ref:DK:cvr": "36973595", "ref:DK:cvr:pnummer": "1020601635"}}, {"type": "node", "id": 8996786725, "lat": 55.6780474, "lon": 12.59642, "tags": {"amenity": "bar", "fvst:navnelbnr": "749451", "name": "Cocktail & Drinks", "ref:DK:cvr": "38588567", "ref:DK:cvr:pnummer": "1022383082", "seasonal": "summer"}}, {"type": "node", "id": 8996823349, "lat": 55.677788, "lon": 12.5970218, "tags": {"alt_name": "VIN BAR", "amenity": "bar", "drink:wine": "yes", "fvst:navnelbnr": "749453", "name": "Wine Bar", "ref:DK:cvr": "38588567", "ref:DK:cvr:pnummer": "1022383082", "seasonal": "summer"}}, {"type": "node", "id": 9033531389, "lat": 55.6778848, "lon": 12.5972314, "tags": {"amenity": "bar", "fvst:navnelbnr": "749455", "name": "MAIN BAR", "ref:DK:cvr": "38588567", "ref:DK:cvr:pnummer": "1022383082", "seasonal": "summer"}}, {"type": "node", "id": 9033531390, "lat": 55.6778129, "lon": 12.5974989, "tags": {"amenity": "bar", "drink:beer": "yes", "fvst:navnelbnr": "749456", "name": "\u00d8L BAR", "ref:DK:cvr": "38588567", "ref:DK:cvr:pnummer": "1022383082", "seasonal": "summer"}}, {"type": "node", "id": 9084229145, "lat": 55.6690654, "lon": 12.5533155, "tags": {"amenity": "bar", "drink:wine": "yes", "fvst:navnelbnr": "951819", "name": "Malbeck vinbar", "ref:DK:cvr": "41086564", "ref:DK:cvr:pnummer": "1025455920"}}, {"type": "node", "id": 9084281057, "lat": 55.673578, "lon": 12.599871, "tags": {"alt_name": "Naqqa", "amenity": "bar", "fvst:navnelbnr": "982781", "name": "Caf\u00e9 Inuit", "ref:DK:cvr": "36240598", "ref:DK:cvr:pnummer": "1026073797"}}, {"type": "node", "id": 9087814780, "lat": 55.6661693, "lon": 12.5660401, "tags": {"amenity": "bar", "fvst:navnelbnr": "564822", "name": "Hotel Tivoli Congress Center Lobbybar", "ref:DK:cvr": "54399219", "ref:DK:cvr:pnummer": "1015847111"}}, {"type": "node", "id": 9091138280, "lat": 55.6686644, "lon": 12.5595224, "tags": {"amenity": "bar", "fvst:navnelbnr": "988377", "name": "Tranquilo", "opening_hours": "15:00-24:00, Fr-Sa 15:00-02:00, Su-Tu off", "operator": "N\u00e6rv\u00e6r", "ref:DK:cvr": "37834246", "ref:DK:cvr:pnummer": "1026680251", "website": "https://tranquilo.naervaer.dk/"}}, {"type": "node", "id": 9091517115, "lat": 55.6703004, "lon": 12.5566439, "tags": {"amenity": "bar", "drink:cider": "yes", "fvst:navnelbnr": "719393", "name": "Holm Cider", "opening_hours": "Tu-Th 14:00-23:00; Fr 14:00-24:00; Sa 12:00-24:00", "ref:DK:cvr": "37601365", "ref:DK:cvr:pnummer": "1021323264", "shop": "alcohol", "website": "https://holmcider.dk/"}}, {"type": "node", "id": 9091818725, "lat": 55.6710387, "lon": 12.5612913, "tags": {"amenity": "bar", "branch": "Halmtorvet", "description": "ginbar", "drink:gin": "yes", "fvst:navnelbnr": "993561", "name": "Two Socks", "opening_hours": "16:00-24:00, Fr-Sa 12:00-02:00; Su off", "ref:DK:cvr": "42351571", "ref:DK:cvr:pnummer": "1027136512", "website": "https://two-socks.dk/"}}, {"type": "node", "id": 9091818726, "lat": 55.6713509, "lon": 12.5540875, "tags": {"amenity": "bar", "fvst:navnelbnr": "551577", "name": "Kanon Bar", "ref:DK:cvr": "35741763", "ref:DK:cvr:pnummer": "1019254158"}}, {"type": "node", "id": 9094792907, "lat": 55.6735178, "lon": 12.5668344, "tags": {"amenity": "bar", "branch": "Tivoli", "fvst:navnelbnr": "983704", "name": "Nohrlund Bar", "ref:DK:cvr": "10404916", "ref:DK:cvr:pnummer": "1002894451"}}, {"type": "node", "id": 9094826517, "lat": 55.6728603, "lon": 12.5668469, "tags": {"amenity": "bar", "drink:beer": "yes", "fvst:navnelbnr": "993168", "name": "Anarkist", "ref:DK:cvr": "10404916", "ref:DK:cvr:pnummer": "1002894451"}}, {"type": "node", "id": 9101761999, "lat": 55.6837353, "lon": 12.5665529, "tags": {"amenity": "bar", "fvst:navnelbnr": "983999", "name": "Censuum", "ref:DK:cvr": "42084646", "ref:DK:cvr:pnummer": "1026758293", "shop": "clothes", "website": "https://www.censuum.dk/"}}, {"type": "node", "id": 9101970216, "lat": 55.6853486, "lon": 12.5690851, "tags": {"amenity": "bar", "fvst:navnelbnr": "992941", "name": "Chums", "ref:DK:cvr": "42380156", "ref:DK:cvr:pnummer": "1027151678"}}, {"type": "node", "id": 9102016626, "lat": 55.6836454, "lon": 12.5698768, "tags": {"amenity": "bar", "description": "low-alcoholic drinks", "fvst:navnelbnr": "993911", "name": "Pavillion De Verre", "ref:DK:cvr": "39707799", "ref:DK:cvr:pnummer": "1026528891"}}, {"type": "node", "id": 9109551235, "lat": 55.6803066, "lon": 12.5948097, "tags": {"amenity": "bar", "fvst:navnelbnr": "1109560", "name": "Skuespilhuset Pausebar", "ref:DK:cvr": "10842255", "ref:DK:cvr:pnummer": "1013080417"}}, {"type": "node", "id": 9110835344, "lat": 55.672712, "lon": 12.55484, "tags": {"amenity": "bar", "cuisine": "tapas", "description": "vinbar", "drink:wine": "yes", "fvst:navnelbnr": "713429", "name": "PioVin", "ref:DK:cvr": "38833545", "ref:DK:cvr:pnummer": "1022722189", "website": "http://www.piovin.dk/"}}, {"type": "node", "id": 9156264741, "lat": 55.6820313, "lon": 12.6018253, "tags": {"amenity": "bar", "fvst:navnelbnr": "1109561", "name": "Operaen Pausebar", "ref:DK:cvr": "10842255", "ref:DK:cvr:pnummer": "1011130980"}}, {"type": "node", "id": 9157404750, "lat": 55.6794264, "lon": 12.5861867, "tags": {"amenity": "bar", "branch": "Gammel Scene", "fvst:name": "DET KONGELIGE TEATER- Gl.Scene Pausebar", "fvst:navnelbnr": "1109562", "name": "Pausebar", "ref:DK:cvr": "10842255", "ref:DK:cvr:pnummer": "1003404492", "source": "AWS Web API"}}, {"type": "node", "id": 9157557636, "lat": 55.6789186, "lon": 12.5706142, "tags": {"amenity": "bar", "description": "Champagne & Cocktail bar", "drink:cocktails": "yes", "fvst:navnelbnr": "985940", "name": "Kester Thomas", "opening_hours": "18:00-24:00; Mo-Tu off; Fr 16:00-02:00; Sa 18:00-02:00", "ref:DK:cvr": "37345210", "ref:DK:cvr:pnummer": "1021030151", "website": "https://kesterthomas.com/"}}, {"type": "node", "id": 9159589169, "lat": 55.677625, "lon": 12.5664495, "tags": {"amenity": "bar", "check_date:opening_hours": "2022-07-25", "fvst:navnelbnr": "969462", "name": "Two Socks V", "opening_hours:signed": "no", "ref:DK:cvr": "41599251", "ref:DK:cvr:pnummer": "1026163664", "website": "https://two-socks.dk/"}}, {"type": "node", "id": 9173401696, "lat": 55.6840689, "lon": 12.5680688, "tags": {"amenity": "bar", "fvst:navnelbnr": "987197", "name": "Wiine", "ref:DK:cvr": "42269603", "ref:DK:cvr:pnummer": "1026981294"}}, {"type": "node", "id": 9283850285, "lat": 55.6843239, "lon": 12.563753, "tags": {"amenity": "bar", "check_date": "2022-11-02", "fvst:navnelbnr": "701789", "level": "-1", "name": "Vintage Champagne", "outdoor_seating": "no", "phone": "+45 71747416", "ref:DK:cvr": "36550562", "ref:DK:cvr:pnummer": "1020182179", "website": "https://www.champagnekaelderen.dk/", "wheelchair": "no"}}, {"type": "node", "id": 9350660864, "lat": 55.678085, "lon": 12.5803526, "tags": {"amenity": "pub", "fvst:navnelbnr": "1010686", "name": "Social Pub", "outdoor_seating": "yes", "phone": "+45 24444766", "ref:DK:cvr": "42318272", "ref:DK:cvr:pnummer": "1027075378", "website": "https://thesocialpub.dk/"}}, {"type": "node", "id": 9351196036, "lat": 55.671432, "lon": 12.558422, "tags": {"amenity": "bar", "fvst:navnelbnr": "975254", "name": "Gin-D", "ref:DK:cvr": "41872179", "ref:DK:cvr:pnummer": "1026499573"}}, {"type": "node", "id": 9352875895, "lat": 55.6686296, "lon": 12.5608903, "tags": {"amenity": "bar", "fvst:navnelbnr": "1110000", "name": "K\u00f8dbyens Baghave", "outdoor_seating": "only", "ref:DK:cvr": "35047026", "ref:DK:cvr:pnummer": "1018291106", "seasonal": "summer"}}, {"type": "node", "id": 9585572020, "lat": 55.6674433, "lon": 12.5550445, "tags": {"amenity": "bar", "description": "Cozy bodega with cheap beers. Also has a pool table", "email": "cafesommersted@gmail.com", "fvst:name": "M.Q.", "fvst:navnelbnr": "1115454", "indoor_seating": "yes", "name": "Cafe Sommersted", "opening_hours": "Th 17:00-02:00; Fr-Sa 17:00-05:00", "outdoor_seating": "no", "ref:DK:cvr": "38245090", "ref:DK:cvr:pnummer": "1026722566"}}, {"type": "node", "id": 9618862255, "lat": 55.6864499, "lon": 12.58738, "tags": {"amenity": "bar", "fvst:navnelbnr": "1216517", "name": "Borgerly", "ref:DK:cvr": "42308927", "ref:DK:cvr:pnummer": "1027729823", "smoking": "yes"}}, {"type": "node", "id": 9642607404, "lat": 55.674319, "lon": 12.5652897, "tags": {"amenity": "bar", "fvst:navnelbnr": "1202189", "name": "Elis Ristede Kastanjer", "ref:DK:cvr": "39662884", "ref:DK:cvr:pnummer": "1023735268"}}, {"type": "node", "id": 9642934828, "lat": 55.68224, "lon": 12.5725521, "tags": {"amenity": "bar", "fvst:navnelbnr": "1221485", "name": "Rosengaardens Vinstue", "opening_hours": "16:00-24:00; Fr 14:00-24:00; Sa 12:00-24:00; Su-Mo off", "phone": "+45 69692034", "ref:DK:cvr": "31625246", "ref:DK:cvr:pnummer": "1027413168", "smoking": "yes", "website": "http://rosengaardensvinstue.dk/"}}, {"type": "node", "id": 9642934833, "lat": 55.6750431, "lon": 12.5722773, "tags": {"amenity": "bar", "fvst:navnelbnr": "1217346", "name": "La Bonita", "ref:DK:cvr": "28100019", "ref:DK:cvr:pnummer": "1010740572"}}, {"type": "node", "id": 9645254584, "lat": 55.6787997, "lon": 12.5698363, "tags": {"amenity": "bar", "drink:cocktail": "yes", "fvst:navnelbnr": "1012973", "name": "Blume", "opening_hours": "Fr-Sa 20:00-05:00", "phone": "+45 60617158", "ref:DK:cvr": "37038830", "ref:DK:cvr:pnummer": "1020676147", "website": "https://blumecph.dk/"}}, {"type": "node", "id": 9645254585, "lat": 55.677945, "lon": 12.568094, "tags": {"amenity": "bar", "fvst:navnelbnr": "955617", "name": "Kiss kiss", "ref:DK:cvr": "39876280", "ref:DK:cvr:pnummer": "1023971085"}}, {"type": "node", "id": 9645439914, "lat": 55.6784134, "lon": 12.57201, "tags": {"amenity": "bar", "fvst:navnelbnr": "1010747", "name": "Sukkerbageren", "ref:DK:cvr": "40732195", "ref:DK:cvr:pnummer": "1024965658"}}, {"type": "node", "id": 9760429115, "lat": 55.6777799, "lon": 12.5746193, "tags": {"alt_name": "The Mirror", "amenity": "bar", "drink:cocktail": "yes", "fvst:navnelbnr": "662256", "name": "Alo\u00eb", "opening_hours": "Th-Sa 20:00-03:00", "ref:DK:cvr": "36556110", "ref:DK:cvr:pnummer": "1020239294", "website": "https://aloecocktailbar.com/"}}, {"type": "node", "id": 9760636342, "lat": 55.670982, "lon": 12.558493, "tags": {"amenity": "bar", "fvst:navnelbnr": "989220", "name": "Luna Cocktailbar", "ref:DK:cvr": "38712853", "ref:DK:cvr:pnummer": "1027107237"}}, {"type": "node", "id": 9777920489, "lat": 55.655179, "lon": 12.5605662, "tags": {"amenity": "bar", "fvst:navnelbnr": "1227616", "name": "Anl\u00f8bet - F & B Engholmene", "ref:DK:cvr": "42137960", "ref:DK:cvr:pnummer": "1027343909"}}, {"type": "node", "id": 9777932856, "lat": 55.6554279, "lon": 12.560771, "tags": {"amenity": "bar", "fvst:navnelbnr": "1227607", "name": "Klase - F & B Engholmene", "ref:DK:cvr": "42137960", "ref:DK:cvr:pnummer": "1027343852", "website": "https://klasevinbar.superbexperience.com/"}}, {"type": "node", "id": 10055230052, "lat": 55.6789932, "lon": 12.570719, "tags": {"amenity": "bar", "cocktails": "yes", "email": "kbh@bar7.dk", "fvst:navnelbnr": "714366", "opening_hours": "We,Th,Sa 18:00-02:00; Fr 16:00-02:00", "outdoor_seating": "no", "phone": "+45 31 73 73 64", "ref:DK:cvr": "38631578", "ref:DK:cvr:pnummer": "1022432628", "website": "http://www.bar7.dk/"}}, {"type": "node", "id": 10722048056, "lat": 55.68005, "lon": 12.548711, "tags": {"amenity": "bar", "fvst:navnelbnr": "1227750", "name": "Rascal", "opening_hours": "16:00-23:00; Fr-Sa 15:00-24:00; Su-Mo off", "ref:DK:cvr": "43096958", "ref:DK:cvr:pnummer": "1028047122", "website": "https://rascalcph.dk/"}}, {"type": "node", "id": 10790371330, "lat": 55.6787418, "lon": 12.5675146, "tags": {"amenity": "bar", "cuisine": "cocktails", "fvst:navnelbnr": "1221668", "name": "Gaia Cocktails", "ref:DK:cvr": "42950254", "ref:DK:cvr:pnummer": "1027867940"}}, {"type": "node", "id": 10790585416, "lat": 55.679382, "lon": 12.574895, "tags": {"amenity": "bar", "fvst:navnelbnr": "1276910", "name": "Statler & Waldorf - Lukes", "ref:DK:cvr": "42149837", "ref:DK:cvr:pnummer": "1026833457"}}, {"type": "node", "id": 10790595109, "lat": 55.6837853, "lon": 12.571729, "tags": {"amenity": "bar", "fvst:navnelbnr": "1251571", "level": "6", "name": "Level six Bar", "ref:DK:cvr": "12596774", "ref:DK:cvr:pnummer": "1025614999"}}, {"type": "node", "id": 10807009231, "lat": 55.6768422, "lon": 12.561147, "tags": {"amenity": "bar", "fvst:navnelbnr": "1256760", "name": "Kolme", "ref:DK:cvr": "32560709", "ref:DK:cvr:pnummer": "1028661998", "website": "https://www.kolmekbh.dk/"}}, {"type": "node", "id": 10807087539, "lat": 55.6789488, "lon": 12.5707286, "tags": {"amenity": "bar", "drink:cocktails": "yes", "fvst:navnelbnr": "714366", "name": "Bar 7", "opening_hours": "18:00-02:00 , Fr 16:00-04:00, Sa 18:00-04:00, Su-We off", "phone": "+45 31737364", "ref:DK:cvr": "38631578", "ref:DK:cvr:pnummer": "1022432628", "website": "https://bar7.dk/"}}, {"type": "node", "id": 10808075090, "lat": 55.6863168, "lon": 12.5505493, "tags": {"amenity": "bar", "fvst:navnelbnr": "1278864", "name": "Bootleggers N\u00f8rrebro", "ref:DK:cvr": "43465279", "ref:DK:cvr:pnummer": "1028513506"}}, {"type": "node", "id": 10809180284, "lat": 55.6676262, "lon": 12.54848, "tags": {"amenity": "bar", "fvst:navnelbnr": "1269032", "name": "Bar 109 Vesterbro", "ref:DK:cvr": "43278711", "ref:DK:cvr:pnummer": "1028273289"}}, {"type": "node", "id": 10828202003, "lat": 55.6738027, "lon": 12.5708164, "tags": {"amenity": "bar", "fvst:navnelbnr": "1255553", "name": "Viftens Gl\u00f8gghus", "ref:DK:cvr": "10404916", "ref:DK:cvr:pnummer": "1002894451", "seasonal": "christmas"}}, {"type": "node", "id": 10835692124, "lat": 55.6566443, "lon": 12.6089874, "tags": {"amenity": "bar", "fvst:navnelbnr": "1269994", "name": "Kjaff Bar", "ref:DK:cvr": "43540858", "ref:DK:cvr:pnummer": "1028611990"}}, {"type": "node", "id": 10839411811, "lat": 55.6705723, "lon": 12.5582469, "tags": {"amenity": "bar", "fvst:navnelbnr": "1284616", "name": "Sangu Meu", "ref:DK:cvr": "32588735", "ref:DK:cvr:pnummer": "1027792010"}}, {"type": "node", "id": 10839411812, "lat": 55.670575, "lon": 12.558256, "tags": {"amenity": "bar", "cuisine": "charcuterie", "drink:wine": "yes", "fvst:navnelbnr": "1279297", "name": "Vesterhus Wine & Charcuterie", "opening_hours": "15:30-23:00 ; Fr-Sa 15:30-24:00 ; Su-Mo off", "phone": "+45 30143099", "ref:DK:cvr": "43552953", "ref:DK:cvr:pnummer": "1028628222", "website": "https://vesterhus.dk/"}}, {"type": "node", "id": 10839839384, "lat": 55.6742587, "lon": 12.5591944, "tags": {"amenity": "bar", "description": "champagnebar", "drink:champagne": "yes", "fvst:navnelbnr": "1249800", "name": "Tirage Champagne Bar", "opening_hours": "16:00-22:00; Fr-Sa 15:00-24:00; Su 15:00-22:00", "phone": "+45 60590957", "ref:DK:cvr": "43108999", "ref:DK:cvr:pnummer": "1028061478", "website": "https://tiragechampagnebar.com/"}}, {"type": "node", "id": 10909820003, "lat": 55.67226, "lon": 12.6083391, "tags": {"amenity": "bar", "fvst:navnelbnr": "1272250", "name": "Kl\u00f8vermarkens Cafe", "ref:DK:cvr": "29951683", "ref:DK:cvr:pnummer": "1028399568"}}, {"type": "node", "id": 10918330226, "lat": 55.6651914, "lon": 12.6065557, "tags": {"amenity": "bar", "cuisine": "tapas", "fvst:navnelbnr": "1114488", "name": "Amarkaner", "ref:DK:cvr": "42641367", "ref:DK:cvr:pnummer": "1027489229", "shop": "gift"}}, {"type": "node", "id": 10918330250, "lat": 55.6789247, "lon": 12.5706335, "tags": {"amenity": "bar", "drink:cocktail": "yes", "fvst:navnelbnr": "1280195", "name": "Side Hustle", "opening_hours": "09:00-24:00, Fr-Sa 09:00-02:00, Su off", "phone": "+45 40500606", "ref:DK:cvr": "43832646", "ref:DK:cvr:pnummer": "1029001851", "website": "https://www.cafesidehustle.dk/"}}, {"type": "way", "id": 324488860, "nodes": [3312007936, 3529010440, 3312007937, 2338189065, 2338189050, 2338189077, 2338189058, 3312007936], "tags": {"amenity": "bar", "building": "yes", "fvst:navnelbnr": "516689", "internet_access": "wlan", "internet_access:ssid": "Lidkoeb-Guest", "name": "Lidk\u00f8b", "opening_hours": "16:00-02:00; Su 20:00-02:00", "phone": "+45 33112010", "ref:DK:cvr": "33955820", "ref:DK:cvr:pnummer": "1017162396", "website": "http://lidkoeb.dk/"}}]}