{"version": 0.6, "generator": "Overpass API 0.7.60.2 e4cf9f7a", "osm3s": {"timestamp_osm_base": "2023-05-22T07:48:01Z", "copyright": "The data included in this document is from www.openstreetmap.org. The data is made available under ODbL."}, "elements": [{"type": "node", "id": 26053041, "lat": 55.6736632, "lon": 12.5921433, "tags": {"amenity": "pub", "fvst:navnelbnr": "113481", "name": "Caf\u00e9 St\u00e6rkodder", "ref:DK:cvr": "27087957", "ref:DK:cvr:pnummer": "1010161335", "wheelchair": "limited", "wikidata": "Q21710338"}}, {"type": "node", "id": 280809193, "lat": 55.6691735, "lon": 12.5802893, "tags": {"amenity": "pub", "fvst:navnelbnr": "721054", "name": "Cafe Langebro", "opening_hours": "Mo-Th 11:00-02:00, Fr-Sa 11:00-03:00, Su 11:00-20:00", "phone": "+45 32 95 85 91", "ref:DK:cvr": "27040365", "ref:DK:cvr:pnummer": "1000441581", "website": "http://cafelangebro.dk"}}, {"type": "node", "id": 313730277, "lat": 55.6740554, "lon": 12.5916958, "tags": {"amenity": "bar", "fvst:navnelbnr": "111916", "name": "Eiffel Bar", "ref:DK:cvr": "26110580", "ref:DK:cvr:pnummer": "1008523998", "smoking": "yes", "wheelchair": "no"}}, {"type": "node", "id": 698514092, "lat": 55.6730196, "lon": 12.5597708, "tags": {"amenity": "pub", "fvst:navnelbnr": "118919", "name": "City Pub", "opening_hours": "Su-Tu 16:00-24:00, We,Th 16:00-01:00, Fr,Su 14:00-02:00", "ref:DK:cvr": "31602858", "ref:DK:cvr:pnummer": "1014573034", "wheelchair": "no"}}, {"type": "node", "id": 727436488, "lat": 55.6721637, "lon": 12.5636709, "tags": {"amenity": "bar", "contact:phone": "+45 33216090", "fvst:navnelbnr": "113401", "name": "Jernbanecafeen", "ref:DK:cvr": "17125273", "ref:DK:cvr:pnummer": "1001227682", "website": "http://www.jernbanecafeen.dk/", "wheelchair": "no", "wikidata": "Q23596044"}}, {"type": "node", "id": 727630351, "lat": 55.6736355, "lon": 12.5906539, "tags": {"amenity": "pub", "fvst:name": "Rest. Fingerb\u00f8llet", "fvst:navnelbnr": "111923", "name": "Fingerb\u00f8llet", "ref:DK:cvr": "86351811", "website": "http://www.fingerboellet.dk", "wheelchair": "yes"}}, {"type": "node", "id": 727708821, "lat": 55.6719928, "lon": 12.5905788, "tags": {"amenity": "pub", "fvst:navnelbnr": "670165", "name": "Kanal Bodega", "ref:DK:cvr": "31665213", "ref:DK:cvr:pnummer": "1014745951", "wheelchair": "no"}}, {"type": "node", "id": 727708837, "lat": 55.6711746, "lon": 12.5924079, "tags": {"amenity": "pub", "fvst:navnelbnr": "114984", "name": "Kafe Falken", "ref:DK:cvr": "29430705", "ref:DK:cvr:pnummer": "1000392364"}}, {"type": "node", "id": 746251105, "lat": 55.6675771, "lon": 12.5780731, "tags": {"amenity": "bar", "fvst:navnelbnr": "112526", "name": "Caf\u00e9 Haraldsborg", "opening_hours": "Mo-Su 10:00-02:00", "phone": "+45 32 54 69 02", "ref:DK:cvr": "18021102", "ref:DK:cvr:pnummer": "1002973532"}}, {"type": "node", "id": 746251544, "lat": 55.6678361, "lon": 12.5785286, "tags": {"amenity": "bar", "fvst:navnelbnr": "113152", "name": "Isbj\u00f8rnen", "phone": "+45 32 96 96 40", "ref:DK:cvr": "20634596", "ref:DK:cvr:pnummer": "1000415388"}}, {"type": "node", "id": 888340138, "lat": 55.673194, "lon": 12.5612145, "tags": {"alt_name": "Scandic Cube Cafe", "amenity": "bar", "check_date": "2023-04-02", "fvst:navnelbnr": "116204", "name": "Cube", "operator": "Scandic Webers", "phone": "+45 33311432", "ref:DK:cvr": "12596774", "wheelchair": "no"}}, {"type": "node", "id": 899199394, "lat": 55.6644904, "lon": 12.5838891, "tags": {"amenity": "pub", "fvst:navnelbnr": "955186", "name": "Artillericafeen", "opening_hours": "Mo-Sa 10:00-02:00; Su off", "ref:DK:cvr": "18525739", "ref:DK:cvr:pnummer": "1025718883"}}, {"type": "node", "id": 1358980017, "lat": 55.6643102, "lon": 12.6032096, "tags": {"alt_name": "Jaguar Bodega", "amenity": "bar", "fvst:navnelbnr": "115280", "name": "Jaguaren", "ref:DK:cvr": "25524705", "wheelchair": "yes"}}, {"type": "node", "id": 1358983535, "lat": 55.664579, "lon": 12.604527, "tags": {"amenity": "pub", "fvst:navnelbnr": "525601", "name": "Bootleggers Craft Beer Bar", "opening_hours": "Mo-We 15:00-24:00, Th 15:00-01:00, Fr 14:00-02:00, Sa 13:00-02:00, Su 14:00-23:00", "phone": "+45 61776111", "smoking": "outside", "website": "https://www.facebook.com/bootamager/", "wheelchair": "limited"}}, {"type": "node", "id": 1359003216, "lat": 55.666984, "lon": 12.616356, "tags": {"amenity": "bar", "fvst:navnelbnr": "559955", "name": "John's Kro", "ref:DK:cvr": "35111441", "ref:DK:cvr:pnummer": "1018533487", "wheelchair": "no"}}, {"type": "node", "id": 1439744394, "lat": 55.6738595, "lon": 12.5646995, "tags": {"amenity": "bar", "fvst:navnelbnr": "126382", "name": "Library Bar", "ref:DK:cvr": "32302610", "ref:DK:cvr:pnummer": "1016234822", "wheelchair": "yes"}}, {"type": "node", "id": 1595066426, "lat": 55.6644556, "lon": 12.598079, "tags": {"amenity": "pub", "fvst:navnelbnr": "1120264", "name": "Lassie Bar", "ref:DK:cvr": "40975829", "ref:DK:cvr:pnummer": "1025287114"}}, {"type": "node", "id": 1822849398, "lat": 55.6583402, "lon": 12.6028151, "tags": {"amenity": "pub", "fvst:navnelbnr": "114811", "name": "Caf\u00e9 Lystig", "opening_hours": "Fr 16:00-04:00, Sa 18:00-04:00", "ref:DK:cvr": "21579343", "ref:DK:cvr:pnummer": "1005036333", "website": "https://www.facebook.com/pages/Cafe-Lystig/263383627062137"}}, {"type": "node", "id": 1862807125, "lat": 55.6537447, "lon": 12.5909462, "tags": {"amenity": "bar", "description": "V\u00e6rtshus for beboere p\u00e5 Gr\u00f8njordskollegiet", "fvst:name": "Hatten Gr\u00f8njordskollegiet", "fvst:navnelbnr": "111826", "name": "Hatten Bar", "operator": "Gr\u00f8njordskollegiet", "ref:DK:cvr": "10801958"}}, {"type": "node", "id": 2020615652, "lat": 55.6687256, "lon": 12.559701, "tags": {"amenity": "bar", "fvst:navnelbnr": "118305", "name": "Bakken", "opening_hours": "Th 21:00-05:00; Fr-Sa 20:00-05:00", "ref:DK:cvr": "32656587", "ref:DK:cvr:pnummer": "1015720626", "website": "http://bakkenkbh.dk"}}, {"type": "node", "id": 2144156629, "lat": 55.6573694, "lon": 12.6036199, "tags": {"amenity": "pub", "fvst:navnelbnr": "669978", "name": "Cafe Sundbyvester", "ref:DK:cvr": "36454415", "ref:DK:cvr:pnummer": "1019955520", "website": "http://cafesundbyvester.dk/"}}, {"type": "node", "id": 3106600429, "lat": 55.6626284, "lon": 12.6043899, "tags": {"amenity": "pub", "fvst:navnelbnr": "112175", "name": "Amagerhylden", "phone": "+45 32542800", "website": "http://www.amagerhylden.dk/"}}, {"type": "node", "id": 3404321298, "lat": 55.671218, "lon": 12.5604749, "tags": {"amenity": "bar", "fvst:navnelbnr": "115610", "name": "Spunk Bar", "ref:DK:cvr": "24214583", "ref:DK:cvr:pnummer": "1006414760"}}, {"type": "node", "id": 3898784968, "lat": 55.6685278, "lon": 12.5599599, "tags": {"amenity": "pub", "facebook": "https://www.facebook.com/warpigsbrewpub", "fvst:navnelbnr": "560424", "internet_access": "wlan", "internet_access:fee": "no", "microbrewery": "yes", "name": "Warpigs Brewpub", "opening_hours": "Mo-Th 11:00-24:00, Fr-Sa 11:00-02:00, Su 11:00-22:00", "outdoor_seating": "yes", "phone": "+45 43484848", "ref:DK:cvr": "35864237", "ref:DK:cvr:pnummer": "1019887754", "takeaway": "yes", "website": "https://warpigs.dk/", "wheelchair": "yes"}}, {"type": "node", "id": 3980811452, "lat": 55.6390797, "lon": 12.5786657, "tags": {"amenity": "bar", "drink:cocktail": "served", "fvst:navnelbnr": "665290", "level": "23", "name": "SUKAIBA Copenhagen", "opening_hours": "16:00-24:00, Fr-Sa 16:00-01:00, Su-Tu off", "ref:DK:cvr": "37939838", "ref:DK:cvr:pnummer": "1021672552", "website": "https://sukaiba.dk/"}}, {"type": "node", "id": 4001191951, "lat": 55.6577871, "lon": 12.6026326, "tags": {"amenity": "pub", "name": "Tingkroen", "opening_hours": "Mo-Sa 10:00-24:00; Su10:00-22:00"}}, {"type": "node", "id": 4004309539, "lat": 55.6660287, "lon": 12.5976758, "tags": {"alt_name": "Boulevarden", "amenity": "bar", "fvst:navnelbnr": "1202480", "name": "Boulevard Bodega", "opening_hours": "Mo-Th 12:00-21:00; Fr,Sa 12:00-22:00; Su 12:00-17:00", "ref:DK:cvr": "39969386", "ref:DK:cvr:pnummer": "1027803675"}}, {"type": "node", "id": 4004309540, "lat": 55.665826, "lon": 12.578507, "tags": {"amenity": "bar", "fvst:navnelbnr": "917481", "indoor_seating": "yes", "name": "Amager Bryghus Taproom Bryggen", "opening_hours": "Mo,Tu 15:00-23:00; We,Th 15:00-24:00; Fr,Sa 14:00-24:00; Su 13:00-21:00", "outdoor_seating": "yes", "smoking": "outside", "wheelchair": "no"}}, {"type": "node", "id": 4016613453, "lat": 55.6736038, "lon": 12.5660687, "tags": {"amenity": "bar", "fvst:navnelbnr": "535576", "name": "Nimb Bar", "ref:DK:cvr": "10404916", "ref:DK:cvr:pnummer": "1018808885", "wheelchair": "yes"}}, {"type": "node", "id": 4331204551, "lat": 55.6727762, "lon": 12.5668858, "tags": {"amenity": "bar", "fvst:navnelbnr": "531950", "name": "Alpehytten Biergarten I", "operator": "Tivoli", "ref:DK:cvr": "10404916", "ref:DK:cvr:pnummer": "1002894451"}}, {"type": "node", "id": 4341862603, "lat": 55.6665245, "lon": 12.5980941, "tags": {"alt_name": "Det Argentinske Vinhus", "amenity": "bar", "check_date:opening_hours": "2023-05-14", "drink:wine": "served", "fvst:navnelbnr": "505432", "name": "Vinos Los Andes", "opening_hours": "Th-Sa 13:00-19:00", "opening_hours:signed": "no", "ref:DK:cvr": "31363497", "ref:DK:cvr:pnummer": "1014331804", "shop": "alcohol", "website": "http://detargentinskevinhus.dk/"}}, {"type": "node", "id": 4341862608, "lat": 55.6735506, "lon": 12.5661, "tags": {"amenity": "bar", "fvst:navnelbnr": "118085", "name": "Nimb Bar og Banquet 1. sal", "ref:DK:cvr": "10404916", "ref:DK:cvr:pnummer": "1018808885"}}, {"type": "node", "id": 4402401626, "lat": 55.6537587, "lon": 12.616193, "tags": {"amenity": "pub", "fvst:navnelbnr": "501919", "name": "Cafe Smil", "opening_hours": "10:00-02:00", "ref:DK:cvr": "27753493", "ref:DK:cvr:pnummer": "1017110434"}}, {"type": "node", "id": 4436489213, "lat": 55.6593211, "lon": 12.590689, "tags": {"amenity": "bar", "fvst:name": "IT- Universitetet Studentercaf\u00e9en Scrollbar", "fvst:navnelbnr": "115893", "name": "Scrollbar", "opening_hours:signed": "no", "operator": "IT-Universitetet", "ref:DK:cvr": "28235283", "ref:DK:cvr:pnummer": "1011069254", "toilets:wheelchair": "yes", "wheelchair": "yes"}}, {"type": "node", "id": 4460697811, "lat": 55.66769, "lon": 12.5589, "tags": {"amenity": "bar", "facebook": "https://www.facebook.com/Mesteren-L\u00e6rlingen-215687798449433/", "fvst:navnelbnr": "115011", "name": "Mesteren & L\u00e6rlingen", "outdoor_seating": "yes", "payment:credit_cards": "yes", "phone": "+45 32152483", "ref:DK:cvr": "32082645", "ref:DK:cvr:pnummer": "1015381783", "smoking": "yes", "toilets": "yes"}}, {"type": "node", "id": 4487041295, "lat": 55.6386512, "lon": 12.5778012, "tags": {"amenity": "bar", "fvst:name": "Bella Center The Front", "fvst:navnelbnr": "665277", "operator": "The Front"}}, {"type": "node", "id": 4557103882, "lat": 55.6674267, "lon": 12.5972606, "tags": {"amenity": "bar", "check_date": "2023-04-23", "contact:email": "haabetbodegabar@gmail.com", "contact:phone": "+45 31 24 08 19", "fvst:navnelbnr": "950362", "name": "Haabet Bodega Bar", "opening_hours": "Mo-Th 16:00-24:00, Fr-Sa 15:00-24:00", "ref:DK:cvr": "37149020", "ref:DK:cvr:pnummer": "1025906043", "smoking": "yes", "website": "http://haabetbodegabar.dk/"}}, {"type": "node", "id": 4673538603, "lat": 55.6558235, "lon": 12.6098903, "tags": {"amenity": "bar", "drink:wine": "served", "fvst:navnelbnr": "667771", "name": "Toto Vin- og Spisebar", "opening_hours": "Tu-Th 16:00-24:00; Fr,Sa 15:00-24:00", "ref:DK:cvr": "38026089", "ref:DK:cvr:pnummer": "1021769807"}}, {"type": "node", "id": 4888056705, "lat": 55.6714963, "lon": 12.5722551, "tags": {"amenity": "bar", "fvst:navnelbnr": "795212", "name": "Byens bodega", "opening_hours": "Mo-Th 14:00-02:00, Fr 12:00-02:00, Sa 15:00-02:00", "ref:DK:cvr": "34098166", "ref:DK:cvr:pnummer": "1017391999"}}, {"type": "node", "id": 5041756421, "lat": 55.6655547, "lon": 12.6135528, "tags": {"amenity": "bar", "brewery": "yes", "check_date": "2023-04-11", "fvst:navnelbnr": "668932", "min_age": "18", "name": "Whammy Bar", "opening_hours": "Mo-Th,Su 15:00-24:00; Fr-Sa 15:00-02:00", "outdoor_seating": "yes", "payment:mastercard": "yes", "payment:visa": "yes", "ref:DK:cvr": "36963182", "ref:DK:cvr:pnummer": "1020647848", "smoking": "no", "website": "https://www.whammybar.dk/", "wheelchair": "no"}}, {"type": "node", "id": 5075577872, "lat": 55.6717046, "lon": 12.5617535, "tags": {"amenity": "bar", "fvst:navnelbnr": "118832", "name": "Absalon Bar", "operator": "Absalon Hotel", "ref:DK:cvr": "32781829", "ref:DK:cvr:pnummer": "1015892990"}}, {"type": "node", "id": 5124560643, "lat": 55.6704442, "lon": 12.5616796, "tags": {"amenity": "bar", "fvst:navnelbnr": "716546", "name": "Halmtorvet 9", "outdoor_seating": "yes", "payment:credit_cards": "yes", "ref:DK:cvr": "38792547", "ref:DK:cvr:pnummer": "1022657948", "smoking": "yes", "sport": "table_soccer", "toilets": "yes", "website": "https://halmtorvet9.dk/", "wheelchair": "yes"}}, {"type": "node", "id": 5125941664, "lat": 55.6687889, "lon": 12.574102, "tags": {"amenity": "bar", "fee": "yes", "fvst:name": "Copenhagen Marriott Exce. Lounge", "fvst:navnelbnr": "716273", "name": "Copenhagen Marriott Excecutive Lounge", "ref:DK:cvr": "37939838", "ref:DK:cvr:pnummer": "1022838489"}}, {"type": "node", "id": 5539726136, "lat": 55.6730867, "lon": 12.5587722, "tags": {"amenity": "bar", "check_date": "2023-04-13", "check_date:currency:XBT": "2023-03-26", "cocktails": "yes", "currency:XBT": "yes", "email": "info@curfew.dk", "fvst:navnelbnr": "562073", "min_age": "21", "name": "Curfew", "opening_hours": "Tu-Th 18:00-02:00; Fr-Sa 17:00-03:00", "payment:cash": "yes", "payment:credit_cards": "yes", "payment:debit_cards": "yes", "payment:lightning": "yes", "payment:onchain": "yes", "phone": "+45 29299276", "ref:DK:cvr": "36067179", "ref:DK:cvr:pnummer": "1020615865", "survey:date": "2022-10-28", "website": "https://curfew.dk/"}}, {"type": "node", "id": 5713943875, "lat": 55.6657426, "lon": 12.5785514, "tags": {"amenity": "bar", "fvst:navnelbnr": "740620", "name": "Beer and the Bean", "ref:DK:cvr": "37685232", "ref:DK:cvr:pnummer": "1021426969"}}, {"type": "node", "id": 5976423685, "lat": 55.6545487, "lon": 12.6103787, "tags": {"amenity": "bar", "fvst:name": "Amagerbrogade 160", "fvst:navnelbnr": "957574", "name": "Hop House", "ref:DK:cvr": "38965646", "ref:DK:cvr:pnummer": "1022876186", "website": "https://www.hophouse.dk/"}}, {"type": "node", "id": 6570561561, "lat": 55.6671999, "lon": 12.5726521, "tags": {"amenity": "bar", "cuisine": "pizza;sandwich", "fvst:navnelbnr": "755618", "name": "Green Island of Copenhagen", "outdoor_seating": "yes", "payment:credit_cards": "yes", "phone": "+45 30295094", "ref:DK:cvr": "31219434", "ref:DK:cvr:pnummer": "1014217718", "seasonal": "summer", "toilets": "yes", "website": "https://www.green-island.dk/"}}, {"type": "node", "id": 7713115157, "lat": 55.6741647, "lon": 12.5698778, "tags": {"alt_name": "F\u00e6rgekroen Bryghus Bryggeri", "amenity": "bar", "fvst:navnelbnr": "982087", "microbrewery": "yes", "name": "F\u00e6rgekroen (Bryggeriet)", "ref:DK:cvr": "28223722", "ref:DK:cvr:pnummer": "1011064988", "seasonal": "summer"}}, {"type": "node", "id": 7785159023, "lat": 55.6682632, "lon": 12.5615533, "tags": {"amenity": "bar", "fvst:name": "\u00c5ben SHG", "fvst:navnelbnr": "943430", "microbrewery": "yes", "name": "\u00c5ben", "opening_hours": "Mo-Su 12:00-24:00", "outdoor_seating": "yes", "ref:DK:cvr": "41277025", "ref:DK:cvr:pnummer": "1025715507", "website": "https://www.aabenbryg.com"}}, {"type": "node", "id": 7833009689, "lat": 55.669926, "lon": 12.558393, "tags": {"amenity": "bar", "contact:facebook": "http://www.facebook.com/1656cocktailbar", "contact:instagram": "https://www.instagram.com/1656cocktailbar/", "email": "hello@1656.dk", "fvst:navnelbnr": "951763", "indoor_seating": "yes", "name": "Cocktail Bar 1656", "opening_hours": "Su-We 18:00-01:00; Th 18:00-02:00; Fr 17:00-02:00; Sa 18:00-02:00", "outdoor_seating": "yes", "ref:DK:cvr": "35415688", "ref:DK:cvr:pnummer": "1019017180", "website": "http://cocktailkompagniet.dk/"}}, {"type": "node", "id": 7833198996, "lat": 55.664762, "lon": 12.599882, "tags": {"amenity": "bar", "fvst:navnelbnr": "942043", "name": "Bulleye", "opening_hours": "Tu-Th 16:00-22:00; Fr-Su 14:00-22:00", "phone": "+45 20738046", "ref:DK:cvr": "41066121", "ref:DK:cvr:pnummer": "1025407152"}}, {"type": "node", "id": 8112044325, "lat": 55.6727866, "lon": 12.6003087, "tags": {"amenity": "bar", "fvst:navnelbnr": "512128", "name": "Nemo Bar", "ref:DK:cvr": "14642285"}}, {"type": "node", "id": 8115001031, "lat": 55.662793, "lon": 12.591147, "tags": {"access:covid19": "private", "amenity": "bar", "fvst:navnelbnr": "735007", "name": "Roland Bar", "ref:DK:cvr": "34773041"}}, {"type": "node", "id": 8117585781, "lat": 55.667841, "lon": 12.57367, "tags": {"amenity": "bar", "fvst:navnelbnr": "936516", "name": "Svajerbar", "ref:DK:cvr": "26718899"}}, {"type": "node", "id": 8117585792, "lat": 55.643491, "lon": 12.615406, "tags": {"amenity": "bar", "fvst:navnelbnr": "115580", "name": "Gorm Kro", "opening_hours": "Mo-Th 10:00-24:00, Fr,Sa 10:00-02:00, Su 10:00-22:00", "phone": "+45 32508243", "ref:DK:cvr": "32232736"}}, {"type": "node", "id": 8117585795, "lat": 55.6577524, "lon": 12.6064559, "tags": {"amenity": "bar", "fvst:navnelbnr": "118706", "name": "Caf\u00e9 Englandshus", "opening_hours": "Mo-Su 10:00-02:00", "ref:DK:cvr": "29683190"}}, {"type": "node", "id": 8119008300, "lat": 55.6593805, "lon": 12.6024967, "tags": {"amenity": "bar", "fvst:navnelbnr": "115213", "name": "Fair Play", "ref:DK:cvr": "20492546"}}, {"type": "node", "id": 8119008303, "lat": 55.6616273, "lon": 12.6074349, "tags": {"amenity": "bar", "fvst:navnelbnr": "1250394", "name": "Caf\u00e9 Josephine", "ref:DK:cvr": "43039822", "ref:DK:cvr:pnummer": "1027976596", "smoking": "yes"}}, {"type": "node", "id": 8119008305, "lat": 55.6644295, "lon": 12.6081392, "tags": {"amenity": "bar", "fvst:navnelbnr": "113126", "name": "Caf\u00e9 Guldhuset", "opening_hours": "Mo-Su 15:00-22:00", "ref:DK:cvr": "27207308"}}, {"type": "node", "id": 8119069628, "lat": 55.6718348, "lon": 12.5626038, "tags": {"amenity": "bar", "check_date": "2023-04-02", "fvst:navnelbnr": "567578", "name": "Good Morning City Copenhagen Star Bar", "ref:DK:cvr": "33580037"}}, {"type": "node", "id": 8137328706, "lat": 55.6565637, "lon": 12.6124467, "tags": {"amenity": "bar", "fvst:navnelbnr": "733028", "name": "Caf\u00e9 34", "ref:DK:cvr": "39033232", "ref:DK:cvr:pnummer": "1022953636"}}, {"type": "node", "id": 8137328708, "lat": 55.6545648, "lon": 12.6118398, "tags": {"amenity": "bar", "fvst:navnelbnr": "924250", "name": "Caf\u00e9 H\u00f8jden", "ref:DK:cvr": "38908790", "ref:DK:cvr:pnummer": "1022808040", "smoking": "yes"}}, {"type": "node", "id": 8137328711, "lat": 55.6672646, "lon": 12.5857953, "tags": {"amenity": "bar", "fvst:navnelbnr": "539636", "name": "Radisson Blu Scandinavia Hotel Red 7 Bar", "ref:DK:cvr": "35255109", "ref:DK:cvr:pnummer": "1018543636"}}, {"type": "node", "id": 8139020148, "lat": 55.6708454, "lon": 12.5584234, "tags": {"amenity": "bar", "fvst:navnelbnr": "918720", "name": "Die Strafbar", "ref:DK:cvr": "39602458", "ref:DK:cvr:pnummer": "1024897881"}}, {"type": "node", "id": 8146445532, "lat": 55.661655, "lon": 12.610258, "tags": {"amenity": "bar", "fvst:navnelbnr": "670167", "name": "Postbodegaen", "ref:DK:cvr": "52666155", "ref:DK:cvr:pnummer": "1019682044", "smoking": "yes"}}, {"type": "node", "id": 8146445534, "lat": 55.6625711, "lon": 12.6041188, "tags": {"amenity": "bar", "fvst:name": "Heibir / Amagerhylden", "fvst:navnelbnr": "735183", "name": "Amagerhylden", "ref:DK:cvr": "32652212", "ref:DK:cvr:pnummer": "1015704795", "smoking": "separated", "website": "http://www.amagerhylden.dk/"}}, {"type": "node", "id": 8146445535, "lat": 55.6663302, "lon": 12.6120932, "tags": {"amenity": "bar", "fvst:name": "V\u00c6RTSHUS;CAPRI/HOLMBLADET-BODEGA", "fvst:navnelbnr": "927613", "name": "Holmbladet", "opening_hours": "Su-Mo 12:00-00:00; Tu-Th 12:00-02:00; Fr-Sa 12:00-03:00", "ref:DK:cvr": "37604410", "ref:DK:cvr:pnummer": "1021347481", "website": "https://holmbladet.dk/"}}, {"type": "node", "id": 8146445536, "lat": 55.65831, "lon": 12.608439, "tags": {"amenity": "bar", "description": "Big beer selection, bottle or draft", "drink:beer": "served", "fvst:navnelbnr": "913147", "name": "Blue Raven", "opening_hours": "Tu-Sa 15:00-22:00; Su-Mo off", "opening_hours:covid19": "off", "ref:DK:cvr": "39823705", "ref:DK:cvr:pnummer": "1023910787", "website": "http://www.blueravenbar.dk/"}}, {"type": "node", "id": 8146827279, "lat": 55.6732954, "lon": 12.5714839, "tags": {"amenity": "bar", "fvst:navnelbnr": "936384", "name": "Churros", "ref:DK:cvr": "10404916", "ref:DK:cvr:pnummer": "1002894451"}}, {"type": "node", "id": 8158377269, "lat": 55.6713715, "lon": 12.5600529, "tags": {"amenity": "bar", "check_date": "2023-04-05", "fvst:navnelbnr": "722039", "name": "Hats Boots & Bourbon", "phone": "+45 91821908", "ref:DK:cvr": "38643762", "ref:DK:cvr:pnummer": "1022446262", "shop": "clothes", "website": "https://hatsbootsbourbon.com/"}}, {"type": "node", "id": 8168142117, "lat": 55.6731526, "lon": 12.5666068, "tags": {"amenity": "bar", "fvst:navnelbnr": "115785", "name": "Smugkroen", "ref:DK:cvr": "10404916", "ref:DK:cvr:pnummer": "1002894451"}}, {"type": "node", "id": 8184307396, "lat": 55.6596717, "lon": 12.6061264, "tags": {"amenity": "bar", "fvst:navnelbnr": "667449", "name": "Old Irish Pub Amagerbrogade", "phone": "+45 28401601", "ref:DK:cvr": "35028692", "ref:DK:cvr:pnummer": "1021427620", "website": "https://oldirishpub.dk/pub/amager/"}}, {"type": "node", "id": 8184307398, "lat": 55.657739, "lon": 12.58859, "tags": {"access": "customers", "amenity": "bar", "fvst:navnelbnr": "962319", "name": "Danmarks Radio DR-Byen", "ref:DK:cvr": "62786515", "ref:DK:cvr:pnummer": "1008875630"}}, {"type": "node", "id": 8185482851, "lat": 55.6674446, "lon": 12.5857524, "tags": {"amenity": "bar", "fvst:navnelbnr": "539631", "name": "Radisson Blu Scandinavia Hotel Bus Stop Bar", "ref:DK:cvr": "35255109", "ref:DK:cvr:pnummer": "1018543636"}}, {"type": "node", "id": 8185482852, "lat": 55.6627137, "lon": 12.5893639, "tags": {"access": "private", "amenity": "bar", "fvst:navnelbnr": "735008", "name": "TORS / BARstionen", "ref:DK:cvr": "38103199", "ref:DK:cvr:pnummer": "1021832185"}}, {"type": "node", "id": 8207872776, "lat": 55.659827, "lon": 12.610603, "tags": {"amenity": "bar", "fvst:navnelbnr": "937749", "name": "Cafe Sundet", "ref:DK:cvr": "34469091", "ref:DK:cvr:pnummer": "1017582263", "smoking": "yes", "sport": "billiards"}}, {"type": "node", "id": 8211567574, "lat": 55.6742078, "lon": 12.5660833, "tags": {"amenity": "bar", "fvst:navnelbnr": "960253", "name": "Gl\u00f8gg og Hygge", "ref:DK:cvr": "31863570", "ref:DK:cvr:pnummer": "1019327708", "seasonal": "winter"}}, {"type": "node", "id": 8227922735, "lat": 55.6739216, "lon": 12.5687429, "tags": {"amenity": "bar", "fvst:navnelbnr": "745430", "name": "Orangeriet Bar", "ref:DK:cvr": "10404916", "ref:DK:cvr:pnummer": "1002894451"}}, {"type": "node", "id": 8485655410, "lat": 55.6572408, "lon": 12.5890611, "tags": {"amenity": "bar", "check_date:opening_hours": "2022-10-04", "name": "Klangbar", "opening_hours:covid19": "closed", "opening_hours:signed": "no"}}, {"type": "node", "id": 9084281057, "lat": 55.673578, "lon": 12.599871, "tags": {"alt_name": "Naqqa", "amenity": "bar", "fvst:navnelbnr": "982781", "name": "Caf\u00e9 Inuit", "ref:DK:cvr": "36240598", "ref:DK:cvr:pnummer": "1026073797"}}, {"type": "node", "id": 9087814780, "lat": 55.6661693, "lon": 12.5660401, "tags": {"amenity": "bar", "fvst:navnelbnr": "564822", "name": "Hotel Tivoli Congress Center Lobbybar", "ref:DK:cvr": "54399219", "ref:DK:cvr:pnummer": "1015847111"}}, {"type": "node", "id": 9091138280, "lat": 55.6686644, "lon": 12.5595224, "tags": {"amenity": "bar", "fvst:navnelbnr": "988377", "name": "Tranquilo", "opening_hours": "15:00-24:00, Fr-Sa 15:00-02:00, Su-Tu off", "operator": "N\u00e6rv\u00e6r", "ref:DK:cvr": "37834246", "ref:DK:cvr:pnummer": "1026680251", "website": "https://tranquilo.naervaer.dk/"}}, {"type": "node", "id": 9091818725, "lat": 55.6710387, "lon": 12.5612913, "tags": {"amenity": "bar", "branch": "Halmtorvet", "description": "ginbar", "drink:gin": "yes", "fvst:navnelbnr": "993561", "name": "Two Socks", "opening_hours": "16:00-24:00, Fr-Sa 12:00-02:00; Su off", "ref:DK:cvr": "42351571", "ref:DK:cvr:pnummer": "1027136512", "website": "https://two-socks.dk/"}}, {"type": "node", "id": 9094792907, "lat": 55.6735178, "lon": 12.5668344, "tags": {"amenity": "bar", "branch": "Tivoli", "fvst:navnelbnr": "983704", "name": "Nohrlund Bar", "ref:DK:cvr": "10404916", "ref:DK:cvr:pnummer": "1002894451"}}, {"type": "node", "id": 9094826517, "lat": 55.6728603, "lon": 12.5668469, "tags": {"amenity": "bar", "drink:beer": "yes", "fvst:navnelbnr": "993168", "name": "Anarkist", "ref:DK:cvr": "10404916", "ref:DK:cvr:pnummer": "1002894451"}}, {"type": "node", "id": 9351196036, "lat": 55.671432, "lon": 12.558422, "tags": {"amenity": "bar", "fvst:navnelbnr": "975254", "name": "Gin-D", "ref:DK:cvr": "41872179", "ref:DK:cvr:pnummer": "1026499573"}}, {"type": "node", "id": 9352875895, "lat": 55.6686296, "lon": 12.5608903, "tags": {"amenity": "bar", "fvst:navnelbnr": "1110000", "name": "K\u00f8dbyens Baghave", "outdoor_seating": "only", "ref:DK:cvr": "35047026", "ref:DK:cvr:pnummer": "1018291106", "seasonal": "summer"}}, {"type": "node", "id": 9642607404, "lat": 55.674319, "lon": 12.5652897, "tags": {"amenity": "bar", "fvst:navnelbnr": "1202189", "name": "Elis Ristede Kastanjer", "ref:DK:cvr": "39662884", "ref:DK:cvr:pnummer": "1023735268"}}, {"type": "node", "id": 9760636342, "lat": 55.670982, "lon": 12.558493, "tags": {"amenity": "bar", "fvst:navnelbnr": "989220", "name": "Luna Cocktailbar", "ref:DK:cvr": "38712853", "ref:DK:cvr:pnummer": "1027107237"}}, {"type": "node", "id": 9777920489, "lat": 55.655179, "lon": 12.5605662, "tags": {"amenity": "bar", "fvst:navnelbnr": "1227616", "name": "Anl\u00f8bet - F & B Engholmene", "ref:DK:cvr": "42137960", "ref:DK:cvr:pnummer": "1027343909"}}, {"type": "node", "id": 9777932856, "lat": 55.6554279, "lon": 12.560771, "tags": {"amenity": "bar", "fvst:navnelbnr": "1227607", "name": "Klase - F & B Engholmene", "ref:DK:cvr": "42137960", "ref:DK:cvr:pnummer": "1027343852", "website": "https://klasevinbar.superbexperience.com/"}}, {"type": "node", "id": 10828202003, "lat": 55.6738027, "lon": 12.5708164, "tags": {"amenity": "bar", "fvst:navnelbnr": "1255553", "name": "Viftens Gl\u00f8gghus", "ref:DK:cvr": "10404916", "ref:DK:cvr:pnummer": "1002894451", "seasonal": "christmas"}}, {"type": "node", "id": 10835692124, "lat": 55.6566443, "lon": 12.6089874, "tags": {"amenity": "bar", "fvst:navnelbnr": "1269994", "name": "Kjaff Bar", "ref:DK:cvr": "43540858", "ref:DK:cvr:pnummer": "1028611990"}}, {"type": "node", "id": 10839839384, "lat": 55.6742587, "lon": 12.5591944, "tags": {"amenity": "bar", "description": "champagnebar", "drink:champagne": "yes", "fvst:navnelbnr": "1249800", "name": "Tirage Champagne Bar", "opening_hours": "16:00-22:00; Fr-Sa 15:00-24:00; Su 15:00-22:00", "phone": "+45 60590957", "ref:DK:cvr": "43108999", "ref:DK:cvr:pnummer": "1028061478", "website": "https://tiragechampagnebar.com/"}}, {"type": "node", "id": 10909820003, "lat": 55.67226, "lon": 12.6083391, "tags": {"amenity": "bar", "fvst:navnelbnr": "1272250", "name": "Kl\u00f8vermarkens Cafe", "ref:DK:cvr": "29951683", "ref:DK:cvr:pnummer": "1028399568"}}]}