{"version": 0.6, "generator": "Overpass API 0.7.59.4 36d058c8", "osm3s": {"timestamp_osm_base": "2023-03-30T11:21:24Z", "copyright": "The data included in this document is from www.openstreetmap.org. The data is made available under ODbL."}, "elements": [{"type": "node", "id": 24958713, "lat": 55.6892934, "lon": 12.5578332, "tags": {"amenity": "pub", "fvst:name": "Cerevisia", "fvst:navnelbnr": "111614", "name": "\u00d8lbaren", "opening_hours": "Mo 21:00-01:00, Tu-We 16:00-01:00, Th 16:00-02:00, Fr 15:00-02:00, Sa 13:00-02:00, Su 13:00-23:00", "phone": "+45 35354534", "ref:DK:cvr": "26748097", "smoking": "no", "website": "http://oelbaren.dk/"}}, {"type": "node", "id": 25440922, "lat": 55.6834082, "lon": 12.5651843, "tags": {"amenity": "pub", "fvst:navnelbnr": "1253893", "name": "Banker\u00e5t", "opening_hours": "Mo-Fr 09:30-24:00;Sa-Su 10:30-24:00", "opening_hours:url": "https://www.facebook.com/bankeraat/info", "phone": "+45 33 93 69 88", "ref:DK:cvr": "41544988", "ref:DK:cvr:pnummer": "1028568971", "smoking": "no", "website": "http://www.bankeraat.dk", "wheelchair": "no"}}, {"type": "node", "id": 25904721, "lat": 55.6996104, "lon": 12.5467101, "tags": {"amenity": "pub", "fvst:navnelbnr": "1256497", "name": "Caf\u00e9 Viking", "opening_hours": "Mo-Sa 09:00-02:00, Su 09:00-20:00", "phone": "+45 35831493", "ref:DK:cvr": "41351187", "ref:DK:cvr:pnummer": "1025823806", "website": "http://www.cafeviking.dk", "wheelchair": "limited"}}, {"type": "node", "id": 26053041, "lat": 55.6736632, "lon": 12.5921433, "tags": {"amenity": "pub", "fvst:navnelbnr": "113481", "name": "Caf\u00e9 St\u00e6rkodder", "ref:DK:cvr": "27087957", "ref:DK:cvr:pnummer": "1010161335", "wheelchair": "limited", "wikidata": "Q21710338"}}, {"type": "node", "id": 277694702, "lat": 55.6770916, "lon": 12.532119, "tags": {"amenity": "pub", "fvst:navnelbnr": "115321", "name": "Cafe Intime", "opening_hours": "Mo-Su 16:00 - 02:00", "phone": "+45 38 34 19 58", "ref:DK:cvr": "27979440", "ref:DK:cvr:pnummer": "1010696328", "toilets": "yes", "website": "http://www.cafeintime.dk/", "wikidata": "Q12305023", "wikipedia": "da:Cafe Intime"}}, {"type": "node", "id": 277703258, "lat": 55.6752681, "lon": 12.5328906, "tags": {"alt_name": "Psykopaten", "amenity": "pub", "fvst:navnelbnr": "111210", "name": "All\u00e9enberg", "opening_hours": "Tu-Sa 22:00-05:00", "outdoor_seating": "yes", "payment:credit_cards": "yes", "phone": "+45 33254442", "ref:DK:cvr": "25689097", "ref:DK:cvr:pnummer": "1007991440", "toilets": "yes", "website": "http://www.alleenberg.dk/", "wheelchair": "no"}}, {"type": "node", "id": 278380921, "lat": 55.6789275, "lon": 12.5274752, "tags": {"amenity": "pub", "fvst:navnelbnr": "921122", "name": "Cafe Svejk", "opening_hours": "Su-Mo 12:00-24:00;Tu-Sa 12:00-02:00", "phone": "+45 38862560", "ref:DK:cvr": "40692932", "ref:DK:cvr:pnummer": "1024914271", "wheelchair": "yes"}}, {"type": "node", "id": 278389273, "lat": 55.6742295, "lon": 12.5399431, "tags": {"amenity": "pub", "fvst:navnelbnr": "738934", "name": "Promenaden", "opening_hours": "Mo-We 11:00-23:00; Th-Sa 11:00-24:00; Su 11:00-18:00", "ref:DK:cvr": "39126680", "ref:DK:cvr:pnummer": "1023555944", "wheelchair": "no"}}, {"type": "node", "id": 279143817, "lat": 55.6836628, "lon": 12.5245604, "tags": {"amenity": "pub", "fvst:navnelbnr": "111869", "name": "Bartof Caf\u00e9", "outdoor_seating": "yes", "phone": "+45 38 86 90 67", "ref:DK:cvr": "28000243", "ref:DK:cvr:pnummer": "1010921615", "smoking": "no", "website": "http://bartofcafe.dk", "wheelchair": "no"}}, {"type": "node", "id": 279144098, "lat": 55.6855209, "lon": 12.5382279, "tags": {"amenity": "pub", "fvst:navnelbnr": "112209", "name": "London Pub", "ref:DK:cvr": "30725662", "ref:DK:cvr:pnummer": "1013479026", "wheelchair": "no"}}, {"type": "node", "id": 279690426, "lat": 55.6782361, "lon": 12.5668224, "tags": {"amenity": "pub", "facebook": "https://www.facebook.com/pubogsport/", "fvst:navnelbnr": "112682", "name": "Pub & Sport", "opening_hours": "Mo-Th 16:00-01:00, Fr 15:00-03:00,Sa 13:00-03:00,Su 14:00-23:00", "phone": "+45 33150810", "ref:DK:cvr": "28323565", "ref:DK:cvr:pnummer": "1011061059", "website": "http://www.pubogsport.dk", "wheelchair": "limited"}}, {"type": "node", "id": 280530612, "lat": 55.671781, "lon": 12.5548963, "tags": {"amenity": "pub", "fvst:name": "Caf\u00e9 BarBar Bar", "fvst:navnelbnr": "672161", "name": "Barbar Bar", "ref:DK:cvr": "37747904", "ref:DK:cvr:pnummer": "1022052566", "wheelchair": "no"}}, {"type": "node", "id": 280790084, "lat": 55.677942, "lon": 12.5768752, "tags": {"amenity": "pub", "fvst:navnelbnr": "114203", "name": "Lord Nelson", "name:es": "Lord Nelson Bar", "opening_hours": "Mo 15:30-24:00, Tu-We 15:30-02:00, Th 15:30-03:00, Fr 15:00-05:00, Sa 14:00-05:00", "phone": "+45 33 93 93 94", "ref:DK:cvr": "28712057", "ref:DK:cvr:pnummer": "1011345367", "website": "http://www.lordnelson.dk"}}, {"type": "node", "id": 280790473, "lat": 55.6786922, "lon": 12.5732662, "tags": {"amenity": "pub", "fvst:navnelbnr": "117090", "name": "Charlie Scotts", "ref:DK:cvr": "29838593", "ref:DK:cvr:pnummer": "1012533914", "toilets": "yes"}}, {"type": "node", "id": 280809193, "lat": 55.6691735, "lon": 12.5802893, "tags": {"amenity": "pub", "fvst:navnelbnr": "721054", "name": "Cafe Langebro", "opening_hours": "Mo-Th 11:00-02:00, Fr-Sa 11:00-03:00, Su 11:00-20:00", "phone": "+45 32 95 85 91", "ref:DK:cvr": "27040365", "ref:DK:cvr:pnummer": "1000441581", "website": "http://cafelangebro.dk"}}, {"type": "node", "id": 281062886, "lat": 55.681009, "lon": 12.5806605, "tags": {"amenity": "pub", "fvst:navnelbnr": "555264", "name": "Zoo Bar", "opening_hours": "Th-Sa 20:00-05:00", "ref:DK:cvr": "34617775", "ref:DK:cvr:pnummer": "1017953679", "website": "https://www.zoocopenhagen.dk/", "wheelchair": "limited"}}, {"type": "node", "id": 281063017, "lat": 55.6806132, "lon": 12.5802876, "tags": {"amenity": "pub", "fvst:name": "Cafe CharlieS", "fvst:navnelbnr": "111222", "name": "Charlie's Bar", "ref:DK:cvr": "25091930", "smoking": "no", "wheelchair": "no"}}, {"type": "node", "id": 281539863, "lat": 55.6759526, "lon": 12.567219, "tags": {"amenity": "pub", "fvst:navnelbnr": "115440", "name": "The Scottish Pub", "opening_hours": "Mo-Th 12:00-03:00; Fr-Sa 12:00-05:00; Su 12:00-02:00", "phone": "+4533159243", "ref:DK:cvr": "20288132", "ref:DK:cvr:pnummer": "1004222759", "website": "https://thescottishpub.dk/", "wheelchair": "yes"}}, {"type": "node", "id": 281787637, "lat": 55.6771072, "lon": 12.5694984, "tags": {"amenity": "pub", "fvst:name": "Brew Pub K\u00f8benhavn, Bryggeri", "fvst:navnelbnr": "116483", "microbrewery": "yes", "name": "Brew Pub", "ref:DK:cvr": "28110324", "ref:DK:cvr:pnummer": "1010771060", "smoking": "no", "website": "https://brewpub.dk"}}, {"type": "node", "id": 316122207, "lat": 55.6814563, "lon": 12.5495147, "tags": {"amenity": "pub", "fvst:navnelbnr": "955287", "name": "Bodega 48", "ref:DK:cvr": "36152680"}}, {"type": "node", "id": 332573745, "lat": 55.7127896, "lon": 12.5593766, "tags": {"amenity": "pub", "fvst:navnelbnr": "112634", "name": "Polar Bodega", "ref:DK:cvr": "32244874", "ref:DK:cvr:pnummer": "1015410937", "wheelchair": "no"}}, {"type": "node", "id": 335962972, "lat": 55.6953457, "lon": 12.543356, "tags": {"amenity": "pub", "fvst:navnelbnr": "720885", "indoor_seating": "yes", "internet_access": "wlan", "internet_access:fee": "no", "name": "Caf\u00e9 Stefanshus", "opening_hours": "Mo-We 08:00-01:00,Th-Sa 08:00-01:00,Su 11:00-23:00", "outdoor_seating": "yes", "ref:DK:cvr": "35240586", "ref:DK:cvr:pnummer": "1018480081", "website": "http://www.acedesign.dk/stefanshus/", "wheelchair": "limited"}}, {"type": "node", "id": 417138238, "lat": 55.6503992, "lon": 12.5274396, "tags": {"amenity": "pub", "fvst:navnelbnr": "112612", "name": "Caf\u00e9 Ellebo", "ref:DK:cvr": "75890613", "ref:DK:cvr:pnummer": "1002473597"}}, {"type": "node", "id": 417180523, "lat": 55.6481432, "lon": 12.5293861, "tags": {"amenity": "pub", "fvst:navnelbnr": "527448", "name": "Mozarts Bodega", "ref:DK:cvr": "34352445", "ref:DK:cvr:pnummer": "1017513202"}}, {"type": "node", "id": 428734579, "lat": 55.6809434, "lon": 12.5739275, "tags": {"amenity": "pub", "fvst:navnelbnr": "111501", "name": "Caf\u00e9 Halvvejen", "outdoor_seating": "yes", "phone": "+45 33119112", "ref:DK:cvr": "34483795", "ref:DK:cvr:pnummer": "1017639249", "smoking": "yes", "website": "http://www.cafehalvvejen.dk/", "wheelchair": "no"}}, {"type": "node", "id": 448276155, "lat": 55.6696051, "lon": 12.4918721, "tags": {"amenity": "pub", "fvst:navnelbnr": "115750", "name": "Bodega Teglsk\u00e6gget", "ref:DK:cvr": "26773466", "ref:DK:cvr:pnummer": "1012683118"}}, {"type": "node", "id": 496287667, "lat": 55.6653765, "lon": 12.5171005, "tags": {"amenity": "pub", "fvst:navnelbnr": "714464", "name": "M\u00f8lle Cafeen", "opening_hours:signed": "no", "ref:DK:cvr": "10092337", "ref:DK:cvr:pnummer": "1000016592", "wheelchair": "no"}}, {"type": "node", "id": 496327697, "lat": 55.6652831, "lon": 12.5164963, "tags": {"amenity": "pub", "fvst:navnelbnr": "554771", "man_made": "surveillance", "name": "Tofteg\u00e5rds Bodega", "opening_hours": "Mo-Su 10:00-02:00", "ref:DK:cvr": "68899028", "ref:DK:cvr:pnummer": "1002283329", "wheelchair": "limited"}}, {"type": "node", "id": 496331430, "lat": 55.663277, "lon": 12.514473, "tags": {"amenity": "pub", "fvst:navnelbnr": "113831", "name": "Valby Borger Kro", "opening_hours": "Mo-We 14:00-20:00; Th-Fr 14:00-24:00", "ref:DK:cvr": "19915875", "ref:DK:cvr:pnummer": "1004052886"}}, {"type": "node", "id": 515718720, "lat": 55.6821362, "lon": 12.574042, "tags": {"amenity": "pub", "fvst:navnelbnr": "923994", "indoor_seating": "yes", "name": "Hvide Lam", "opening_hours": "Mo-We 11:00+; Su,PH 12:00+", "outdoor_seating": "yes", "ref:DK:cvr": "31625246", "ref:DK:cvr:pnummer": "1025167747", "smoking": "yes", "website": "https://hvide-lam.dk/", "wikidata": "Q27235433"}}, {"type": "node", "id": 552383262, "lat": 55.70499, "lon": 12.4940637, "tags": {"amenity": "pub", "fvst:navnelbnr": "555266", "name": "Br\u00f8nsh\u00f8j bodega", "ref:DK:cvr": "36112026", "ref:DK:cvr:pnummer": "1019793067"}}, {"type": "node", "id": 552383377, "lat": 55.7048633, "lon": 12.4974172, "tags": {"amenity": "pub", "fvst:navnelbnr": "764198", "name": "Gerts vinstue", "ref:DK:cvr": "39568497", "ref:DK:cvr:pnummer": "1023666622"}}, {"type": "node", "id": 552383384, "lat": 55.7049562, "lon": 12.4969562, "tags": {"amenity": "pub", "fvst:navnelbnr": "116796", "name": "Vi ses hos Berg", "phone": "+45 38281108", "ref:DK:cvr": "25521021", "ref:DK:cvr:pnummer": "1015098054"}}, {"type": "node", "id": 664252430, "lat": 55.69858, "lon": 12.545621, "tags": {"amenity": "pub", "fvst:navnelbnr": "662868", "name": "Caf\u00e9 \u00c6gir", "opening_hours": "Su-Tu 10:00-24:00; We-Sa 10:00-02:00", "ref:DK:cvr": "34584109", "ref:DK:cvr:pnummer": "1017700843", "wheelchair": "limited"}}, {"type": "node", "id": 664252432, "lat": 55.6957867, "lon": 12.5439481, "tags": {"amenity": "pub", "fvst:navnelbnr": "552520", "name": "Caf\u00e9 Lille Peter", "opening_hours": "08:00-24:00", "phone": "+45 35851019", "ref:DK:cvr": "17302582", "ref:DK:cvr:pnummer": "1018052616"}}, {"type": "node", "id": 674787360, "lat": 55.667143, "lon": 12.5479089, "tags": {"amenity": "pub", "brewery": "Guinness", "facebook": "https://www.facebook.com/pages/Cafe-Snork-IS/179271535425651", "fvst:navnelbnr": "113622", "name": "Caf\u00e9 Snork", "opening_hours": "14:00-02:00", "outdoor_seating": "yes", "phone": "+45 33315314", "ref:DK:cvr": "21338044", "ref:DK:cvr:pnummer": "1000664948", "toilets": "yes", "website": "http://cafesnork.dk/", "wheelchair": "no"}}, {"type": "node", "id": 679304500, "lat": 55.6906927, "lon": 12.554622, "tags": {"amenity": "pub", "fvst:navnelbnr": "113223", "name": "Det Rene Glas", "opening_hours": "Su 11:00-24:00, Mo-Fr 10:00-02:00, Sa 11:00-02:00", "ref:DK:cvr": "35406778", "ref:DK:cvr:pnummer": "1018655175", "wheelchair": "limited"}}, {"type": "node", "id": 679306027, "lat": 55.6908003, "lon": 12.5614037, "tags": {"amenity": "pub", "fvst:navnelbnr": "924855", "name": "Cafeen Funke", "ref:DK:cvr": "40612777", "ref:DK:cvr:pnummer": "1024846705", "wheelchair": "no", "wheelchair:description": "[noParking noEntry 3-4 steps and no outdoor chairs/tables 2012/tbasen.dk]"}}, {"type": "node", "id": 683139428, "lat": 55.6676181, "lon": 12.5484159, "tags": {"amenity": "pub", "fvst:navnelbnr": "114369", "name": "Caf\u00e8 Blomsten", "phone": "+45 33213502", "ref:DK:cvr": "25637607", "ref:DK:cvr:pnummer": "1007931863"}}, {"type": "node", "id": 683192044, "lat": 55.6675503, "lon": 12.5553934, "tags": {"amenity": "pub", "email": "kontakt@cafegrotten.dk", "fvst:navnelbnr": "988049", "indoor_seating": "yes", "name": "Caf\u00e9 Grotten", "opening_hours": "Mo-We 10:00-02:00, Th-Sa 10:00-05:00", "outdoor_seating": "yes", "phone": "+45 33218551", "ref:DK:cvr": "42247642", "ref:DK:cvr:pnummer": "1026958489", "website": "http://www.cafegrotten.dk/"}}, {"type": "node", "id": 698514092, "lat": 55.6730196, "lon": 12.5597708, "tags": {"amenity": "pub", "fvst:navnelbnr": "118919", "name": "City Pub", "opening_hours": "Su-Tu 16:00-24:00, We,Th 16:00-01:00, Fr,Su 14:00-02:00", "ref:DK:cvr": "31602858", "ref:DK:cvr:pnummer": "1014573034", "wheelchair": "no"}}, {"type": "node", "id": 724350527, "lat": 55.6723347, "lon": 12.5498081, "tags": {"amenity": "pub", "fvst:navnelbnr": "796827", "name": "Caf\u00e9 Guldregn", "ref:DK:cvr": "21848476", "ref:DK:cvr:pnummer": "1005251062", "website": "http://www.cafe-guldregn.dk/"}}, {"type": "node", "id": 727411650, "lat": 55.6717251, "lon": 12.5458974, "tags": {"amenity": "pub", "facebook": "https://www.facebook.com/M\u00c4RKBAR-189115531112278/", "fvst:navnelbnr": "116648", "name": "M\u00e4rkbar", "wheelchair": "no"}}, {"type": "node", "id": 727630351, "lat": 55.6736355, "lon": 12.5906539, "tags": {"amenity": "pub", "fvst:name": "Rest. Fingerb\u00f8llet", "fvst:navnelbnr": "111923", "name": "Fingerb\u00f8llet", "ref:DK:cvr": "86351811", "website": "http://www.fingerboellet.dk", "wheelchair": "yes"}}, {"type": "node", "id": 727708821, "lat": 55.6719928, "lon": 12.5905788, "tags": {"amenity": "pub", "fvst:navnelbnr": "670165", "name": "Kanal Bodega", "ref:DK:cvr": "31665213", "ref:DK:cvr:pnummer": "1014745951", "wheelchair": "no"}}, {"type": "node", "id": 727708837, "lat": 55.6711746, "lon": 12.5924079, "tags": {"amenity": "pub", "fvst:navnelbnr": "114984", "name": "Kafe Falken", "ref:DK:cvr": "29430705", "ref:DK:cvr:pnummer": "1000392364"}}, {"type": "node", "id": 734870384, "lat": 55.6708206, "lon": 12.546286, "tags": {"amenity": "pub", "fvst:navnelbnr": "1228672", "name": "Grusgraven", "ref:DK:cvr": "34409234", "ref:DK:cvr:pnummer": "1026525027", "wheelchair": "no"}}, {"type": "node", "id": 735030034, "lat": 55.6740877, "lon": 12.5513488, "tags": {"amenity": "pub", "fvst:navnelbnr": "114373", "name": "Larsen's Plaz", "ref:DK:cvr": "18958899", "ref:DK:cvr:pnummer": "1009849625", "wheelchair": "no"}}, {"type": "node", "id": 736442048, "lat": 55.6897381, "lon": 12.5602229, "tags": {"amenity": "pub", "fvst:navnelbnr": "111261", "name": "Kattens k\u00e6lder", "ref:DK:cvr": "11929087", "ref:DK:cvr:pnummer": "1002914270", "wheelchair": "no"}}, {"type": "node", "id": 736564703, "lat": 55.6696331, "lon": 12.5544432, "tags": {"alt_name": "Skipper Bodega", "amenity": "pub", "contact:phone": "+45 33 31 84 76", "fvst:navnelbnr": "112401", "indoor_seating": "yes", "name": "Skippers Bodega", "outdoor_seating": "yes", "ref:DK:cvr": "34445060", "ref:DK:cvr:pnummer": "1017586684", "smoking": "yes", "wheelchair": "no"}}, {"type": "node", "id": 737887225, "lat": 55.6688571, "lon": 12.5487739, "tags": {"amenity": "pub", "fvst:navnelbnr": "574833", "name": "Caf\u00e9 Erik", "ref:DK:cvr": "29942552", "ref:DK:cvr:pnummer": "1018451251"}}, {"type": "node", "id": 738821344, "lat": 55.6695214, "lon": 12.5400724, "tags": {"amenity": "pub", "fvst:navnelbnr": "923976", "name": "Bob's Hytte", "opening_hours": "Mo-Th 12:00-24:00, Fr,Sa 12:00-03:00, Su 12:00-22:00", "ref:DK:cvr": "32297757", "ref:DK:cvr:pnummer": "1025026868", "wheelchair": "limited"}}, {"type": "node", "id": 818683303, "lat": 55.6812668, "lon": 12.5645148, "tags": {"amenity": "pub", "fvst:navnelbnr": "658921", "name": "\u00d8rsted \u00d8lbar & Cafe", "ref:DK:cvr": "36717009", "ref:DK:cvr:pnummer": "1020328815", "website": "https://oerstedoelbar.dk/", "wheelchair": "no"}}, {"type": "node", "id": 823266193, "lat": 55.6788127, "lon": 12.5313704, "tags": {"alt_name": "H.H. Ranch", "amenity": "pub", "fvst:navnelbnr": "112052", "name": "Western Saloon", "ref:DK:cvr": "10193001", "wheelchair": "no"}}, {"type": "node", "id": 861271148, "lat": 55.6633027, "lon": 12.5420331, "tags": {"air_conditioning": "no", "amenity": "pub", "facebook": "https://www.facebook.com/pages/Cafe-Hytten/113255848745624", "fvst:navnelbnr": "796833", "indoor_seating": "yes", "name": "Cafe Hytten", "opening_hours": "Mo-Sa 06:00-01:00, Su 10:00-01:00", "outdoor_seating": "no", "phone": "+45 33 79 70 70", "ref:DK:cvr": "26348196", "ref:DK:cvr:pnummer": "1019889730", "smoking": "yes", "wheelchair": "no"}}, {"type": "node", "id": 895776321, "lat": 55.6754762, "lon": 12.5662861, "tags": {"amenity": "pub", "branch": "Vesterbrogade", "brand": "The Old Irish Pub", "fvst:navnelbnr": "749035", "name": "The Old Irish Pub Vesterbrogade", "phone": "+45 51 26 84 97", "ref:DK:cvr": "35028692", "ref:DK:cvr:pnummer": "1023454013", "website": "https://oldirishpub.dk/", "wheelchair": "no"}}, {"type": "node", "id": 895777978, "lat": 55.6755287, "lon": 12.5664591, "tags": {"amenity": "pub", "fvst:navnelbnr": "111291", "name": "The Old English Pub", "ref:DK:cvr": "15699345", "ref:DK:cvr:pnummer": "1002974400", "source": "Kaart Ground Survey 2017", "wheelchair": "limited"}}, {"type": "node", "id": 899199394, "lat": 55.6644904, "lon": 12.5838891, "tags": {"amenity": "pub", "fvst:navnelbnr": "955186", "name": "Artillericafeen", "opening_hours": "Mo-Sa 10:00-02:00; Su off", "ref:DK:cvr": "18525739", "ref:DK:cvr:pnummer": "1025718883"}}, {"type": "node", "id": 923662035, "lat": 55.698944, "lon": 12.5408153, "tags": {"amenity": "pub", "fvst:navnelbnr": "556716", "name": "Esrom Kroen", "ref:DK:cvr": "36002689", "ref:DK:cvr:pnummer": "1019704412"}}, {"type": "node", "id": 976747659, "lat": 55.7104835, "lon": 12.5610308, "tags": {"amenity": "pub", "fvst:navnelbnr": "116590", "name": "B\u00f8rges Bodega", "opening_hours": "Mo-Su 15:00-20:00", "ref:DK:cvr": "32146287", "ref:DK:cvr:pnummer": "1015250077", "source": "Kaart Ground Survey 2017", "wheelchair": "no"}}, {"type": "node", "id": 1109570885, "lat": 55.6950589, "lon": 12.5479618, "tags": {"amenity": "pub", "fvst:navnelbnr": "111781", "name": "N\u00f8rre Bodega", "opening_hours": "Mo-Su 10:00-05:00", "ref:DK:cvr": "13986940", "ref:DK:cvr:pnummer": "1000661172", "wheelchair": "limited"}}, {"type": "node", "id": 1118919064, "lat": 55.6942552, "lon": 12.5482944, "tags": {"amenity": "pub", "fvst:navnelbnr": "117859", "indoor_seating": "yes", "name": "Cafe Runddelen", "opening_hours": "Mo-Su 12:00-05:00", "outdoor_seating": "yes", "ref:DK:cvr": "28533640", "ref:DK:cvr:pnummer": "1015905146", "wheelchair": "limited"}}, {"type": "node", "id": 1121970704, "lat": 55.6979994, "lon": 12.5358935, "tags": {"amenity": "pub", "fvst:navnelbnr": "113491", "name": "Caf\u00e9 Under Hylden", "phone": "+45 38117477", "ref:DK:cvr": "26068037", "ref:DK:cvr:pnummer": "1012085563", "website": "http://underhylden.dk/"}}, {"type": "node", "id": 1136433325, "lat": 55.689562, "lon": 12.556587, "tags": {"amenity": "pub", "fvst:navnelbnr": "1218492", "name": "Temple Bar", "opening_hours": "Mo-Su 15:00-24:00", "ref:DK:cvr": "29153248", "ref:DK:cvr:pnummer": "1014870020", "sport": "table_soccer", "wheelchair": "no"}}, {"type": "node", "id": 1164115044, "lat": 55.6876316, "lon": 12.527984, "tags": {"amenity": "pub", "fvst:navnelbnr": "669956", "name": "Vint\u00f8nden", "ref:DK:cvr": "36477334", "ref:DK:cvr:pnummer": "1020302662", "wheelchair": "no"}}, {"type": "node", "id": 1200013170, "lat": 55.6936967, "lon": 12.5321763, "tags": {"amenity": "pub", "fvst:navnelbnr": "115688", "name": "Det Gamle Posthus", "ref:DK:cvr": "28257597", "ref:DK:cvr:pnummer": "1011107180"}}, {"type": "node", "id": 1200114179, "lat": 55.6960958, "lon": 12.5475371, "tags": {"amenity": "pub", "fvst:navnelbnr": "905221", "name": "Mucki Bar", "ref:DK:cvr": "26050499", "ref:DK:cvr:pnummer": "1024019957", "wheelchair": "limited"}}, {"type": "node", "id": 1358983535, "lat": 55.664579, "lon": 12.604527, "tags": {"amenity": "pub", "fvst:navnelbnr": "525601", "name": "Bootleggers Craft Beer Bar", "opening_hours": "Mo-Su 16:00-02:00", "phone": "+45 61776111", "smoking": "outside", "website": "https://www.facebook.com/bootamager/"}}, {"type": "node", "id": 1369021923, "lat": 55.7007099, "lon": 12.5417497, "tags": {"amenity": "pub", "fvst:name": "WEIERGANG LARSEN", "fvst:navnelbnr": "112116", "name": "Cafe Heimdal", "ref:DK:cvr": "76147418", "smoking": "yes", "wheelchair": "no"}}, {"type": "node", "id": 1463848266, "lat": 55.684931, "lon": 12.558795, "tags": {"amenity": "pub", "fvst:navnelbnr": "110838", "name": "Diligencen", "opening_hours": "Mo-Fr 08:00-24:00; Sa-Su 10:00-24:00", "ref:DK:cvr": "89744415", "ref:DK:cvr:pnummer": "1002825730", "wheelchair": "limited"}}, {"type": "node", "id": 1478802918, "lat": 55.6819408, "lon": 12.5634756, "tags": {"amenity": "pub", "fvst:navnelbnr": "117246", "name": "Caf\u00e9 Stjernen", "ref:DK:cvr": "29208263", "ref:DK:cvr:pnummer": "1012115810"}}, {"type": "node", "id": 1590786486, "lat": 55.6780616, "lon": 12.5824889, "tags": {"amenity": "pub", "fvst:navnelbnr": "111238", "name": "Cafe Nick", "ref:DK:cvr": "18018543", "ref:DK:cvr:pnummer": "1001412709", "wikidata": "Q21855744"}}, {"type": "node", "id": 1595066426, "lat": 55.6644556, "lon": 12.598079, "tags": {"amenity": "pub", "fvst:navnelbnr": "1120264", "name": "Lassie Bar", "ref:DK:cvr": "40975829", "ref:DK:cvr:pnummer": "1025287114"}}, {"type": "node", "id": 1608797133, "lat": 55.6797778, "lon": 12.584715, "tags": {"amenity": "pub", "contact:email": "hviids@mail.tele.dk", "fvst:navnelbnr": "1272679", "indoor_seating": "yes", "name": "Hviids Vinstue", "opening_hours": "PH,Mo-Th 10:00-01:00, PH,Su 10:00-20:00, PH,Fr,Sa 10:00-02:00", "outdoor_seating": "yes", "phone": "+45 33151064", "ref:DK:cvr": "42086916", "ref:DK:cvr:pnummer": "1026778006", "smoking": "isolated", "website": "http://www.hviidsvinstue.dk/", "wheelchair": "limited", "wikidata": "Q23590697"}}, {"type": "node", "id": 1613051108, "lat": 55.6767102, "lon": 12.5721156, "tags": {"amenity": "pub", "fvst:navnelbnr": "1240578", "name": "Centralhj\u00f8rnet", "ref:DK:cvr": "42841781", "ref:DK:cvr:pnummer": "1027736021", "source": "survey", "website": "https://centralhjornet.dk/", "wheelchair": "no", "wikidata": "Q106668905"}}, {"type": "node", "id": 1616786814, "lat": 55.6813135, "lon": 12.5642273, "tags": {"amenity": "pub", "fvst:navnelbnr": "113995", "internet_access": "wlan", "internet_access:fee": "no", "name": "Cafe Globen", "ref:DK:cvr": "28299346", "ref:DK:cvr:pnummer": "1011002907", "website": "http://www.cafegloben.dk", "wheelchair": "limited"}}, {"type": "node", "id": 1619265824, "lat": 55.6668132, "lon": 12.5048845, "tags": {"amenity": "pub", "fvst:name": "Restaurant/Bar Nanok", "fvst:navnelbnr": "565688", "name": "Nanok Bar", "phone": "+45 36305846", "ref:DK:cvr": "36545399", "source": "Kaart Ground Survey 2017", "website": "https://www.nanokbodega.com/"}}, {"type": "node", "id": 1628470253, "lat": 55.6816239, "lon": 12.5793588, "tags": {"amenity": "pub", "fvst:navnelbnr": "112691", "name": "Byens Kro", "ref:DK:cvr": "28962215", "ref:DK:cvr:pnummer": "1010357779"}}, {"type": "node", "id": 1629995901, "lat": 55.6803457, "lon": 12.5897588, "tags": {"amenity": "pub", "fvst:navnelbnr": "114345", "name": "Hyttefadet", "outdoor_seating": "yes", "ref:DK:cvr": "18408171", "ref:DK:cvr:pnummer": "1003245273", "wheelchair": "limited"}}, {"type": "node", "id": 1629996639, "lat": 55.6803121, "lon": 12.5898879, "tags": {"amenity": "pub", "fvst:navnelbnr": "786680", "name": "Skipperkroen", "ref:DK:cvr": "17720082", "ref:DK:cvr:pnummer": "1024218275", "wheelchair": "limited"}}, {"type": "node", "id": 1629999347, "lat": 55.6802753, "lon": 12.5900424, "tags": {"amenity": "pub", "fvst:navnelbnr": "786684", "name": "Fisken", "ref:DK:cvr": "17720082", "ref:DK:cvr:pnummer": "1024218119", "wheelchair": "limited"}}, {"type": "node", "id": 1630068073, "lat": 55.6770568, "lon": 12.5897281, "tags": {"amenity": "pub", "fvst:navnelbnr": "934514", "name": "Cafe Malm\u00f8", "outdoor_seating": "yes", "payment:credit_cards": "yes", "phone": "+45 3312 7260", "ref:DK:cvr": "36094257", "ref:DK:cvr:pnummer": "1019916754", "toilets": "yes", "website": "https://www.xn--cafemalm-d5a.dk/"}}, {"type": "node", "id": 1655800627, "lat": 55.6665369, "lon": 12.5176996, "tags": {"alt_name": "Guinness Pub", "amenity": "pub", "fvst:navnelbnr": "113091", "name": "Giniz", "opening_hours": "Mo-Th 16:00-02:00, Fr,Sa 16:00-04:00, Su 16:00-24:00", "ref:DK:cvr": "18665689", "ref:DK:cvr:pnummer": "1003947162", "website": "http://giniz.dk/", "wheelchair": "no"}}, {"type": "node", "id": 1822849398, "lat": 55.6583402, "lon": 12.6028151, "tags": {"amenity": "pub", "fvst:navnelbnr": "114811", "name": "Caf\u00e9 Lystig", "opening_hours": "Fr 16:00-04:00, Sa 18:00-04:00", "ref:DK:cvr": "21579343", "ref:DK:cvr:pnummer": "1005036333", "website": "https://www.facebook.com/pages/Cafe-Lystig/263383627062137"}}, {"type": "node", "id": 1982704546, "lat": 55.7029825, "lon": 12.5372678}, {"type": "node", "id": 1982704551, "lat": 55.7029896, "lon": 12.5374706}, {"type": "node", "id": 1982704593, "lat": 55.7032135, "lon": 12.5373879}, {"type": "node", "id": 2144156629, "lat": 55.6573694, "lon": 12.6036199, "tags": {"amenity": "pub", "fvst:navnelbnr": "669978", "name": "Cafe Sundbyvester", "ref:DK:cvr": "36454415", "ref:DK:cvr:pnummer": "1019955520", "website": "http://cafesundbyvester.dk/"}}, {"type": "node", "id": 2163836323, "lat": 55.688325, "lon": 12.5598233, "tags": {"amenity": "pub", "fvst:navnelbnr": "113804", "name": "Understellet", "opening_hours": "Mo-Su 17:00-05:00", "phone": "+45 35 37 04 70", "ref:DK:cvr": "18437198", "ref:DK:cvr:pnummer": "1003438739", "smoking": "isolated", "sport": "table_soccer", "table_soccer": "italian", "website": "http://www.understellet.dk/", "wheelchair": "no"}}, {"type": "node", "id": 2855855758, "lat": 55.676199, "lon": 12.571519, "tags": {"amenity": "pub", "contact:facebook": "https://www.facebook.com/taphouse.dk/", "contact:foursquare": "https://foursquare.com/v/taphouse/5311e1ab498e444e2f4ea063", "email": "kontakt@taphouse.dk", "fvst:navnelbnr": "543684", "internet_access": "wlan", "internet_access:fee": "no", "name": "Taphouse", "opening_hours": "Mo-Th 15:00-02:00; Fr-Sa 12:00-02:00; Su 12:00-24:00", "phone": "+4588876543", "ref:DK:cvr": "35140905", "ref:DK:cvr:pnummer": "1018340948", "smoking": "no", "website": "https://taphouse.dk/", "wheelchair": "no"}}, {"type": "node", "id": 3106600429, "lat": 55.6626284, "lon": 12.6043899, "tags": {"amenity": "pub", "fvst:navnelbnr": "112175", "name": "Amagerhylden", "phone": "+45 32542800", "website": "http://www.amagerhylden.dk/"}}, {"type": "node", "id": 3286415949, "lat": 55.6738535, "lon": 12.5437949, "tags": {"amenity": "pub", "fvst:navnelbnr": "570657", "name": "Frederik VI", "opening_hours": "Su-Th 11:00-01:00, Fr-Sa 11:00-02:00", "phone": "+45 3331 3338", "ref:DK:cvr": "21821993", "ref:DK:cvr:pnummer": "1020381155", "smoking": "no", "website": "https://www.frederik-vi.dk/", "wheelchair": "no"}}, {"type": "node", "id": 3372385620, "lat": 55.684032, "lon": 12.5674679, "tags": {"amenity": "pub", "fvst:navnelbnr": "515180", "name": "S\u00f8ren Ged's Garage", "opening_hours": "Mo-We 11:00-02:00,Th-Sa 11:00-05:00, Su 11:00-02:00", "ref:DK:cvr": "29208263", "ref:DK:cvr:pnummer": "1017685739", "website": "https://www.s\u00f8rengedsgarage.dk/", "wheelchair": "no"}}, {"type": "node", "id": 3404321016, "lat": 55.67744, "lon": 12.5699, "tags": {"amenity": "pub", "fvst:navnelbnr": "519972", "name": "Musen & Elefanten", "opening_hours": "Th 16:00-04:00,Fr-Sa 16:00-05:00", "payment:bitcoin": "yes", "phone": "+45 26712779", "ref:DK:cvr": "34703086", "ref:DK:cvr:pnummer": "1018064096", "website": "https://musen-og-elefanten.dk/"}}, {"type": "node", "id": 3418798611, "lat": 55.6497326, "lon": 12.4907666, "tags": {"amenity": "pub", "fvst:navnelbnr": "109634", "name": "Harrestrup Kro", "ref:DK:cvr": "10769639", "ref:DK:cvr:pnummer": "1002901150"}}, {"type": "node", "id": 3545260204, "lat": 55.7053238, "lon": 12.4783422, "tags": {"amenity": "pub", "fvst:navnelbnr": "111274", "name": "Caf\u00e9 Kilden", "ref:DK:cvr": "27202063", "ref:DK:cvr:pnummer": "1009923183", "source": "survey"}}, {"type": "node", "id": 3798400056, "lat": 55.7170154, "lon": 12.5775907, "tags": {"amenity": "pub", "fvst:navnelbnr": "114702", "name": "Svane Pub", "ref:DK:cvr": "29031088", "ref:DK:cvr:pnummer": "1006364468"}}, {"type": "node", "id": 3898784968, "lat": 55.6685278, "lon": 12.5599599, "tags": {"amenity": "pub", "facebook": "https://www.facebook.com/warpigsbrewpub", "fvst:navnelbnr": "560424", "internet_access": "wlan", "internet_access:fee": "no", "microbrewery": "yes", "name": "Warpigs Brewpub", "opening_hours": "Mo-Th 11:00-24:00, Fr-Sa 11:00-02:00, Su 11:00-22:00", "outdoor_seating": "yes", "phone": "+45 43484848", "ref:DK:cvr": "35864237", "ref:DK:cvr:pnummer": "1019887754", "takeaway": "yes", "website": "https://warpigs.dk/", "wheelchair": "yes"}}, {"type": "node", "id": 3998863476, "lat": 55.7080609, "lon": 12.5227165, "tags": {"amenity": "pub", "fvst:navnelbnr": "553379", "name": "Pool-pub", "ref:DK:cvr": "32349323", "ref:DK:cvr:pnummer": "1019460734"}}, {"type": "node", "id": 4001191951, "lat": 55.6577871, "lon": 12.6026326, "tags": {"amenity": "pub", "name": "Tingkroen", "opening_hours": "Mo-Sa 10:00-24:00; Su10:00-22:00"}}, {"type": "node", "id": 4176224501, "lat": 55.7052697, "lon": 12.504513, "tags": {"amenity": "pub", "brewery": "yes", "fvst:navnelbnr": "559958", "name": "Br\u00f8nsh\u00f8j Borger Kro", "outdoor_seating": "yes", "phone": "+45 38605849", "ref:DK:cvr": "36128658", "ref:DK:cvr:pnummer": "1019870959"}}, {"type": "node", "id": 4402401626, "lat": 55.6537587, "lon": 12.616193, "tags": {"amenity": "pub", "fvst:navnelbnr": "501919", "name": "Cafe Smil", "opening_hours": "10:00-02:00", "ref:DK:cvr": "27753493", "ref:DK:cvr:pnummer": "1017110434"}}, {"type": "node", "id": 4436431103, "lat": 55.6882823, "lon": 12.5618437, "tags": {"amenity": "pub", "fvst:navnelbnr": "564835", "name": "Det ny Scala", "phone": "+45 35370015", "ref:DK:cvr": "31460549", "ref:DK:cvr:pnummer": "1019094398", "wheelchair": "no"}}, {"type": "node", "id": 4673702481, "lat": 55.6977172, "lon": 12.5468341, "tags": {"amenity": "pub", "fvst:navnelbnr": "696953", "microbrewery": "yes", "name": "Brewers Inc.", "opening_hours": "Tu-Th 17:00-24:00, Fr 14:00-02:00, Sa 13:00-02:00", "ref:DK:cvr": "37811963", "ref:DK:cvr:pnummer": "1022727725", "website": "https://www.brewersinc.dk/"}}, {"type": "node", "id": 5961450907, "lat": 55.7038496, "lon": 12.5777204, "tags": {"air_conditioning": "no", "amenity": "pub", "dog": "no", "fvst:navnelbnr": "955187", "indoor_seating": "yes", "name": "Park Pub", "opening_hours:signed": "no", "outdoor_seating": "no", "payment:credit_cards": "yes", "payment:debit_cards": "yes", "ref:DK:cvr": "18525739", "ref:DK:cvr:pnummer": "1026252756", "smoking": "no", "wheelchair": "no"}}, {"type": "node", "id": 6789125592, "lat": 55.7154575, "lon": 12.5772329, "tags": {"air_conditioning": "no", "amenity": "pub", "fvst:navnelbnr": "553680", "indoor_seating": "yes", "name": "Caf\u00e9 Kildev\u00e6ld", "opening_hours": "Mo-We 12:00-24:00; Th-Sa 12:00-02:00; Su off", "outdoor_seating": "yes", "ref:DK:cvr": "35844716", "ref:DK:cvr:pnummer": "1019362996", "smoking": "yes", "wheelchair": "yes"}}, {"type": "node", "id": 6898216400, "lat": 55.6936048, "lon": 12.5695578, "tags": {"amenity": "pub", "fvst:navnelbnr": "115674", "name": "Caf\u00e9 2'eren", "ref:DK:cvr": "18899892", "ref:DK:cvr:pnummer": "1003599376"}}, {"type": "node", "id": 6993532109, "lat": 55.7187943, "lon": 12.5553239, "tags": {"amenity": "pub", "fvst:navnelbnr": "115218", "name": "Den Gamle Vinstue", "opening_hours": "Mo-We 12:00-24:00, Th-Sa 12:00-01:00, Su 12:00-22:00", "ref:DK:cvr": "18575647", "ref:DK:cvr:pnummer": "1003487036", "wheelchair": "no"}}, {"type": "node", "id": 7098162233, "lat": 55.688681, "lon": 12.5440284, "tags": {"amenity": "pub", "brewery": "yes", "description": "Bodega", "fvst:navnelbnr": "931435", "min_age": "18", "name": "Klovnens Bodega", "opening_hours": "Mo-Sa 10:00-01:00, Su 10:00-22:00", "outdoor_seating": "yes", "ref:DK:cvr": "39747103", "wheelchair": "limited"}}, {"type": "node", "id": 7146478209, "lat": 55.6761113, "lon": 12.5458249, "tags": {"amenity": "pub", "fvst:navnelbnr": "923521", "name": "La f\u00e9e verte", "ref:DK:cvr": "40579877", "ref:DK:cvr:pnummer": "1024777517"}}, {"type": "node", "id": 8107469773, "lat": 55.675785, "lon": 12.567133, "tags": {"amenity": "pub", "fvst:navnelbnr": "953627", "name": "Proud Mary", "phone": "+45 31341876", "ref:DK:cvr": "41215933", "website": "https://proudmarypub.dk/", "wheelchair": "limited"}}, {"type": "node", "id": 8110000748, "lat": 55.691821, "lon": 12.555717, "tags": {"amenity": "pub", "fvst:navnelbnr": "747074", "microbrewery": "yes", "name": "Brus Bar", "ref:DK:cvr": "37222852", "website": "https://tapperietbrus.dk/bar/"}}, {"type": "node", "id": 8117602419, "lat": 55.6706354, "lon": 12.5423642, "tags": {"amenity": "pub", "cuisine": "scottish", "diet:vegetarian": "no", "drink:beer": "served", "fvst:navnelbnr": "793352", "name": "Trows", "opening_hours": "Tu-Th 17:00-22:00; Fr,Sa 15:00-22:00; Su 14:00-20:00", "outdoor_seating": "yes", "phone": "+45 24 41 72 18", "ref:DK:cvr": "36324791", "wheelchair": "no"}}, {"type": "node", "id": 8117602436, "lat": 55.690418, "lon": 12.517152, "tags": {"amenity": "pub", "fvst:navnelbnr": "906554", "name": "\u00d8lands Pub", "phone": "+45 61725272", "ref:DK:cvr": "38189352"}}, {"type": "node", "id": 8124919088, "lat": 55.7040934, "lon": 12.5279773, "tags": {"amenity": "pub", "fvst:navnelbnr": "119049", "name": "N\u00f8rre Pub", "ref:DK:cvr": "32621686"}}, {"type": "node", "id": 8486140275, "lat": 55.6851195, "lon": 12.5527485, "tags": {"amenity": "pub", "fvst:navnelbnr": "1144337", "name": "Sorte Ren\u00e9", "ref:DK:cvr": "36973595", "ref:DK:cvr:pnummer": "1020601635"}}, {"type": "node", "id": 8554130473, "lat": 55.7031125, "lon": 12.5372534}, {"type": "node", "id": 8554130474, "lat": 55.7032085, "lon": 12.5372428}, {"type": "node", "id": 8554130491, "lat": 55.703036, "lon": 12.5374654}, {"type": "node", "id": 8554130492, "lat": 55.703034, "lon": 12.5374077}, {"type": "node", "id": 9350660864, "lat": 55.678085, "lon": 12.5803526, "tags": {"amenity": "pub", "fvst:navnelbnr": "1010686", "name": "Social Pub", "outdoor_seating": "yes", "phone": "+45 24444766", "ref:DK:cvr": "42318272", "ref:DK:cvr:pnummer": "1027075378", "website": "https://thesocialpub.dk/"}}, {"type": "node", "id": 10064097280, "lat": 55.699519, "lon": 12.578004, "tags": {"air_conditioning": "no", "amenity": "pub", "check_date": "2023-03-05", "cuisine": "burger", "indoor_seating": "yes", "name": "\u00d8B", "opening_hours": "Mo-Th 16:00-24:00, Fr 14:00-01:00, Sa 12:00-01:00, Su 12:00-23:00", "operator": "\u00d8lbar p\u00e5 \u00d8sterbro", "outdoor_seating": "yes", "payment:credit_cards": "yes", "payment:debit_cards": "yes", "smoking": "outside", "wheelchair": "no"}}, {"type": "way", "id": 187638708, "nodes": [8554130474, 8554130473, 1982704546, 1982704551, 8554130491, 8554130492, 1982704593, 8554130474], "tags": {"amenity": "pub", "biergarten": "yes", "brewery": "yes;various", "building": "yes", "check_date": "2022-12-10", "contact:facebook": "https://www.facebook.com/lygtenskro", "cuisine": "german", "fvst:navnelbnr": "552309", "indoor_seating": "yes", "name": "Lygtens Kro", "opening_hours": "12:00-02:00; Su-Mo off", "outdoor_seating": "yes", "payment:mastercard": "yes", "payment:visa": "yes", "phone": "+45 26369086", "ref:DK:cvr": "34516448", "ref:DK:cvr:pnummer": "1017734578", "website": "https://www.lygtens-kro.dk/", "wheelchair": "limited"}}]}