{"version": 0.6, "generator": "Overpass API 0.7.59.4 36d058c8", "osm3s": {"timestamp_osm_base": "2023-04-03T14:26:24Z", "copyright": "The data included in this document is from www.openstreetmap.org. The data is made available under ODbL."}, "elements": [{"type": "node", "id": 277694702, "lat": 55.6770916, "lon": 12.532119, "tags": {"amenity": "pub", "fvst:navnelbnr": "115321", "name": "Cafe Intime", "opening_hours": "Mo-Su 16:00 - 02:00", "phone": "+45 38 34 19 58", "ref:DK:cvr": "27979440", "ref:DK:cvr:pnummer": "1010696328", "toilets": "yes", "website": "http://www.cafeintime.dk/", "wikidata": "Q12305023", "wikipedia": "da:Cafe Intime"}}, {"type": "node", "id": 277703258, "lat": 55.6752681, "lon": 12.5328906, "tags": {"alt_name": "Psykopaten", "amenity": "pub", "fvst:navnelbnr": "111210", "name": "All\u00e9enberg", "opening_hours": "Tu-Sa 22:00-05:00", "outdoor_seating": "yes", "payment:credit_cards": "yes", "phone": "+45 33254442", "ref:DK:cvr": "25689097", "ref:DK:cvr:pnummer": "1007991440", "toilets": "yes", "website": "http://www.alleenberg.dk/", "wheelchair": "no"}}, {"type": "node", "id": 278389273, "lat": 55.6742295, "lon": 12.5399431, "tags": {"amenity": "pub", "fvst:navnelbnr": "738934", "name": "Promenaden", "opening_hours": "Mo-We 11:00-23:00; Th-Sa 11:00-24:00; Su 11:00-18:00", "ref:DK:cvr": "39126680", "ref:DK:cvr:pnummer": "1023555944", "wheelchair": "no"}}, {"type": "node", "id": 279144098, "lat": 55.6855209, "lon": 12.5382279, "tags": {"amenity": "pub", "fvst:navnelbnr": "112209", "name": "London Pub", "ref:DK:cvr": "30725662", "ref:DK:cvr:pnummer": "1013479026", "wheelchair": "no"}}, {"type": "node", "id": 279901270, "lat": 55.6786581, "lon": 12.5325728, "tags": {"amenity": "bar", "fvst:navnelbnr": "719930", "name": "The Old Irish Pub", "payment:credit_cards": "yes", "phone": "+45 5189 7713", "ref:DK:cvr": "35028692", "ref:DK:cvr:pnummer": "1022691070", "toilets": "yes", "website": "https://oldirishpub.dk/", "wheelchair": "yes"}}, {"type": "node", "id": 280530612, "lat": 55.671781, "lon": 12.5548963, "tags": {"amenity": "pub", "fvst:name": "Caf\u00e9 BarBar Bar", "fvst:navnelbnr": "672161", "name": "Barbar Bar", "ref:DK:cvr": "37747904", "ref:DK:cvr:pnummer": "1022052566", "wheelchair": "no"}}, {"type": "node", "id": 281998525, "lat": 55.6864556, "lon": 12.5579695, "tags": {"amenity": "bar", "fvst:navnelbnr": "567872", "internet_access": "wlan", "name": "Bl\u00e5g\u00e5rds Apotek", "opening_hours": "Mo-Th 14:00-02:00, Fr-Su 12:00-02:00", "ref:DK:cvr": "31896738", "ref:DK:cvr:pnummer": "1014980128", "website": "http://kroteket.dk/"}}, {"type": "node", "id": 316122207, "lat": 55.6814563, "lon": 12.5495147, "tags": {"amenity": "pub", "fvst:navnelbnr": "955287", "name": "Bodega 48", "ref:DK:cvr": "36152680"}}, {"type": "node", "id": 698514092, "lat": 55.6730196, "lon": 12.5597708, "tags": {"amenity": "pub", "fvst:navnelbnr": "118919", "name": "City Pub", "opening_hours": "Su-Tu 16:00-24:00, We,Th 16:00-01:00, Fr,Su 14:00-02:00", "ref:DK:cvr": "31602858", "ref:DK:cvr:pnummer": "1014573034", "wheelchair": "no"}}, {"type": "node", "id": 698801245, "lat": 55.6702253, "lon": 12.5580263, "tags": {"amenity": "bar", "fvst:navnelbnr": "112271", "indoor_seating": "yes", "name": "Hos Tove", "outdoor_seating": "yes", "phone": "+45 33243782", "ref:DK:cvr": "18523175", "ref:DK:cvr:pnummer": "1003468458", "wheelchair": "no"}}, {"type": "node", "id": 704974846, "lat": 55.6864665, "lon": 12.5500587, "tags": {"amenity": "bar", "fvst:navnelbnr": "577983", "name": "Tjili Pop 2", "opening_hours": "Su,Mo 09:00-01:00, Tu,We 09:00-02:00, Th 09:00-03:00, Fr,Sa 09:00-04:00", "ref:DK:cvr": "29550964", "ref:DK:cvr:pnummer": "1004630426", "website": "https://www.tjili.dk/", "wheelchair": "no", "wikidata": "Q18552345"}}, {"type": "node", "id": 724350527, "lat": 55.6723347, "lon": 12.5498081, "tags": {"amenity": "pub", "fvst:navnelbnr": "796827", "name": "Caf\u00e9 Guldregn", "ref:DK:cvr": "21848476", "ref:DK:cvr:pnummer": "1005251062", "website": "http://www.cafe-guldregn.dk/"}}, {"type": "node", "id": 727411650, "lat": 55.6717251, "lon": 12.5458974, "tags": {"amenity": "pub", "check_date": "2023-03-30", "facebook": "https://www.facebook.com/M\u00c4RKBAR-189115531112278/", "fvst:navnelbnr": "116648", "name": "M\u00e4rkbar", "wheelchair": "no"}}, {"type": "node", "id": 734870384, "lat": 55.6708206, "lon": 12.546286, "tags": {"amenity": "pub", "fvst:navnelbnr": "1228672", "name": "Grusgraven", "ref:DK:cvr": "34409234", "ref:DK:cvr:pnummer": "1026525027", "wheelchair": "no"}}, {"type": "node", "id": 735030034, "lat": 55.6740877, "lon": 12.5513488, "tags": {"amenity": "pub", "fvst:navnelbnr": "114373", "name": "Larsen's Plaz", "ref:DK:cvr": "18958899", "ref:DK:cvr:pnummer": "1009849625", "wheelchair": "no"}}, {"type": "node", "id": 738821350, "lat": 55.6709507, "lon": 12.5436884, "tags": {"amenity": "bar", "description": "Vesterbros hyggeligste bar med livesport p\u00e5 storsk\u00e6rme, pool, dart, bordfodbold, plus en l\u00e6kker menu best\u00e5ende af diverse cocktails, special \u00f8l og shots... \u00c5ben alle dage!", "facebook": "https://www.facebook.com/cafeludwigsen/", "fvst:navnelbnr": "699132", "name": "Caf\u00e9 Ludwigsen", "opening_hours": "Mo-We 14:00-02:00, Th-Sa 14:00-05:00, Su 14:00-02:00", "outdoor_seating": "yes", "payment:credit_cards": "yes", "phone": "+45 33237720", "ref:DK:cvr": "33766653", "ref:DK:cvr:pnummer": "1016948833", "sport": "table_soccer", "toilets": "yes", "toilets:wheelchair": "no", "website": "http://www.cafeludwigsen.dk/", "wheelchair": "no"}}, {"type": "node", "id": 818898743, "lat": 55.6719575, "lon": 12.5575483, "tags": {"amenity": "bar", "contact:instagram": "https://www.instagram.com/mikkellerbarvik", "fvst:navnelbnr": "576202", "min_age": "18", "name": "Mikkeller Bar Viktoriagade", "opening_hours": "Mo-Th 14:00-23:00; Fr 14:00-00:00; Sa 12:00-00:00; Su 14:00-22:00", "phone": "+45 33310415", "ref:DK:cvr": "32297757", "ref:DK:cvr:pnummer": "1019053373", "website": "https://mikkeller.com/locations/mikkeller-viktoriagade", "wheelchair": "no"}}, {"type": "node", "id": 823266193, "lat": 55.6788127, "lon": 12.5313704, "tags": {"alt_name": "H.H. Ranch", "amenity": "pub", "fvst:navnelbnr": "112052", "name": "Western Saloon", "ref:DK:cvr": "10193001", "wheelchair": "no"}}, {"type": "node", "id": 870440497, "lat": 55.6736923, "lon": 12.5560021, "tags": {"amenity": "bar", "fvst:name": "Kennedys irish Bar A Kennedy & T Tynan", "fvst:navnelbnr": "111889", "name": "Kennedys Irish Bar", "opening_hours": "Mo-Su 12:00-02:00", "phone": "+45 33315249", "ref:DK:cvr": "25715640", "ref:DK:cvr:pnummer": "1008021429", "wheelchair": "no"}}, {"type": "node", "id": 888340138, "lat": 55.673194, "lon": 12.5612145, "tags": {"alt_name": "Scandic Cube Cafe", "amenity": "bar", "check_date": "2023-04-02", "fvst:navnelbnr": "116204", "name": "Cube", "operator": "Scandic Webers", "phone": "+45 33311432", "ref:DK:cvr": "12596774", "wheelchair": "no"}}, {"type": "node", "id": 899019395, "lat": 55.671677, "lon": 12.5547467, "tags": {"amenity": "bar", "cuisine": "wine", "fvst:navnelbnr": "116093", "name": "Vinbaren Vesterbro Torv", "phone": "+45 21408527", "ref:DK:cvr": "18050285", "ref:DK:cvr:pnummer": "1015008055", "website": "http://vinbarenvesterbrotorv.dk/", "wheelchair": "no"}}, {"type": "node", "id": 1200105789, "lat": 55.6880152, "lon": 12.5606456, "tags": {"amenity": "bar", "email": "cocktail@kassen.dk", "fvst:navnelbnr": "115544", "name": "Kassen", "opening_hours": "We 20:00-02:00; Th 20:00-03:00; Fr 16:00-04:00; Sa 20:00-04:00", "phone": "+4542572200", "ref:DK:cvr": "30987578", "ref:DK:cvr:pnummer": "1013740387", "website": "http://kassen.dk", "wheelchair": "limited"}}, {"type": "node", "id": 1305262264, "lat": 55.6876448, "lon": 12.5594632, "tags": {"amenity": "bar", "check_date": "2020-12-16", "diet:vegan": "yes", "diet:vegetarian": "yes", "name": "Harbo Bar", "opening_hours": "Mo-Th 08:30-00:00, Fr 08:30-02:00, Sa 09:30-02:00, Su 09:30-23:00"}}, {"type": "node", "id": 1463848266, "lat": 55.684931, "lon": 12.558795, "tags": {"amenity": "pub", "fvst:navnelbnr": "110838", "name": "Diligencen", "opening_hours": "Mo-Fr 08:00-24:00; Sa-Su 10:00-24:00", "ref:DK:cvr": "89744415", "ref:DK:cvr:pnummer": "1002825730", "wheelchair": "limited"}}, {"type": "node", "id": 2008179830, "lat": 55.6859481, "lon": 12.5523945, "tags": {"amenity": "bar", "fvst:navnelbnr": "509492", "name": "Dupong", "outdoor_seating": "no", "ref:DK:cvr": "33864922", "ref:DK:cvr:pnummer": "1017038652", "smoking": "no"}}, {"type": "node", "id": 2014805166, "lat": 55.6858796, "lon": 12.5523207, "tags": {"alt_name": "\u00d8lsnedkernes Klub Bar", "amenity": "bar", "contact:facebook": "https://www.facebook.com/olsnedkeren/", "contact:instagram": "https://www.instagram.com/olsnedkeren/", "drink:beer": "served", "email": "baren@olsnedkeren.dk", "fvst:navnelbnr": "505533", "min_age": "18", "name": "\u00d8lsnedkeren", "opening_hours": "Mo-We 14:00-24:00, Th-Sa 14:00-02:00", "outdoor_seating": "no", "ref:DK:cvr": "33276249", "ref:DK:cvr:pnummer": "1016491892", "website": "https://olsnedkeren.dk/", "wheelchair": "limited"}}, {"type": "node", "id": 2121839393, "lat": 55.6751567, "lon": 12.5476811, "tags": {"amenity": "bar", "contact:email": "vinstue90@mail.dk", "fvst:navnelbnr": "112834", "name": "Vinstue 90", "opening_hours": "Su-We 11:00-01:00, Th-Sa 11:00-02:00", "phone": "+45 33318490", "ref:DK:cvr": "26452961", "ref:DK:cvr:pnummer": "1008932537", "smoking": "yes", "source": "Fugro (2005)", "wheelchair": "no", "wikidata": "Q12341137"}}, {"type": "node", "id": 2156654226, "lat": 55.6744834, "lon": 12.5512432, "tags": {"amenity": "bar", "email": "amigobar@os.dk", "fvst:navnelbnr": "111881", "name": "Amigo Bar", "phone": "+45 3321 4915", "ref:DK:cvr": "14951881", "ref:DK:cvr:pnummer": "1000834597", "smoking": "yes"}}, {"type": "node", "id": 2338189050, "lat": 55.6733748, "lon": 12.5517592}, {"type": "node", "id": 2338189058, "lat": 55.6732493, "lon": 12.5516709}, {"type": "node", "id": 2338189065, "lat": 55.6732082, "lon": 12.5517698}, {"type": "node", "id": 2338189077, "lat": 55.6733669, "lon": 12.5516622}, {"type": "node", "id": 3286415949, "lat": 55.6738535, "lon": 12.5437949, "tags": {"amenity": "pub", "fvst:navnelbnr": "570657", "name": "Frederik VI", "opening_hours": "Su-Th 11:00-01:00, Fr-Sa 11:00-02:00", "phone": "+45 3331 3338", "ref:DK:cvr": "21821993", "ref:DK:cvr:pnummer": "1020381155", "smoking": "no", "website": "https://www.frederik-vi.dk/", "wheelchair": "no"}}, {"type": "node", "id": 3312007936, "lat": 55.6731978, "lon": 12.5516753}, {"type": "node", "id": 3312007937, "lat": 55.6731996, "lon": 12.5517704}, {"type": "node", "id": 3404321298, "lat": 55.671218, "lon": 12.5604749, "tags": {"amenity": "bar", "fvst:navnelbnr": "115610", "name": "Spunk Bar", "ref:DK:cvr": "24214583", "ref:DK:cvr:pnummer": "1006414760"}}, {"type": "node", "id": 3404342223, "lat": 55.6740948, "lon": 12.5499759, "tags": {"amenity": "bar", "fvst:navnelbnr": "119665", "name": "Falernum", "ref:DK:cvr": "31178851", "ref:DK:cvr:pnummer": "1016162252", "wheelchair": "no"}}, {"type": "node", "id": 3473014569, "lat": 55.6876476, "lon": 12.546982, "tags": {"amenity": "bar", "check_date": "2020-12-13", "drink:beer": "yes", "name": "K\u00f8lsters Tolv Haner", "name:es": "K\u00f8lsters Tolv Haner", "opening_hours": "Mo-Su 15:00-24:00", "phone": "+45 32209484", "wheelchair": "no"}}, {"type": "node", "id": 3529010440, "lat": 55.6731985, "lon": 12.5517167}, {"type": "node", "id": 4004994253, "lat": 55.6705, "lon": 12.531252, "tags": {"amenity": "bar", "cuisine": "steak", "fvst:navnelbnr": "118558", "indoor_seating": "yes", "name": "BAR 23", "opening_hours": "17:00-23:00; Su 17:00-22:00", "outdoor_seating": "no", "phone": "+45 33227007", "ref:DK:cvr": "27168329", "ref:DK:cvr:pnummer": "1015846107", "website": "https://www.pilekroen.dk/"}}, {"type": "node", "id": 4007480897, "lat": 55.678419, "lon": 12.554611, "tags": {"amenity": "bar", "fvst:navnelbnr": "761790", "name": "Salon 39", "ref:DK:cvr": "39713039", "ref:DK:cvr:pnummer": "1023781855"}}, {"type": "node", "id": 4007924197, "lat": 55.6875478, "lon": 12.5470834, "tags": {"amenity": "bar", "fvst:navnelbnr": "721138", "name": "Tolv Haner", "opening_hours": "Fr,Sa 14:00-01:00, Mo-Th 15:00-24:00, Su 14:00-22:00", "ref:DK:cvr": "38749862", "ref:DK:cvr:pnummer": "1022585289", "wheelchair": "no"}}, {"type": "node", "id": 4387720611, "lat": 55.6869467, "lon": 12.5594593, "tags": {"amenity": "bar", "fvst:name": "Vinhanen S.M.B.A.", "fvst:navnelbnr": "523380", "name": "Vinhanen", "ref:DK:cvr": "35039244", "ref:DK:cvr:pnummer": "1018260383"}}, {"type": "node", "id": 4389544398, "lat": 55.6752253, "lon": 12.5612217, "tags": {"amenity": "bar", "fvst:navnelbnr": "114231", "name": "Imperial Bio \u00d8vre Bar", "ref:DK:cvr": "28344910", "ref:DK:cvr:pnummer": "1003023344", "wheelchair": "no"}}, {"type": "node", "id": 4402639618, "lat": 55.687061, "lon": 12.549315, "tags": {"amenity": "bar", "fvst:navnelbnr": "564445", "name": "Kocktails", "ref:DK:cvr": "36543868", "ref:DK:cvr:pnummer": "1020163239", "website": "http://kocktails.dk/"}}, {"type": "node", "id": 4424224041, "lat": 55.671923, "lon": 12.545461, "tags": {"amenity": "bar", "fvst:navnelbnr": "551620", "name": "Portvinsbaren", "opening_hours": "Th 17:00-23:00; Fr,Sa 17:00-01:00", "ref:DK:cvr": "35814329", "ref:DK:cvr:pnummer": "1019255332", "website": "http://vinhulen.dk/portvinsbaren.asp", "wheelchair": "no"}}, {"type": "node", "id": 4434074415, "lat": 55.674011, "lon": 12.53701, "tags": {"amenity": "bar", "fvst:navnelbnr": "111602", "name": "Betty Nansen Teaterbar", "ref:DK:cvr": "17358944", "ref:DK:cvr:pnummer": "1017103918"}}, {"type": "node", "id": 4593377199, "lat": 55.671211, "lon": 12.5496708, "tags": {"amenity": "bar", "contact:instagram": "httpd://www.instagram.com/ancestralebra", "email": "spis@ancestrale.dk", "facebook": "https://www.facebook.com/Ancestralebar/", "fvst:navnelbnr": "958384", "name": "Ancestrale", "opening_hours": "Mo-Th 16:00-23:00; Fr-Sa 16:00-24:00", "phone": "+4560407414", "ref:DK:cvr": "41474068", "ref:DK:cvr:pnummer": "1025977730", "website": "http://ancestrale.dk"}}, {"type": "node", "id": 4736814542, "lat": 55.68475, "lon": 12.55307, "tags": {"amenity": "bar", "drink:beer": "served", "fvst:name": "Himmeriget", "fvst:navnelbnr": "574675", "name": "Himmerriget", "opening_hours": "Mo-Sa 15:00-02:00, Su 15:00-24:00", "ref:DK:cvr": "35859659", "ref:DK:cvr:pnummer": "1020227016", "website": "http://www.himmeriget.dk/", "wheelchair": "yes"}}, {"type": "node", "id": 4883742491, "lat": 55.6722464, "lon": 12.5558859, "tags": {"amenity": "bar", "fvst:navnelbnr": "540110", "level": "1", "name": "Zeppelin", "phone": "+45 71 70 36 66", "ref:DK:cvr": "35659641", "ref:DK:cvr:pnummer": "1019119765", "source": "Kaart Ground Survey 2017", "website": "http://zeppelincph.dk/welcome-to-copenhagens-finest-rock-bar/", "wheelchair": "no"}}, {"type": "node", "id": 4886334451, "lat": 55.6866636, "lon": 12.5321631, "tags": {"amenity": "bar", "check_date": "2021-10-29", "fvst:navnelbnr": "634370", "name": "Alhambra Pub", "ref:DK:cvr": "41635223", "ref:DK:cvr:pnummer": "1026220374", "source": "Kaart Ground Survey 2017"}}, {"type": "node", "id": 4959567011, "lat": 55.6717677, "lon": 12.552406, "tags": {"amenity": "bar", "cuisine": "champagne;cocktails", "fvst:navnelbnr": "798024", "name": "The reception", "ref:DK:cvr": "38509527", "ref:DK:cvr:pnummer": "1022343129", "website": "http://www.thereception.dk/"}}, {"type": "node", "id": 5017934280, "lat": 55.6841716, "lon": 12.5430347, "tags": {"amenity": "bar", "fvst:navnelbnr": "710474", "name": "Gensyn", "ref:DK:cvr": "38327429", "ref:DK:cvr:pnummer": "1022087831"}}, {"type": "node", "id": 5075577872, "lat": 55.6717046, "lon": 12.5617535, "tags": {"amenity": "bar", "fvst:navnelbnr": "118832", "name": "Absalon Bar", "operator": "Absalon Hotel", "ref:DK:cvr": "32781829", "ref:DK:cvr:pnummer": "1015892990"}}, {"type": "node", "id": 5124560643, "lat": 55.6704442, "lon": 12.5616796, "tags": {"amenity": "bar", "fvst:navnelbnr": "716546", "name": "Halmtorvet 9", "outdoor_seating": "yes", "payment:credit_cards": "yes", "ref:DK:cvr": "38792547", "ref:DK:cvr:pnummer": "1022657948", "smoking": "yes", "sport": "table_soccer", "toilets": "yes", "website": "https://halmtorvet9.dk/", "wheelchair": "yes"}}, {"type": "node", "id": 5539726136, "lat": 55.6728406, "lon": 12.5570465, "tags": {"amenity": "bar", "email": "info@curfew.dk", "fvst:navnelbnr": "562073", "name": "Curfew", "opening_hours": "Tu-We 18:00-01:00; Th 18:00-02:00; Fr-Sa 18:00-03:00", "phone": "+45 29299276", "ref:DK:cvr": "36067179", "ref:DK:cvr:pnummer": "1020615865", "website": "http://curfew.dk"}}, {"type": "node", "id": 5786719592, "lat": 55.6877519, "lon": 12.5596089, "tags": {"amenity": "bar", "brand": "K\u00f8benhavn", "fvst:navnelbnr": "524351", "name": "Escobar", "outdoor_seating": "yes", "ref:DK:cvr": "31271274", "smoking": "outside"}}, {"type": "node", "id": 6071076502, "lat": 55.671848, "lon": 12.552391, "tags": {"amenity": "bar", "cocktails": "yes", "fvst:navnelbnr": "770970", "name": "Duck and Cover", "opening_hours": "Tu-Sa 16:00-22:00", "phone": "+45 28124290", "ref:DK:cvr": "34726965", "ref:DK:cvr:pnummer": "1018030191", "website": "http://duckandcoverbar.dk/"}}, {"type": "node", "id": 6610407468, "lat": 55.6730015, "lon": 12.5494138, "tags": {"alt_name": "Cafe Postgaarden", "amenity": "bar", "fvst:navnelbnr": "115093", "name": "Postgaarden Bar", "opening_hours": "12:00-22:00; Th-Sa 12:00-24:00; Su,PH 12:00-20:00", "phone": "+45 33312353", "ref:DK:cvr": "28924542", "smoking": "yes", "website": "http://www.postgaardencafe.dk/"}}, {"type": "node", "id": 6687706969, "lat": 55.6783076, "lon": 12.5469372, "tags": {"amenity": "bar", "brewery": "yes;various", "description": "Craft beer bar with 10 taps. Wine, spirits and soft drinks also served.", "email": "info@tap21.dk", "fvst:navnelbnr": "796742", "internet_access": "wlan", "name": "Tap 21 Craft Beer", "opening_hours": "Tu-Th 16:00-23:00; Fr-Sa 16:00-01:00", "outdoor_seating": "yes", "payment:cash": "yes", "payment:contactless": "yes", "payment:credit_cards": "yes", "phone": "+45 207 31 207", "ref:DK:cvr": "40003827", "ref:DK:cvr:pnummer": "1024107627", "website": "https://tap21.dk"}}, {"type": "node", "id": 6699329871, "lat": 55.684145, "lon": 12.550991, "tags": {"amenity": "bar", "fvst:navnelbnr": "796846", "name": "Gamble", "phone": "+45 26220575", "ref:DK:cvr": "39332094", "ref:DK:cvr:pnummer": "1023345826", "website": "http://gamble-cph.dk/"}}, {"type": "node", "id": 6699489674, "lat": 55.6773585, "lon": 12.5380853, "tags": {"amenity": "bar", "check_date": "2020-12-15", "description": "wine bar", "drink:wine": "served", "fvst:navnelbnr": "573704", "name": "Cork Vinbar", "opening_hours": "16:00-23:00; Th 16:00-24:00; Fr-Sa 14:00-01:00; Su off", "phone": "+45 51819992", "ref:DK:cvr": "37082309", "website": "http://corkvinbar.dk/"}}, {"type": "node", "id": 7146478209, "lat": 55.6761113, "lon": 12.5458249, "tags": {"amenity": "pub", "fvst:navnelbnr": "923521", "name": "La f\u00e9e verte", "ref:DK:cvr": "40579877", "ref:DK:cvr:pnummer": "1024777517"}}, {"type": "node", "id": 7334707798, "lat": 55.6702078, "lon": 12.5371716, "tags": {"alt_name": "Cafe Robert", "amenity": "bar", "fvst:navnelbnr": "786580", "name": "Hos Robert", "opening_hours": "Mo-Th 13:00-22:00; Fr,Sa 13:00-02:00", "phone": "+45 33315139", "ref:DK:cvr": "40093052", "smoking": "yes"}}, {"type": "node", "id": 7577988234, "lat": 55.6823112, "lon": 12.5349285, "tags": {"amenity": "bar", "fvst:navnelbnr": "560250", "name": "Vinstuen 29", "opening_hours:signed": "no", "ref:DK:cvr": "34205426", "ref:DK:cvr:pnummer": "1017388076"}}, {"type": "node", "id": 8112535192, "lat": 55.670728, "lon": 12.543986, "tags": {"amenity": "bar", "fvst:name": "JOJO PROJECTS", "fvst:navnelbnr": "953527", "indoor_seating": "yes", "name": "Jojo", "opening_hours": "16:00-22:00; Th 16:00-23:00; Fr-Sa 15:00 - 24:00; Su-Tu off", "outdoor_seating": "yes", "ref:DK:cvr": "40652078", "website": "https://jojovesterbro.dk/", "wheelchair": "limited"}}, {"type": "node", "id": 8117602419, "lat": 55.6706354, "lon": 12.5423642, "tags": {"amenity": "pub", "cuisine": "scottish", "diet:vegetarian": "no", "drink:beer": "served", "fvst:navnelbnr": "793352", "name": "Trows", "opening_hours": "Tu-Th 17:00-22:00; Fr,Sa 15:00-22:00; Su 14:00-20:00", "outdoor_seating": "yes", "phone": "+45 24 41 72 18", "ref:DK:cvr": "36324791", "wheelchair": "no"}}, {"type": "node", "id": 8117602431, "lat": 55.6783113, "lon": 12.5324887, "tags": {"amenity": "bar", "fvst:navnelbnr": "762650", "name": "Belis bar udebaren", "ref:DK:cvr": "30576241", "seasonal": "summer"}}, {"type": "node", "id": 8117602447, "lat": 55.687525, "lon": 12.559342, "tags": {"amenity": "bar", "fvst:navnelbnr": "954601", "name": "Barbarian", "ref:DK:cvr": "41100729", "website": "https://barberianscph.com/"}}, {"type": "node", "id": 8124949020, "lat": 55.6818909, "lon": 12.5592724, "tags": {"amenity": "bar", "fvst:navnelbnr": "905878", "name": "GL24 S\u00f8pavillonen", "ref:DK:cvr": "39911558"}}, {"type": "node", "id": 8124949030, "lat": 55.6732198, "lon": 12.5554902, "tags": {"amenity": "bar", "check_date": "2023-04-01", "fvst:navnelbnr": "112993", "name": "Det Ny Teater Bar 1 balkonplan", "ref:DK:cvr": "17741039"}}, {"type": "node", "id": 8133042254, "lat": 55.687938, "lon": 12.554122, "tags": {"amenity": "bar", "fvst:navnelbnr": "516858", "name": "Trabi Bar", "ref:DK:cvr": "34623287", "ref:DK:cvr:pnummer": "1017835358"}}, {"type": "node", "id": 8137959592, "lat": 55.6711275, "lon": 12.5433807, "tags": {"access:covid19": "no", "amenity": "bar", "check_date": "2023-03-30", "fvst:navnelbnr": "1244618", "name": "Vaest", "ref:DK:cvr": "41182466", "ref:DK:cvr:pnummer": "1025574997", "website": "https://www.vaest.dk/"}}, {"type": "node", "id": 8138045851, "lat": 55.6871892, "lon": 12.5404647, "tags": {"amenity": "bar", "fvst:navnelbnr": "558279", "name": "Frb \u00d8lbar", "opening_hours": "Mo-We 14:00-01:00, Th 14:00-02:00, Fr,Sa 12:00-04:00, Su 12:00-24:00", "ref:DK:cvr": "35519270", "ref:DK:cvr:pnummer": "1018843702"}}, {"type": "node", "id": 8138045852, "lat": 55.6862958, "lon": 12.5400653, "tags": {"air_conditioning": "no", "amenity": "bar", "fvst:navnelbnr": "906091", "indoor_seating": "yes", "name": "Caf\u00e9 Francke", "opening_hours": "Mo-We 13:00-24:00, Th-Sa 13:00-02:00, Su 13:00-20:00", "outdoor_seating": "yes", "phone": "+45 35364052", "ref:DK:cvr": "38192183", "ref:DK:cvr:pnummer": "1021936002", "smoking": "yes"}}, {"type": "node", "id": 8139020148, "lat": 55.6708454, "lon": 12.5584234, "tags": {"amenity": "bar", "fvst:navnelbnr": "918720", "name": "Die Strafbar", "ref:DK:cvr": "39602458", "ref:DK:cvr:pnummer": "1024897881"}}, {"type": "node", "id": 8143723560, "lat": 55.6790425, "lon": 12.539364, "tags": {"amenity": "bar", "fvst:name": "A.V.F. - R\u00c5D Studenter Forening", "fvst:navnelbnr": "113050", "name": "A-vej", "ref:DK:cvr": "16275441", "ref:DK:cvr:pnummer": "1001070509"}}, {"type": "node", "id": 8144238925, "lat": 55.681637, "lon": 12.53076, "tags": {"access": "private", "amenity": "bar", "fvst:navnelbnr": "110827", "name": "Caf\u00e9 Nexus", "ref:DK:cvr": "10020867", "ref:DK:cvr:pnummer": "1007443257", "website": "https://www.cbsstudents.dk/cafe-nexus"}}, {"type": "node", "id": 8144238928, "lat": 55.672427, "lon": 12.557519, "tags": {"amenity": "bar", "brewery": "Refsvindinge", "check_date": "2023-04-02", "drink:beer": "served", "fvst:navnelbnr": "550794", "name": "Dia'legd", "opening_hours": "Th 17:00-24:00, Fr 16:00-02:00, Sa 15:00-02:00", "phone": "+45 20676583", "ref:DK:cvr": "35477292", "ref:DK:cvr:pnummer": "1018764705", "website": "http://dialegd.dk/"}}, {"type": "node", "id": 8144238930, "lat": 55.6732055, "lon": 12.5554754, "tags": {"amenity": "bar", "check_date": "2023-04-01", "fvst:navnelbnr": "113055", "name": "Det Ny Teater Bar 2 parketplan", "ref:DK:cvr": "17741039", "ref:DK:cvr:pnummer": "1001350203"}}, {"type": "node", "id": 8158377269, "lat": 55.6713715, "lon": 12.5600529, "tags": {"amenity": "bar", "fvst:navnelbnr": "722039", "name": "Hats Boots & Bourbon", "phone": "+45 91821908", "ref:DK:cvr": "38643762", "ref:DK:cvr:pnummer": "1022446262", "shop": "clothes", "website": "https://hatsbootsbourbon.com/"}}, {"type": "node", "id": 8162242504, "lat": 55.6732342, "lon": 12.5554496, "tags": {"amenity": "bar", "check_date": "2023-04-01", "fvst:navnelbnr": "113522", "name": "Det Ny Teater Bar 1", "ref:DK:cvr": "17741039", "ref:DK:cvr:pnummer": "1001350203"}}, {"type": "node", "id": 8165451528, "lat": 55.6732372, "lon": 12.5554976, "tags": {"amenity": "bar", "check_date": "2023-04-01", "fvst:navnelbnr": "113593", "name": "Det Ny Teater Bar 2 balkonplan", "ref:DK:cvr": "17741039", "ref:DK:cvr:pnummer": "1001350203"}}, {"type": "node", "id": 8184307408, "lat": 55.6732293, "lon": 12.555517, "tags": {"amenity": "bar", "check_date": "2023-04-01", "fvst:navnelbnr": "112150", "name": "Det Ny Teater Bar 2", "ref:DK:cvr": "17741039", "ref:DK:cvr:pnummer": "1001350203"}}, {"type": "node", "id": 8184307413, "lat": 55.677633, "lon": 12.536886, "tags": {"amenity": "bar", "fvst:navnelbnr": "933189", "name": "Creative Space", "ref:DK:cvr": "39187280", "ref:DK:cvr:pnummer": "1023170198"}}, {"type": "node", "id": 8194597733, "lat": 55.6732077, "lon": 12.5554895, "tags": {"amenity": "bar", "check_date": "2023-04-01", "fvst:navnelbnr": "646042", "name": "Det Ny Teater Bar k\u00e6lder", "ref:DK:cvr": "17741039", "ref:DK:cvr:pnummer": "1001350203"}}, {"type": "node", "id": 8200275557, "lat": 55.673224, "lon": 12.55546, "tags": {"amenity": "bar", "check_date": "2023-04-01", "fvst:navnelbnr": "113521", "name": "Det Ny Teater Bar 1 parketplan", "ref:DK:cvr": "17741039", "ref:DK:cvr:pnummer": "1001350203"}}, {"type": "node", "id": 8204073348, "lat": 55.687674, "lon": 12.559516, "tags": {"amenity": "bar", "fvst:navnelbnr": "955713", "name": "Torobar", "opening_hours": "11:00-24:00; Fr-Sa 11:00-02:00", "ref:DK:cvr": "39516942", "ref:DK:cvr:pnummer": "1023557505", "website": "http://torobar.dk/"}}, {"type": "node", "id": 8486140275, "lat": 55.6851195, "lon": 12.5527485, "tags": {"amenity": "pub", "fvst:navnelbnr": "1144337", "name": "Sorte Ren\u00e9", "ref:DK:cvr": "36973595", "ref:DK:cvr:pnummer": "1020601635"}}, {"type": "node", "id": 9091517115, "lat": 55.6703004, "lon": 12.5566439, "tags": {"amenity": "bar", "drink:cider": "yes", "fvst:navnelbnr": "719393", "name": "Holm Cider", "opening_hours": "Tu-Th 14:00-23:00; Fr 14:00-24:00; Sa 12:00-24:00", "ref:DK:cvr": "37601365", "ref:DK:cvr:pnummer": "1021323264", "shop": "alcohol", "website": "https://holmcider.dk/"}}, {"type": "node", "id": 9091818725, "lat": 55.6710387, "lon": 12.5612913, "tags": {"amenity": "bar", "branch": "Halmtorvet", "description": "ginbar", "drink:gin": "yes", "fvst:navnelbnr": "993561", "name": "Two Socks", "opening_hours": "16:00-24:00, Fr-Sa 12:00-02:00; Su off", "ref:DK:cvr": "42351571", "ref:DK:cvr:pnummer": "1027136512", "website": "https://two-socks.dk/"}}, {"type": "node", "id": 9091818726, "lat": 55.6713509, "lon": 12.5540875, "tags": {"amenity": "bar", "fvst:navnelbnr": "551577", "name": "Kanon Bar", "ref:DK:cvr": "35741763", "ref:DK:cvr:pnummer": "1019254158"}}, {"type": "node", "id": 9101970206, "lat": 55.6797397, "lon": 12.5333801, "tags": {"amenity": "bar", "fvst:navnelbnr": "1012862", "name": "Scandic Falkoner Bar", "operator": "Scandic Hotels", "ref:DK:cvr": "12596774", "ref:DK:cvr:pnummer": "1022910376"}}, {"type": "node", "id": 9110835344, "lat": 55.672712, "lon": 12.55484, "tags": {"amenity": "bar", "cuisine": "tapas", "description": "vinbar", "drink:wine": "yes", "fvst:navnelbnr": "713429", "name": "PioVin", "ref:DK:cvr": "38833545", "ref:DK:cvr:pnummer": "1022722189", "website": "http://www.piovin.dk/"}}, {"type": "node", "id": 9351196036, "lat": 55.671432, "lon": 12.558422, "tags": {"amenity": "bar", "fvst:navnelbnr": "975254", "name": "Gin-D", "ref:DK:cvr": "41872179", "ref:DK:cvr:pnummer": "1026499573"}}, {"type": "node", "id": 9454954545, "lat": 55.6806744, "lon": 12.5337702, "tags": {"air_conditioning": "no", "amenity": "bar", "fvst:navnelbnr": "1218264", "indoor_seating": "yes", "name": "Bootleggers", "opening_hours:signed": "no", "outdoor_seating": "yes", "ref:DK:cvr": "33146973", "ref:DK:cvr:pnummer": "1027396476", "website": "https://www.bootleggers.dk/kopi-af-amager", "wheelchair": "no"}}, {"type": "node", "id": 9760636342, "lat": 55.670982, "lon": 12.558493, "tags": {"amenity": "bar", "fvst:navnelbnr": "989220", "name": "Luna Cocktailbar", "ref:DK:cvr": "38712853", "ref:DK:cvr:pnummer": "1027107237"}}, {"type": "node", "id": 9930323859, "lat": 55.6728589, "lon": 12.5606764, "tags": {"amenity": "bar", "name": "Barril"}}, {"type": "node", "id": 9956549050, "lat": 55.6730867, "lon": 12.5587722, "tags": {"amenity": "bar", "check_date:currency:XBT": "2023-03-26", "cocktails": "yes", "currency:XBT": "yes", "min_age": "21", "name": "Curfew", "opening_hours": "Tu-Th 18:00-02:00; Fr-Sa 17:00-03:00", "payment:cash": "yes", "payment:credit_cards": "yes", "payment:debit_cards": "yes", "payment:lightning": "yes", "payment:onchain": "yes", "phone": "+4529299276", "survey:date": "2022-10-28", "website": "http://curfew.dk/"}}, {"type": "node", "id": 10722048056, "lat": 55.68005, "lon": 12.548711, "tags": {"amenity": "bar", "fvst:navnelbnr": "1227750", "name": "Rascal", "opening_hours": "16:00-23:00; Fr-Sa 15:00-24:00; Su-Mo off", "ref:DK:cvr": "43096958", "ref:DK:cvr:pnummer": "1028047122", "website": "https://rascalcph.dk/"}}, {"type": "node", "id": 10744240482, "lat": 55.6705675, "lon": 12.5364019, "tags": {"amenity": "bar", "fvst:navnelbnr": "1229250", "name": "Vespa Vinbar", "ref:DK:cvr": "43032208"}}, {"type": "way", "id": 324488860, "nodes": [3312007936, 3529010440, 3312007937, 2338189065, 2338189050, 2338189077, 2338189058, 3312007936], "tags": {"amenity": "bar", "building": "yes", "fvst:navnelbnr": "516689", "internet_access": "wlan", "internet_access:ssid": "Lidkoeb-Guest", "name": "Lidk\u00f8b", "opening_hours": "16:00-02:00; Su 20:00-02:00", "phone": "+45 33112010", "ref:DK:cvr": "33955820", "ref:DK:cvr:pnummer": "1017162396", "website": "http://lidkoeb.dk/"}}]}